{"type":"FeatureCollection","features":[{"type":"Feature","properties":{"GEOID":"13","NAME":"Georgia","STATE":"13"},"geometry":{"type":"Polygon","coordinates":[[[-81.09968599987084,31.518525999785435],[-81.08706700035881,31.529158000381898],[-81.08318300037894,31.564908999998224],[-81.07668300029052,31.597945999758355],[-81.06582600039421,31.62522699964613],[-81.06963300038117,31.642404999621892],[-81.06663499978289,31.657327999934832],[-81.05900599974032,31.666007999822785],[-81.04978900015931,31.688633000044554],[-81.05152099963782,31.70519800006007],[-81.05662300015858,31.714875000240525],[-81.02582400013111,31.720227000048084],[-81.01381200034139,31.728643000247434],[-80.99720000017122,31.74850299972233],[-80.99616999995129,31.76213299973597],[-80.98300200044328,31.772682000013884],[-80.97695199971832,31.78087599966119],[-80.97309899970061,31.788223000080116],[-80.9707260001646,31.798352999680898],[-80.94963099978986,31.803048999967405],[-80.93831600013414,31.809008000163814],[-80.92858900001688,31.816981999665614],[-80.9221340001343,31.825279000269624],[-80.91681700042668,31.838377000111777],[-80.91170499986015,31.840649000186737],[-80.89698800027342,31.85280600024908],[-80.88877900027272,31.865782000376083],[-80.87481300034835,31.88070400029013],[-80.85533900002234,31.910809000286903],[-80.8292240000409,31.926584000241533],[-80.81927500016579,31.933854999874036],[-80.81460600018836,31.939999000060553],[-80.80405399989058,31.946131000116843],[-80.79627199968715,31.953458999753824],[-80.78984100009401,31.96438999979287],[-80.78582800024272,31.98036600009345],[-80.78623999997136,31.985751999888787],[-80.78296000023906,31.995954000083838],[-80.81557699995874,32.029918000247584],[-80.8227619995873,32.03424399978109],[-80.85023800022478,32.04142000032791],[-80.88613899987472,32.03895200014981],[-80.89212799960198,32.03542500017794],[-80.92102699992145,32.03998999983856],[-80.92508499997861,32.04193900021629],[-80.95403100015376,32.07028999968529],[-80.95956899979431,32.072854000275925],[-80.9719150003932,32.074632999904836],[-80.98350899970816,32.07954900009533],[-80.99213799983343,32.09491500035848],[-81.00430500033217,32.102367000312505],[-81.01244400001266,32.101742000362805],[-81.01735499983941,32.098785000328185],[-81.02159700001957,32.09170300011662],[-81.02629600013422,32.08810300021775],[-81.03812499962584,32.08373400004597],[-81.04361200011107,32.0861940002143],[-81.05973200018664,32.08865100021207],[-81.07539100012977,32.09803500014042],[-81.08826999993279,32.09993100019088],[-81.08697399957408,32.10396800036607],[-81.09161900016038,32.111165000146805],[-81.10178499977047,32.11132800003976],[-81.10670300016822,32.10969800018914],[-81.11536699955528,32.11470499973997],[-81.11722500032877,32.11980500018623],[-81.11524699990467,32.12550399974648],[-81.11993699979848,32.13529999972459],[-81.11833099981837,32.144408000246976],[-81.11223400013607,32.14930600002294],[-81.1122359997859,32.15080400019812],[-81.12003399988288,32.15330300003619],[-81.12213699998044,32.157303999954436],[-81.12202999985031,32.16179599995459],[-81.12975599997726,32.16583899989254],[-81.12814199960123,32.16909700006301],[-81.1211489995933,32.174902000334924],[-81.11943700020629,32.175361999716195],[-81.11694599977122,32.17091400024154],[-81.11113199994614,32.17270299982294],[-81.11023399997067,32.17680000031502],[-81.11193299983721,32.17800200035707],[-81.11693300025073,32.17619799981041],[-81.12043899993883,32.17869999993252],[-81.11793499998325,32.18529700000161],[-81.11823700010704,32.18920299964582],[-81.12115799981413,32.190079999651175],[-81.12179499967368,32.1917939998398],[-81.11482099993232,32.193422999878344],[-81.11403199973681,32.195701000072674],[-81.12188500008537,32.19553799971676],[-81.12314899975871,32.20132000000964],[-81.12742000025118,32.20755400017758],[-81.13601199966821,32.21285399997503],[-81.1389249998777,32.219767999675845],[-81.14317499955546,32.221738999677285],[-81.15206399997172,32.222042000126116],[-81.14634899988084,32.22455500004902],[-81.14363400003809,32.22926599965129],[-81.14577099957253,32.23234300031469],[-81.15288300030446,32.23678699963948],[-81.15660699955244,32.24328399994224],[-81.15446499999513,32.24692100036121],[-81.14590500036515,32.25072400012707],[-81.14812399991536,32.255091000090815],[-81.14473899970278,32.25805999997312],[-81.1463170000938,32.26332300010371],[-81.13936699974356,32.2636999996224],[-81.13692999973516,32.266114999658186],[-81.13792499979499,32.26889100028379],[-81.14210800042392,32.27157600021745],[-81.13603299958461,32.272662999660426],[-81.1331789998247,32.26967800019844],[-81.12947899996783,32.27621799987169],[-81.12350500030917,32.27514300014281],[-81.12327599998032,32.27697500036911],[-81.12646299982619,32.27924899962186],[-81.12714099969361,32.2822549999507],[-81.119628000002,32.28677800003153],[-81.12045599965727,32.29087500030261],[-81.12391700003782,32.29519399980117],[-81.12263099972486,32.30698999985725],[-81.12523400031293,32.30907500016803],[-81.12856300044902,32.30687299964495],[-81.13301599961807,32.308545999711285],[-81.12977699989365,32.31328999966315],[-81.13162700027124,32.31864400029875],[-81.13073500014356,32.32575600035627],[-81.13554600041121,32.32432299991052],[-81.13801299965853,32.328240000144895],[-81.13280399990596,32.33474600033893],[-81.1289559999111,32.33645200022783],[-81.12853499996162,32.33838099969436],[-81.12961500041025,32.34170399988434],[-81.13348199977338,32.34097799969697],[-81.13929599959846,32.34502499968461],[-81.14136600008406,32.350147000101686],[-81.14385699962084,32.351543000061795],[-81.14731800000142,32.35012700028055],[-81.14532700005682,32.34516000031292],[-81.14954699959738,32.345079000111895],[-81.15281999965696,32.34132100026883],[-81.15999500013807,32.34047600009192],[-81.15998400026743,32.34285200008922],[-81.15560999984278,32.343313999800664],[-81.15460800011027,32.35006800025134],[-81.16092800027364,32.349472999747874],[-81.16099799969551,32.3559050002422],[-81.16630000023284,32.35786800003383],[-81.16740400007262,32.36135599984053],[-81.17387499984872,32.362766000138194],[-81.16899599980903,32.365118999984794],[-81.16791399971055,32.368481999671296],[-81.17672699995883,32.37671899974684],[-81.18184500037313,32.37934800021442],[-81.17778399994296,32.38623100034663],[-81.17828299971025,32.39298600035858],[-81.2054050003454,32.423339000268136],[-81.20511400009225,32.42722499968931],[-81.20838899980167,32.4372499998485],[-81.20058499985691,32.44068899995109],[-81.19929199987125,32.442914000311504],[-81.20075499973622,32.44608600011517],[-81.20631800038946,32.44700700002251],[-81.20577400041633,32.4504740001074],[-81.2032860003543,32.45299299975435],[-81.19786800036432,32.448554999974135],[-81.1976690001727,32.45460800005013],[-81.19201299963306,32.45378600031598],[-81.19441200000664,32.458908999811804],[-81.18860200037952,32.46122600000429],[-81.18714100016436,32.464148999735784],[-81.19477000020693,32.4651619999239],[-81.20040800030492,32.46831399999756],[-81.23311100023834,32.4980690000509],[-81.23425400043617,32.50274699982737],[-81.23779500028436,32.50525599981949],[-81.23882100030633,32.50805199989378],[-81.23715900024972,32.51129599986049],[-81.23232200004281,32.51208200013226],[-81.23379400012863,32.51830999981325],[-81.24086499995435,32.51648100037619],[-81.24393700017251,32.52090399966208],[-81.24745499955615,32.51828099979621],[-81.25206300033253,32.51813600032787],[-81.27192300044791,32.52998400033905],[-81.27464599978828,32.53418799998469],[-81.27965500042265,32.536337999900596],[-81.27992200038632,32.53763599964729],[-81.27523900016521,32.53981300019686],[-81.27480099959898,32.54441599980754],[-81.28087399989013,32.547899999882205],[-81.27873599963246,32.55244600014969],[-81.28058000016229,32.55603000009002],[-81.28385800024473,32.55653800013932],[-81.28514799985734,32.55234500012661],[-81.28862699978126,32.5511130001351],[-81.28996199959973,32.552179999911814],[-81.28846699994769,32.55845600033667],[-81.29096099985753,32.56266299985058],[-81.29345599959225,32.56158400031574],[-81.29131200038512,32.558364999802926],[-81.29147999971629,32.55571399995607],[-81.29616499958722,32.5533449996879],[-81.29807199986621,32.55534299978522],[-81.29530199977188,32.56080599980273],[-81.29765199974166,32.562931000318024],[-81.31960200043416,32.559562000378556],[-81.32860499975492,32.56109200020327],[-81.35592599968338,32.57160600019236],[-81.35831400018631,32.57445100037059],[-81.35349200004802,32.57877000011262],[-81.3580310003291,32.58221099999265],[-81.36016799986353,32.58177800007955],[-81.36349399962658,32.57690799980814],[-81.36678199975479,32.57691499962842],[-81.36724799991012,32.57836099999055],[-81.36358599968808,32.582976999905064],[-81.36981899981282,32.58504799995469],[-81.36926999981682,32.590704999997946],[-81.37314499957586,32.59209400023683],[-81.3760059999068,32.58925600016327],[-81.37888300013127,32.58891199968988],[-81.38920500027528,32.595415999978826],[-81.39376499957444,32.60233099990965],[-81.40646400035072,32.61304199976418],[-81.40751700013688,32.61658299967352],[-81.41190599973181,32.61840899983316],[-81.41308699956448,32.62480300010879],[-81.41866000026346,32.62939200031224],[-81.4184309999346,32.63470399963773],[-81.41476100021498,32.637438999669925],[-81.41288400007322,32.63667999989855],[-81.41025999956874,32.63139199979253],[-81.4072710000896,32.6317369999012],[-81.40273500018156,32.63703099964536],[-81.4118270000891,32.63938299972944],[-81.41255299963711,32.641522999731684],[-81.4035820001034,32.64339700036221],[-81.39303300017866,32.65154199993183],[-81.39381800017621,32.65349099991918],[-81.39943199998476,32.65681299976246],[-81.40527299957401,32.65651700014786],[-81.40719300027179,32.660519000272565],[-81.40536899983347,32.66291900007597],[-81.40325400004033,32.65946400005082],[-81.40034199965577,32.65848799965377],[-81.397153999985,32.66137799964311],[-81.404286999735,32.66779699972635],[-81.40121100021722,32.67988200024987],[-81.40700999997368,32.685550000013954],[-81.40568400037606,32.68988799993707],[-81.40901199978892,32.69655100009766],[-81.41087499968698,32.6968599997708],[-81.41054499997409,32.69251200023924],[-81.41240299984929,32.692095000286216],[-81.41357700000925,32.69547199964861],[-81.41780999996858,32.695569000190325],[-81.42141899958884,32.70049100030314],[-81.42751699999437,32.70189500016553],[-81.42407900007832,32.706293999754074],[-81.42592699990779,32.71003700035372],[-81.42243799993813,32.70960699984563],[-81.42119400035627,32.71197800028532],[-81.41512000024018,32.7136689998091],[-81.4203380002136,32.721050999942186],[-81.40998799958219,32.72186300003671],[-81.41057699976115,32.72331699994613],[-81.4177689999607,32.7250740000249],[-81.41675200015956,32.7287620003],[-81.41854200026269,32.732584999712174],[-81.41209900007566,32.732622000128316],[-81.41367800029161,32.73799199983982],[-81.40704299958564,32.740661999893774],[-81.40493199999045,32.74555900007169],[-81.40586599995093,32.74914399971676],[-81.41787100006795,32.74782599997812],[-81.41969799998101,32.74916700017535],[-81.41673299989299,32.753276000302606],[-81.41156799962302,32.753116999648476],[-81.4081590000193,32.75580299980061],[-81.41403800014172,32.75542300036102],[-81.41209300022788,32.763865999907985],[-81.4146280001456,32.764184000318245],[-81.41776599958766,32.760221999892245],[-81.41890100028787,32.76113200009933],[-81.41683400017534,32.76531800015875],[-81.41894300012068,32.767628999686586],[-81.4319399999245,32.76891099984489],[-81.43151300012723,32.77148399973699],[-81.42985400044367,32.772128999896346],[-81.4173530000341,32.773335999954725],[-81.41445599971814,32.77814899978348],[-81.41616800000345,32.77979199969094],[-81.4248309995656,32.77870299999916],[-81.43007799985133,32.781770999637764],[-81.43123500029289,32.78414100014322],[-81.42997699956899,32.785235000039556],[-81.42563599965463,32.78260400021526],[-81.4222399995714,32.78398599993342],[-81.42206800004227,32.78556300019796],[-81.42766699978219,32.787613000218535],[-81.42001099997545,32.79288500006001],[-81.41987899973097,32.794857000087354],[-81.42523399997174,32.794189999730634],[-81.42829199994617,32.80083200002716],[-81.42244399978591,32.80247700021293],[-81.42644499994164,32.81070999981266],[-81.42134300031918,32.812107999662075],[-81.41798400004586,32.81819599981524],[-81.42058500008581,32.81865099977925],[-81.42435400043794,32.81617899969497],[-81.42823500004477,32.81858399999392],[-81.42304100036078,32.819746999899856],[-81.42195199969132,32.821465999748135],[-81.42994300013213,32.82824600014544],[-81.42367400002239,32.82830699986303],[-81.4206200002459,32.83122300017571],[-81.42161399958252,32.835177999985056],[-81.42647500007885,32.8407729998518],[-81.4335950003084,32.84367399971315],[-81.43865199972502,32.84007600002039],[-81.44288200020962,32.84584700007395],[-81.44267100032242,32.850107000006325],[-81.44486599958319,32.85096599968353],[-81.45119900016535,32.84792400021021],[-81.45274400004608,32.84414999976418],[-81.46072200006812,32.846037999652076],[-81.46021099970694,32.84740200011133],[-81.45555900034628,32.846508000000945],[-81.45691699973095,32.8526039996845],[-81.45301699985757,32.85963599995647],[-81.45336099981415,32.86384699981351],[-81.45136700039482,32.867164999965254],[-81.45288299996326,32.872963999868105],[-81.46055600038676,32.875161000281324],[-81.4650510002869,32.88089599998466],[-81.46713799959262,32.88060199993143],[-81.4680420003142,32.87667500012503],[-81.47037600039043,32.876267000005505],[-81.47591800022896,32.87764000004238],[-81.47944499983345,32.88108200009968],[-81.47639600007984,32.887962000221926],[-81.47170299981298,32.89043899977835],[-81.46619000028677,32.8891280000302],[-81.46823200028498,32.89325100019858],[-81.46465499955347,32.89599899995049],[-81.46443299979562,32.89860299965121],[-81.46770000000743,32.900899999934545],[-81.47076100035491,32.900902000167605],[-81.47178900002672,32.89380699962829],[-81.48081200033728,32.89861399970913],[-81.4791800004179,32.90420299966322],[-81.48144400017395,32.90889499969959],[-81.48000800007314,32.91344399989747],[-81.48704899976165,32.91477200027348],[-81.48762600024504,32.91640700021153],[-81.48319800029206,32.921801999857216],[-81.495092000081,32.93159599984506],[-81.49982899983048,32.93261400010299],[-81.5024270003957,32.935352999709494],[-81.50271600010069,32.93868799988941],[-81.49944600041417,32.94498800013894],[-81.5086089995685,32.95255100019888],[-81.51134699987578,32.96672100024337],[-81.50883899972227,32.96936800006381],[-81.50614200032116,32.964128999774815],[-81.5024559998097,32.96279799972731],[-81.4998299996554,32.9638160002656],[-81.49783700006101,32.97301099982796],[-81.49473600042886,32.97899699972889],[-81.49567299986406,32.982725999999914],[-81.49416499979324,32.98570499991696],[-81.49632700034034,32.99021200032545],[-81.49225199966646,32.99350999983496],[-81.49119700023047,32.99782399962348],[-81.4998299996554,33.0006549999135],[-81.50062999972155,33.002454000151445],[-81.49875299957979,33.00506499978181],[-81.49189900038736,33.00669399966502],[-81.49195399974063,33.00909300026624],[-81.49867999978487,33.01133600017531],[-81.50405299956898,33.016253000259184],[-81.50666799985264,33.01508200008355],[-81.50821799975625,33.01052699962829],[-81.51068999992476,33.010315000221624],[-81.51156199996095,33.01236599985733],[-81.50822000030438,33.017509999778675],[-81.51028200039407,33.021233000277],[-81.51607299975461,33.02083300007797],[-81.51907499965256,33.023195999837604],[-81.51169000000746,33.02450599966118],[-81.51124499976854,33.0277860000876],[-81.52274199989743,33.03083600023849],[-81.52845100014052,33.035646000292054],[-81.52912399998509,33.04081000027524],[-81.53549799967682,33.038488999632705],[-81.53878900017808,33.03918499990321],[-81.54224200016272,33.04736399982678],[-81.54543999987925,33.04899299969204],[-81.55178599998189,33.04339000006298],[-81.56194800029233,33.04584400036954],[-81.56610799955841,33.048792000375926],[-81.56034399996204,33.05003599972622],[-81.55917300017511,33.05176499972649],[-81.55939900013092,33.05490400009734],[-81.56337199979924,33.06015600032648],[-81.56698999964036,33.06040100030099],[-81.56276900027488,33.056123000032],[-81.566310999948,33.05343000029108],[-81.5728799996334,33.05417999993954],[-81.57179800043325,33.05807899963195],[-81.57812199989627,33.05777400013431],[-81.57833199995855,33.05893599993521],[-81.57450499988008,33.06004899994856],[-81.57491099976095,33.06179900016216],[-81.58099400009786,33.06269700011265],[-81.5771600003467,33.06433500033136],[-81.57718700011087,33.06593900025799],[-81.58310300004322,33.064959999725666],[-81.5829749999967,33.068574999671675],[-81.58436099986878,33.06990200027528],[-81.58731000006328,33.06985100003191],[-81.59251700016604,33.073061999691234],[-81.59358599984571,33.069495999939356],[-81.59602500040226,33.07269299975528],[-81.60221199959793,33.07347299998283],[-81.60329799989435,33.07508999967518],[-81.59899100031518,33.0766819999215],[-81.59650099970501,33.07989300017177],[-81.60132000036857,33.087049000142876],[-81.60683600026782,33.08171600003966],[-81.61207199978459,33.080019000329415],[-81.61294299999587,33.08398100035675],[-81.60828599971401,33.0890219998906],[-81.61165699968288,33.09425899979162],[-81.61725600032113,33.095697999908865],[-81.64233299968672,33.09315200021456],[-81.65843299967081,33.10315200035207],[-81.67943299961097,33.11175100034414],[-81.69693400043407,33.116550999795834],[-81.70463399972344,33.116449999900894],[-81.71163400030238,33.12195100023193],[-81.72173399979023,33.12645099973827],[-81.72953400043532,33.133749999689314],[-81.74383500009546,33.14145000011221],[-81.74633499985306,33.146049999931364],[-81.75213500033276,33.148549999763546],[-81.76313500034419,33.159449000281924],[-81.76423499998602,33.165249000124845],[-81.76823500031684,33.167948999642526],[-81.76703500021759,33.17214799981343],[-81.77243499976588,33.180449000319626],[-81.77173500015715,33.18154799976828],[-81.76863500034992,33.17844900029112],[-81.76543500008526,33.17834800020249],[-81.76493499959474,33.17994900026896],[-81.7676350002672,33.18354799973311],[-81.76703500021759,33.18654800015746],[-81.76063499968829,33.18924799983228],[-81.75953500004645,33.19474700033955],[-81.75683500027232,33.197947000001],[-81.76353500037729,33.203648000050286],[-81.76893499992558,33.21744699967408],[-81.7740349998982,33.22114699989846],[-81.78013499995356,33.22114699989846],[-81.78103499957884,33.21984700036503],[-81.77733499972197,33.21494699962854],[-81.77753499973853,33.21134699965898],[-81.78453500031745,33.20814600007565],[-81.79023600016463,33.2084469998644],[-81.79823599992797,33.21164700011428],[-81.80523800015672,33.21144099981205],[-81.80793600028105,33.21374599973354],[-81.8096359999725,33.222646999751106],[-81.82793600013852,33.228746000082154],[-81.83503600027657,33.236145000208474],[-81.84653599988022,33.241745999645296],[-81.85207600006892,33.2472879997288],[-81.853137000251,33.25074500013047],[-81.85113700008557,33.252545000047625],[-81.84513599976442,33.252545000047625],[-81.83963599975871,33.255245000264196],[-81.8410359998745,33.25704499987977],[-81.84613599984714,33.25814499970939],[-81.84813600001256,33.26394499974759],[-81.84733599994638,33.266345000351144],[-81.84386200004535,33.26662099984269],[-81.83453599978607,33.25834500003418],[-81.82833600017162,33.26304500017068],[-81.83013600032048,33.264545000072204],[-81.83343600014425,33.26224500010617],[-81.83583600034274,33.26284500009032],[-81.83573800043347,33.271044999636565],[-81.83263600007808,33.275844999778506],[-81.83883599969255,33.27374500036047],[-81.84403600012261,33.27864400020068],[-81.84563600025494,33.28424399969355],[-81.8576360003491,33.2846439997482],[-81.86323599991394,33.288843999644875],[-81.86203599981467,33.29694400014546],[-81.86003599964927,33.29914400031991],[-81.85293600040954,33.299644000129604],[-81.8503360001945,33.2964439998763],[-81.84873600006219,33.29674399963087],[-81.84953600012834,33.300044000166224],[-81.84603600028802,33.30434300009965],[-81.84733599994638,33.306843000146976],[-81.85518599992187,33.310394999785245],[-81.86392899984996,33.30203600007857],[-81.86493599960536,33.3118429999316],[-81.86793599985349,33.31404299962647],[-81.8807369998387,33.30224300017371],[-81.8846369997121,33.30894299966393],[-81.88163599963909,33.315843000053036],[-81.88373700008681,33.31764300009503],[-81.89253699991633,33.31534300003433],[-81.88913699963511,33.321043000179515],[-81.8905369997509,33.32244199980393],[-81.89553700016444,33.321641999963354],[-81.89903700000475,33.32334200013562],[-81.89943700003784,33.32514199993688],[-81.89653700024714,33.32954199979254],[-81.90138399960148,33.33577399985405],[-81.90363700038519,33.33484199974303],[-81.9027369998616,33.33024200011153],[-81.90603699968537,33.32604200015625],[-81.90612999957179,33.321619999681964],[-81.9115369996911,33.31914200014052],[-81.91373699987305,33.320042000020536],[-81.90913700039091,33.32394199969678],[-81.90813700030822,33.32714199964341],[-81.91913700031967,33.334442000247975],[-81.91503700042972,33.3415420002152],[-81.90843699988386,33.343841999932565],[-81.90913700039091,33.34664099977117],[-81.91321499964121,33.34682099981121],[-81.91880000003576,33.34020899988181],[-81.92473699988449,33.34534100027342],[-81.93273699964783,33.34354099981043],[-81.93973700022676,33.3449410002176],[-81.93983699978588,33.34774100029111],[-81.93563700033681,33.35204099967732],[-81.93483200024778,33.35604400012713],[-81.94473699974196,33.36404099998143],[-81.94673699990739,33.36734000011105],[-81.9463369998743,33.37063999971562],[-81.93963699976932,33.37254000030852],[-81.93463700025411,33.36893999997941],[-81.93063400044856,33.3681650003066],[-81.9257369999672,33.37113999967035],[-81.92483700034192,33.374139999810524],[-81.93086100022929,33.38007600003934],[-81.9354530002138,33.39785099980569],[-81.94447599962606,33.40367400018753],[-81.945181000156,33.407531000227785],[-81.9426689998045,33.40919499972936],[-81.9313900001338,33.40695600020018],[-81.9244980004082,33.412479000213516],[-81.92177400034461,33.40886699981186],[-81.91640599968504,33.407348999848246],[-81.91209800028098,33.40825999977959],[-81.9096930000596,33.411979000294565],[-81.91076500011232,33.41503500020474],[-81.92455000028674,33.419109000112286],[-81.93243000039948,33.425706000318165],[-81.92974099959767,33.42959399969465],[-81.91732399975199,33.432346000012224],[-81.91312599995277,33.438332999828226],[-81.91385200039909,33.44202599965456],[-81.91943600007039,33.44909800029913],[-81.92633600019191,33.462936999840764],[-81.9341359999387,33.46833700017955],[-81.9859380002794,33.486536000145016],[-81.99093799979462,33.49423500025601],[-81.99038200012592,33.50075899995025],[-81.99193799987731,33.504434999833485],[-82.00133799975643,33.52013499971199],[-82.0076379998283,33.5233350001264],[-82.01096500031458,33.531339999742926],[-82.019837999939,33.53503500004018],[-82.02343800023674,33.53793500019854],[-82.02343800023674,33.540733999969916],[-82.02561300030435,33.54275600027573],[-82.03302300006379,33.54645400000395],[-82.03737499984881,33.5546620002532],[-82.04633500041017,33.56382999975414],[-82.05772700005878,33.56677399980878],[-82.0731039999696,33.57751000037304],[-82.09412800019923,33.582742000290125],[-82.10783999968038,33.59627700010234],[-82.11750499987338,33.59622900007491],[-82.12907999982009,33.58992500006054],[-82.13802799978758,33.59223599998703],[-82.14881600008691,33.59809200019718],[-82.15335700001782,33.60631900022262],[-82.15628799977065,33.60863000004342],[-82.17617200017548,33.61377499985297],[-82.1861550003858,33.62088099971304],[-82.19689500010624,33.63144000017539],[-82.20118599979187,33.64689799984737],[-82.19989799982908,33.661699999782016],[-82.2103610004384,33.66983700011524],[-82.21788300035085,33.6855390000442],[-82.2345719996156,33.70021699994857],[-82.2371919999221,33.70787999966714],[-82.23575300034658,33.71438999996426],[-82.23909800037619,33.73087199990137],[-82.24566399968853,33.74344300016055],[-82.24747200023333,33.752590999743695],[-82.25526699995724,33.759690000019695],[-82.2632059996212,33.76196200027768],[-82.2661270002266,33.76674500010097],[-82.27768100025692,33.77203199966837],[-82.28580400004388,33.780058000065736],[-82.29828600018689,33.78351800010987],[-82.30021299965907,33.80062700002507],[-82.31289999984146,33.80748600009153],[-82.31435000018598,33.81111100002076],[-82.32447999981103,33.820033000211986],[-82.33782899996736,33.827155999904996],[-82.34693299957047,33.8342980003495],[-82.37177499965772,33.84381300034176],[-82.3797710001214,33.85109599977914],[-82.39573499966305,33.859087999693834],[-82.40387900026474,33.86547500015732],[-82.4083530002485,33.86631999998989],[-82.42488800042577,33.86413299992405],[-82.43114999996449,33.867051000002654],[-82.44050299998794,33.87512299990186],[-82.45510499994694,33.88165000030913],[-82.48011100006573,33.90189699979054],[-82.49292899976939,33.90975399966722],[-82.51142200027928,33.935612999904905],[-82.52451500034256,33.94336000003776],[-82.53411100004026,33.94365099974566],[-82.54310699968832,33.94094999979273],[-82.55676499964113,33.945324000352485],[-82.56520200014577,33.95676499982067],[-82.56758999975038,33.967880000090844],[-82.57997999983188,33.9805190003326],[-82.58012399977191,33.9864469999251],[-82.57556899959732,33.99023500023287],[-82.57555400042702,33.992211000139385],[-82.58502899975089,33.99617100020585],[-82.5889589997615,34.00051199975927],[-82.59549700038309,34.01586499996191],[-82.59445899976723,34.029303999899504],[-82.60942099957636,34.03990599977126],[-82.61301400020139,34.04689799984814],[-82.61915600008955,34.05135000016702],[-82.6212869997762,34.0578289998252],[-82.62663199997121,34.06333900019148],[-82.6389850002428,34.06677900020536],[-82.6436609998929,34.07210500009769],[-82.64536700033045,34.07825700032321],[-82.6401690004485,34.087328999725294],[-82.64241599958781,34.09326400028226],[-82.6478360001259,34.0985479997468],[-82.65872900000723,34.10377200035346],[-82.66634399980609,34.11275099995117],[-82.66855900005666,34.120434999634426],[-82.67698499979234,34.1314250002252],[-82.6862900001352,34.13445400011464],[-82.69215199964087,34.13898599979383],[-82.70412900016878,34.14102099973779],[-82.71745900005853,34.15054600037001],[-82.72476900025887,34.168694000314424],[-82.731452999572,34.177085999692075],[-82.73212399976671,34.19332100025977],[-82.74187500017344,34.21020900035433],[-82.74233999960553,34.21343199966095],[-82.74025699959945,34.21944799998939],[-82.74436300023548,34.22541000029658],[-82.7420120004408,34.229328000348794],[-82.74487299987342,34.24491899987254],[-82.74291999956368,34.25107199991856],[-82.74556699963438,34.25406600001949],[-82.74582500027554,34.25835600002459],[-82.74853599992035,34.2631259999822],[-82.74681100011455,34.26658800011305],[-82.75424199979038,34.275787000099285],[-82.76168800043317,34.28168500010551],[-82.76675400007062,34.28232200022873],[-82.77151500010955,34.28605299995779],[-82.78212799960838,34.2982780002757],[-82.78199299988918,34.303176999899534],[-82.78706100007476,34.31029900009097],[-82.7917450001208,34.32516099977459],[-82.79117799968314,34.33054100021926],[-82.7944700000093,34.34037899964545],[-82.81260699996872,34.351143999901524],[-82.81377000025805,34.35393499997562],[-82.83445700020377,34.36522100024025],[-82.83597500032033,34.38090899985559],[-82.8417740000768,34.39155300013838],[-82.84145299968642,34.39905400021539],[-82.84751099990899,34.41276100013536],[-82.84696899958568,34.41987600020863],[-82.84962599970213,34.42567800006957],[-82.85401099999743,34.42881800016596],[-82.85548599955797,34.44179099994603],[-82.86012399957323,34.45284000006767],[-82.85883700033368,34.455220000111225],[-82.86440000008858,34.45978499976239],[-82.87184599983304,34.46118899975436],[-82.87347899957734,34.46431899986639],[-82.88064400001272,34.46900000001178],[-82.88134500034468,34.47286700025577],[-82.88739799964604,34.480959000138405],[-82.8924480002883,34.481107000361924],[-82.90155100006648,34.48676400020134],[-82.91773600043938,34.484167999631204],[-82.92520200027532,34.48146099964142],[-82.93041500022586,34.4856130000401],[-82.9428580000108,34.48591099995683],[-82.94822800032019,34.480492000238385],[-82.95564499975234,34.478886999801375],[-82.95854799991606,34.479553999784066],[-82.96424100026564,34.48457100008658],[-82.96647999990734,34.482333000252865],[-82.97491700041198,34.47935000031325],[-82.97974600022297,34.4829379999968],[-82.992737000179,34.47894699981269],[-82.99590099956032,34.47220399996721],[-83.0172520000281,34.478246999710976],[-83.02839500015466,34.48387600016653],[-83.03456499963191,34.483570999971555],[-83.04842400032447,34.49343899999677],[-83.05163799993451,34.49370200005805],[-83.05432199981514,34.5027939999151],[-83.0586970000647,34.50358300013845],[-83.06579600037783,34.501040999881454],[-83.07258599999616,34.50410500006002],[-83.07645400008249,34.507792999731414],[-83.07924599991817,34.514122000231126],[-83.08724200038183,34.516182000177416],[-83.0779110000997,34.52377300010033],[-83.07839899999632,34.525372000249995],[-83.08782200033998,34.532084999981734],[-83.1026920000876,34.53240199999813],[-83.10407899978458,34.54004000001459],[-83.10923900003168,34.54217800017716],[-83.11067400030757,34.54785800001979],[-83.1162670001997,34.5521720003027],[-83.12189400042703,34.55233799991013],[-83.12405400042603,34.55406799965789],[-83.12205199971248,34.5580280002325],[-83.12290399965717,34.560116999860966],[-83.12717599997457,34.56199899990686],[-83.13337599958903,34.55949899993835],[-83.13987599967746,34.56179900024813],[-83.13987599967746,34.567998999786035],[-83.14317600039954,34.57339899982987],[-83.15367699974539,34.57869900019834],[-83.15867700015892,34.57899899992478],[-83.15907700019199,34.58149900015982],[-83.15457700026897,34.588198000355106],[-83.1696739997973,34.59169300001148],[-83.17097799965363,34.59809799986374],[-83.16507799961481,34.600897999824944],[-83.16057699986688,34.599498000182216],[-83.1596770002416,34.603297999763534],[-83.17257799978594,34.60779799967186],[-83.18527800038714,34.606997999733665],[-83.19687900027313,34.6030979996449],[-83.19777899989842,34.60709799996262],[-83.20378500024242,34.60959900015688],[-83.21640299992954,34.61101099975522],[-83.22228299987687,34.60947600023612],[-83.23257999990653,34.61159699989288],[-83.24338099972634,34.61799699977637],[-83.24066900025662,34.62450700010326],[-83.24648100043187,34.62689700000586],[-83.24828099968244,34.63169600019323],[-83.25388100014558,34.63669600017502],[-83.26258200024087,34.64039599992195],[-83.27198200011999,34.641895999794535],[-83.27795999997662,34.64485300009063],[-83.2807819999495,34.648995999836075],[-83.29318299990163,34.654295999856],[-83.30084799992922,34.66246999963955],[-83.30147700029114,34.666581999970944],[-83.30464099967249,34.6695610000901],[-83.31640099956711,34.66931600017002],[-83.31944000017329,34.67597400023751],[-83.32533600001413,34.67951699974963],[-83.33028399965082,34.68134200033953],[-83.33890000025559,34.68003899982736],[-83.3420040002608,34.68177000029011],[-83.34261699983088,34.682990999732475],[-83.33824599977932,34.687033000155],[-83.34013399979173,34.69148299994583],[-83.35379000009469,34.698166000210946],[-83.35298900020362,34.70084000029831],[-83.34664899994877,34.70421999973133],[-83.35048699989787,34.70969400020702],[-83.35269200010269,34.716903999678685],[-83.35341600000088,34.72842400026077],[-83.34862499982472,34.73704099976154],[-83.33916499967115,34.73828500023191],[-83.33891299977608,34.74178299998332],[-83.33305399974515,34.74560200029992],[-83.33232900002207,34.74911500004166],[-83.32638499960233,34.75074799967867],[-83.32623300016468,34.75625200014423],[-83.31874800006216,34.757626000261595],[-83.32329599966575,34.76073800017633],[-83.31917599968433,34.7646139998881],[-83.32299799973991,34.76624700001133],[-83.31897700039102,34.771309000113135],[-83.32266200017926,34.777390000306426],[-83.32121299965966,34.77904100028692],[-83.32414199976266,34.78924599967213],[-83.32044199990582,34.79058099978582],[-83.32040400027098,34.793179000184445],[-83.31406400001613,34.79647099970363],[-83.31416299975032,34.799560999941235],[-83.30322300001335,34.80220800002189],[-83.30084200008142,34.80434400013939],[-83.29941600002635,34.809451999769664],[-83.30440499967092,34.81115000003349],[-83.3063660003766,34.81567000002363],[-83.3030089997531,34.818836000104206],[-83.30056800044504,34.81866099979311],[-83.29894999987104,34.817448000258885],[-83.29985000039463,34.81503700031981],[-83.29514299988408,34.81322500017584],[-83.29451699989518,34.816031999689834],[-83.28995500004787,34.818458999764076],[-83.29107700032934,34.82319299963691],[-83.28903199995807,34.82464600010411],[-83.27708399974246,34.81699799966001],[-83.27088199957986,34.81858799992007],[-83.26831800024814,34.82112499979321],[-83.269637999998,34.823647000187854],[-83.2671800000732,34.83132499964858],[-83.2725880000174,34.83551299966601],[-83.26719599996672,34.84846899965082],[-83.26172500027332,34.84863700015762],[-83.26063200030418,34.8452849999039],[-83.25728599955134,34.84409999981071],[-83.24892699976282,34.84514100026016],[-83.25390500043503,34.84876899994666],[-83.25245000006765,34.85218499992186],[-83.2533189997308,34.855922999952675],[-83.24641399958642,34.85551799982485],[-83.24823800002474,34.858169999700266],[-83.24634300033962,34.860025000341516],[-83.24809200043485,34.865577000061634],[-83.2460250003223,34.867229000278755],[-83.23911299960692,34.86508599997922],[-83.23787700042097,34.86887699985436],[-83.23470300009558,34.870742999997255],[-83.24058499969271,34.87279099968463],[-83.24299599976186,34.87753699963637],[-83.23951000016527,34.87888699983954],[-83.23249000039316,34.87777700019573],[-83.22924800029571,34.879761000087804],[-83.2201310002738,34.87803600015138],[-83.21988699987634,34.88111099987317],[-83.21742200027882,34.88238100035763],[-83.21727699961555,34.88608900018469],[-83.21402700002051,34.8885690000255],[-83.21276900019492,34.88761499983004],[-83.2145769998414,34.88362900017674],[-83.20957200030333,34.87985599998734],[-83.20526099962788,34.88016500019668],[-83.20103400041465,34.88440699971842],[-83.20475799966263,34.89021699991055],[-83.20353699964699,34.89345199993803],[-83.20033300008271,34.89325300031642],[-83.19860099970587,34.89038499987717],[-83.19718200022183,34.89059400019833],[-83.19766199972254,34.89476799981899],[-83.19451099986169,34.89943300002231],[-83.19149800009309,34.896782000270406],[-83.1881260002993,34.89808699984494],[-83.18069499972513,34.90457900019267],[-83.18091599965808,34.90946999969018],[-83.17462900000498,34.91028199976497],[-83.1707090000401,34.91424100011473],[-83.16860699976745,34.919355000329745],[-83.16484099978835,34.91917000036175],[-83.1604229998811,34.915015999718044],[-83.15698999998794,34.91512300036783],[-83.15924100022352,34.92860800000657],[-83.15689100025375,34.93076700000863],[-83.14151799964257,34.924514999659635],[-83.12995899958938,34.93134700010572],[-83.13173699999695,34.93571899998166],[-83.12731200041699,34.93863300002058],[-83.12054399964165,34.932944999816776],[-83.11790499996688,34.9360430002873],[-83.11175499968282,34.9349630001828],[-83.11654699968388,34.94250499986125],[-83.12107799956902,34.9421540000659],[-83.12743399971743,34.9493029997082],[-83.12475200038493,34.9510739997178],[-83.127052000126,34.95423899976023],[-83.12446000030688,34.955027000146984],[-83.11405899962185,34.950279000314595],[-83.11482199987809,34.952849999835664],[-83.12028800044693,34.95796299964479],[-83.1202309996472,34.959131000330665],[-83.11579099999864,34.960167000297815],[-83.12161999989235,34.96276599991165],[-83.12211000033712,34.964328999773606],[-83.12032600008177,34.96878300032593],[-83.11562100011933,34.973050000303886],[-83.11653099979037,34.97572299964068],[-83.1111830001206,34.975718999808755],[-83.11127500018212,34.981002999796736],[-83.10773500015883,34.97980500012931],[-83.10576599995554,34.9815030002183],[-83.10696400040497,34.9835360003326],[-83.101799000135,34.98612600010503],[-83.10285899959386,34.98870799976774],[-83.09831199981517,34.990664999979565],[-83.10351600044321,34.993674999664215],[-83.10220300036606,34.996185000089476],[-83.10336300028233,34.997638999825185],[-83.11060999983516,35.00130300022481],[-83.29685000014652,34.996275000258365],[-83.62005099975238,34.99203199996101],[-83.61995000036833,34.9866690003375],[-83.62488200011148,34.9866279998032],[-83.74989300043886,34.987836000042634],[-84.89151500027359,34.98824300010052],[-85.23564300002468,34.98583399964161],[-85.38496699963648,34.98298699997775],[-85.60516500023209,34.984678000277604],[-85.5905010003488,34.89894499965835],[-85.56141600025647,34.750078999855845],[-85.47045000025197,34.32823900002133],[-85.42946999964748,34.125095999714446],[-85.40674800027455,34.002313999772035],[-85.30443900012696,33.48288399966478],[-85.23310800010697,33.111714000102666],[-85.1841310001122,32.870525000153016],[-85.18439999972573,32.861316999941685],[-85.17712499968547,32.8538899997092],[-85.16868800007914,32.85258699975592],[-85.16231000018945,32.856479000375316],[-85.15628899977683,32.8505239998691],[-85.15338800016123,32.84486499995394],[-85.15401300032521,32.84074400018988],[-85.16410799979019,32.835294999912335],[-85.16834199957442,32.82851599962951],[-85.16484500010716,32.81978900020163],[-85.1686439996982,32.81424500007955],[-85.16804799984656,32.811840999722776],[-85.15202499985536,32.79417900031459],[-85.14633200040412,32.79156600010683],[-85.14218300011036,32.79213600018305],[-85.13966499991112,32.785150000077536],[-85.13489300000153,32.78446099969771],[-85.13109900043334,32.78031299988294],[-85.12621899967041,32.77918899978567],[-85.12232600036803,32.774382999785594],[-85.12373800017939,32.772031000248234],[-85.13088400034819,32.76956200028474],[-85.1366920003255,32.77117200013255],[-85.13741700004857,32.76719299983971],[-85.1416220004188,32.76416200010789],[-85.14298700037449,32.75993400023688],[-85.13945499984882,32.751829000027755],[-85.13313800005848,32.74463100036988],[-85.1282380001024,32.742232000325416],[-85.11855000034319,32.740816999985555],[-85.11332899999672,32.73575099986731],[-85.11413800028372,32.73043200002476],[-85.12083800038869,32.722932000227395],[-85.12273800009667,32.71603200015825],[-85.12183799957307,32.71263200023959],[-85.11813799971623,32.709431999801325],[-85.12003800032252,32.70653300009667],[-85.11703700024951,32.692032999970984],[-85.11263699988561,32.683434000281196],[-85.10403700007265,32.67963400034629],[-85.09353599982849,32.669733999853946],[-85.09303600023628,32.66443400001736],[-85.0884829997115,32.65775800033805],[-85.08973600041251,32.65563399997694],[-85.09833600022547,32.652034000373725],[-85.1043369996483,32.646433999803634],[-85.10543200016556,32.644933999967165],[-85.10453199964198,32.6410110001585],[-85.10155400003347,32.64039299989931],[-85.10038800026942,32.637118000268345],[-85.09889899956687,32.63693499990318],[-85.10008899962035,32.634575999907504],[-85.09621800005928,32.63482899968815],[-85.0966840002146,32.63619700033629],[-85.09003599998817,32.6340360003299],[-85.08311800032331,32.63616100010944],[-85.08383600037372,32.63193599990723],[-85.09003599998817,32.62763599970943],[-85.09088600028305,32.62513499966023],[-85.08793600026365,32.6205200003076],[-85.08224000043936,32.61626400019554],[-85.07897499987736,32.600168999908604],[-85.06753499964985,32.57954600010977],[-85.0619829997656,32.57824900006482],[-85.05790200014225,32.57464999974354],[-85.05692600034898,32.57124100009681],[-85.04547000022797,32.5617229999511],[-85.04366199968317,32.55652300014478],[-85.03572600039224,32.55396300018999],[-85.03138899977755,32.54417100031858],[-85.0261890002458,32.544843000131486],[-85.0207970001951,32.54276400037016],[-85.02204499997492,32.54082699999076],[-85.02087699966273,32.535852000311],[-85.01526100020438,32.53111499975934],[-85.01526100020438,32.527675999869416],[-85.00709999988425,32.52386799977956],[-85.00638000018401,32.51849300004481],[-85.00153200010647,32.51474099964695],[-85.00093200005685,32.508740999821946],[-84.99893199989143,32.506340999735286],[-84.99983200041501,32.504340000323474],[-84.99653199969293,32.50164100008737],[-84.99883200033231,32.497041000360845],[-84.99543200005112,32.48894200006085],[-84.9949309997357,32.48014199998257],[-84.99522799983663,32.4752989996983],[-84.99853100003342,32.468742000030105],[-84.99532999994386,32.453242999797666],[-84.993529999795,32.450742999986836],[-84.98383100016514,32.44564199985192],[-84.97183100007098,32.442843000067214],[-84.96703099967401,32.435342999834766],[-84.96303000041658,32.42424400030305],[-84.97183000024607,32.416244000027035],[-84.97943099980124,32.412243999672846],[-84.98095399994067,32.406064000170936],[-84.97989799978146,32.4000970003727],[-84.97474599993029,32.39560100018454],[-84.96927400041197,32.3934409998409],[-84.96873000043884,32.39145700010012],[-84.97836200012156,32.3904970001164],[-84.98300199978665,32.39195300032879],[-84.98840999973086,32.38521599966361],[-84.98628200041726,32.380336000148965],[-84.97481000040271,32.380257000122405],[-84.97215400011116,32.37691400002421],[-84.97522600032931,32.37416199985561],[-84.98204199988693,32.374337999754765],[-84.9853219996192,32.372514000102505],[-84.98633000009784,32.36868999968854],[-84.98324199998618,32.365122000143856],[-84.98386600032524,32.36238599965008],[-85.00458199968496,32.34519600029467],[-85.008095999769,32.33667699971049],[-85.00640199992533,32.32675699998751],[-85.00034299987787,32.3214179996589],[-84.98882599965748,32.31917199968171],[-84.93464800030605,32.29891599979449],[-84.92287199961956,32.28533299987105],[-84.90402300035583,32.273749000208625],[-84.88824600041195,32.2596699998166],[-84.89119100040847,32.257494000053185],[-84.90119100033722,32.25837399996641],[-84.90347900038272,32.255605999992575],[-84.90408699992994,32.25083799970632],[-84.90722699992014,32.24904900028627],[-84.92442700044435,32.250149000307935],[-84.92322700034511,32.24464999978224],[-84.92032699965611,32.24404999969605],[-84.91542699970002,32.24604899991627],[-84.91272699992587,32.243350000284465],[-84.9163270002236,32.23655099963386],[-84.92332600007931,32.23085099969277],[-84.92292699987114,32.22474999970256],[-84.92822699986033,32.21985099966706],[-84.93932800015412,32.21795100035678],[-84.95940099980652,32.21785699992574],[-84.96812799984109,32.219350999818296],[-84.97332800027115,32.21765000027511],[-84.9798290001845,32.211050000058556],[-84.98022900021758,32.20775100035002],[-84.97442799991298,32.20355000018111],[-84.96462800000076,32.20355000018111],[-84.96172800021009,32.19875100017089],[-84.96372800037548,32.195851999890046],[-84.97502799996259,32.191052000125744],[-85.01126699972133,32.180493000151785],[-85.0170799997215,32.17351600034152],[-85.02658300043109,32.166102999977475],[-85.04559300025161,32.14375799991057],[-85.06190699959762,32.13286300020205],[-85.05340200021924,32.10484399971632],[-85.0447610003984,32.08583599976434],[-85.05323200033992,32.08060399989275],[-85.05581300028837,32.07443900031409],[-85.05417899982086,32.067984999695604],[-85.05883000025493,32.04695600022781],[-85.05346800034147,32.037823000130516],[-85.05353199991558,32.03595200026768],[-85.05803400038671,32.033605999977276],[-85.05712399981739,32.02991900018356],[-85.04882500030331,32.02170099978984],[-85.05366900018291,32.02066199992536],[-85.055307999775,32.01775299978638],[-85.0538149997728,32.01350200016016],[-85.05507500014649,32.010713999891266],[-85.06344099960772,32.00413999964131],[-85.06732999961045,31.995557000137765],[-85.06832999969316,31.986756999906845],[-85.07092999990819,31.981658000298093],[-85.06592899966975,31.972458000128032],[-85.06782900027603,31.967358000215533],[-85.0739300001563,31.964158000174574],[-85.083229999578,31.96245800018457],[-85.08673000031662,31.959158000248873],[-85.08243000041014,31.945358000139194],[-85.07892999967152,31.94015900020066],[-85.08642999984265,31.93595900026817],[-85.09183000028926,31.928859000057265],[-85.09952999957862,31.92525900010793],[-85.10243000026763,31.917358999686055],[-85.11313099963,31.911859000055834],[-85.10802999983247,31.905160000298523],[-85.11223100000473,31.902760000351524],[-85.1106300000475,31.89685999995826],[-85.11203000016327,31.89476000006298],[-85.11503100023631,31.89306000011221],[-85.13413099957019,31.89216000003798],[-85.12843100044624,31.87756000008474],[-85.13373100043542,31.87006100025797],[-85.13583100015995,31.862460999832017],[-85.14073100011603,31.857460999773863],[-85.1380310003419,31.85126199974929],[-85.13773099986793,31.845861000189025],[-85.14183099975787,31.839261000306042],[-85.13773099986793,31.8321619998137],[-85.13193100028656,31.827061999755582],[-85.13453099960327,31.824961999947185],[-85.1312309997795,31.81676199970146],[-85.13293100036925,31.808061999662442],[-85.1322309998622,31.795162000178173],[-85.13293100036925,31.792362999990864],[-85.1419310002153,31.78196300008867],[-85.12523000035668,31.76706299972062],[-85.1292309996141,31.75866300005818],[-85.12203000009201,31.74406400007164],[-85.11893000028478,31.73266400016003],[-85.12223000010857,31.72646400001445],[-85.12223000010857,31.722763999731498],[-85.12653000001502,31.71676400013889],[-85.12552999993234,31.694964999791395],[-85.12232999966767,31.69126499992517],[-85.11392999987126,31.686864999754864],[-85.10942999994825,31.677465000122492],[-85.09242899961565,31.659966000281322],[-85.07912899986313,31.654766000122724],[-85.07802900022133,31.651566000041306],[-85.08262899970346,31.650265999626818],[-85.08702900006736,31.640965999683033],[-85.0862290000012,31.638567000277458],[-85.08002900038674,31.63686699975849],[-85.07382899987397,31.62956699992711],[-85.05816900010593,31.62022699966094],[-85.05752700022352,31.616882999872786],[-85.06055199968768,31.608223999852974],[-85.05597599959668,31.60517499989378],[-85.05844000026758,31.583690000077013],[-85.05528400038388,31.57759600017832],[-85.05795999986856,31.570839999749012],[-85.05293100004103,31.56289000011324],[-85.0508379999892,31.555551000287597],[-85.04254699997273,31.54595299977376],[-85.04136100011719,31.54249500019577],[-85.04181300002881,31.53775399970722],[-85.04826299988854,31.526012000099936],[-85.04455600035898,31.520908000118087],[-85.04498599963098,31.518230000090796],[-85.0569279999988,31.50017100018661],[-85.06210499996435,31.488017000120436],[-85.06525900019824,31.484923999967933],[-85.07162100019441,31.46838399975736],[-85.065954999609,31.442979000248467],[-85.06601200040873,31.430528999942734],[-85.06854599960323,31.427310999804288],[-85.07370199965236,31.42895900009914],[-85.07589299961347,31.424927999891352],[-85.0767460002814,31.41597100010352],[-85.07997800033311,31.410471999640688],[-85.07738700033892,31.402843999936852],[-85.0776259998152,31.398880000105407],[-85.08040299958223,31.393931999735727],[-85.08243100023506,31.384540000251157],[-85.09232700040671,31.364048999904902],[-85.09179099993119,31.35520699990461],[-85.08591799965657,31.35314599983192],[-85.08708900034182,31.340320999920365],[-85.08942300041807,31.33602800001644],[-85.08415199984289,31.328312999834097],[-85.08369699955821,31.323846000071157],[-85.08377600009926,31.318210000328865],[-85.08740399998608,31.31122299978427],[-85.08977400004736,31.29502599986442],[-85.09871299979402,31.28445500015662],[-85.11035800006093,31.281747000030112],[-85.114601000066,31.27733300002733],[-85.1119049995915,31.272476999947457],[-85.11326100022465,31.264343000102386],[-85.11235200037856,31.259580000195676],[-85.09676299985733,31.2256509997755],[-85.09870699994623,31.219511000248264],[-85.09870399957319,31.211285999769792],[-85.1069629998026,31.202692999974524],[-85.10751599999656,31.186451000263965],[-85.10205199997584,31.18473399989537],[-85.09850699992968,31.18015300013366],[-85.10020699962114,31.165490000073966],[-85.09210599957547,31.16029300030749],[-85.0835819999305,31.159630000225317],[-85.07662800028064,31.156927000135077],[-85.06932899995094,31.147008000318205],[-85.06402800013686,31.142495000237005],[-85.06043299986199,31.131499000319526],[-85.05467699976323,31.12081800018656],[-85.03561500006417,31.108192000222814],[-85.03545699988044,31.10434399986905],[-85.02973599994176,31.096162999962182],[-85.02606799987198,31.084179999879243],[-85.02857299965245,31.07458300031465],[-85.01815000012441,31.059254000043385],[-85.0113909995699,31.053546999913024],[-85.00857699999293,31.044061000376402],[-85.00940700019633,31.032377000170133],[-85.00505100021336,31.024702000038072],[-85.00454700042319,31.01918200023586],[-84.99942800018398,31.013844000331733],[-85.00249899967889,31.000685000050627],[-85.00238099967811,30.98783600021952],[-85.00593400012018,30.979804000017946],[-85.00573400010364,30.97590800024934],[-84.99992799977618,30.971186000084476],[-84.98721700020263,30.968542999834366],[-84.98252700030882,30.965585999900405],[-84.98012700011033,30.961286000045764],[-84.9795270000607,30.955585999864976],[-84.98302699990101,30.94258599968507],[-84.98312700035844,30.93478599993984],[-84.97102599998195,30.92818699964924],[-84.96672600007548,30.917286999878243],[-84.9561250002722,30.907586999906503],[-84.94252500004572,30.888487999728344],[-84.93442400000005,30.883587999848313],[-84.93982400044668,30.87258800027872],[-84.93232400027553,30.864288000249914],[-84.93642400016547,30.85978799981235],[-84.9361239996915,30.85698799967842],[-84.9332239999008,30.851487999810015],[-84.92782400035252,30.84788900023723],[-84.92566500017844,30.842684999967236],[-84.9270839996625,30.83902399984331],[-84.93213799960438,30.83829600011391],[-84.93481499981232,30.835850999832164],[-84.93742400024819,30.820889000165955],[-84.9283230001198,30.80508999961671],[-84.9283230001198,30.793090000124508],[-84.9180229997171,30.77808999989653],[-84.9180229997171,30.772090000215222],[-84.92012300033994,30.765990000163598],[-84.91502199964407,30.76119099978783],[-84.91352199996916,30.75229099976891],[-84.9073220003547,30.75059100006952],[-84.9019219999081,30.751890999723997],[-84.89612200032671,30.75059100006952],[-84.88752199961546,30.741790999642433],[-84.88382099993369,30.732590999995153],[-84.87542100013728,30.72749099993523],[-84.86975200007716,30.721896999976266],[-84.8646930001124,30.711541999938845],[-84.64433200020848,30.70196399968056],[-84.47440899961619,30.69279300025232],[-84.25035700007625,30.684133000023465],[-83.49992500021081,30.6456739998242],[-82.59573500003447,30.59253000004956],[-82.21467700023841,30.568556000025172],[-82.21439699985592,30.566827000073985],[-82.21692099990298,30.565315999829952],[-82.22386200003237,30.56527600010626],[-82.23418599982621,30.557650000167058],[-82.23443500024655,30.548754999986116],[-82.23887900009306,30.545504999888088],[-82.24040300005743,30.53777000010055],[-82.23738799974069,30.532215999756616],[-82.23075899978083,30.526576000226374],[-82.22930099993873,30.52058699998527],[-82.23030400039448,30.517325000178918],[-82.22507200017736,30.50769000024284],[-82.21263199986716,30.500548999794287],[-82.2115780002561,30.497288999648642],[-82.20667099972898,30.493205999871993],[-82.20124000021856,30.48511399971443],[-82.20320600004878,30.482183999728072],[-82.20147299984707,30.480063000266625],[-82.20103500017913,30.474664999661904],[-82.20437400036097,30.47109500022781],[-82.20446600042249,30.468756000238876],[-82.20637199997824,30.468514999694875],[-82.2061510000453,30.462414999815053],[-82.20770000012402,30.46040699977527],[-82.20737899973365,30.456980999884987],[-82.20449499983647,30.45534199964279],[-82.20405799999347,30.4528640003476],[-82.20573799959342,30.451047999863082],[-82.2037860000069,30.444984000276722],[-82.20735100014454,30.43917300010384],[-82.20641600035917,30.435725000010336],[-82.2097200003809,30.43305500014321],[-82.20900499980525,30.4283369996991],[-82.21086000020568,30.42537900023317],[-82.20919899997399,30.421329000225974],[-82.20746199957432,30.421119999823368],[-82.20803400003484,30.417466999779293],[-82.2064330000776,30.417084000336363],[-82.20838399983923,30.414304000247153],[-82.20575500021019,30.411946000244967],[-82.2053269996897,30.40833999982328],[-82.20675500029289,30.40684299963869],[-82.20376000006765,30.405310999646883],[-82.20424499959121,30.401553000224826],[-82.20285700006933,30.401255999980453],[-82.20140000005212,30.395350000147936],[-82.19810799972595,30.391843000008578],[-82.19922499998452,30.389832000166038],[-82.19658399976161,30.388277999637776],[-82.19420799985257,30.389204000274837],[-82.19178900028581,30.384715999902486],[-82.19342200003011,30.383344999614124],[-82.19278599999546,30.3790650003143],[-82.18991499961878,30.376170000175236],[-82.18710900043774,30.378983999866996],[-82.18479499955467,30.378936000173006],[-82.18349300024646,30.373338000222585],[-82.18024000027837,30.37257999995185],[-82.18099099994073,30.368611000064448],[-82.1737450002128,30.36506599972441],[-82.1701969997936,30.358971999773594],[-82.16741300035387,30.36000200008295],[-82.16177699990573,30.35711100034852],[-82.15789700012381,30.36012199964685],[-82.15009900002684,30.36182999993242],[-82.14854900012323,30.360898000197164],[-82.13996199983075,30.364918999859857],[-82.13694200038947,30.364223999775852],[-82.13706399968989,30.362516000216157],[-82.13386400032354,30.36223700025527],[-82.12756400025165,30.36543800010274],[-82.12867200028938,30.36708299977134],[-82.12685399969887,30.36826200006541],[-82.11814900030392,30.364358000070457],[-82.11577500004469,30.368053000020435],[-82.11152100016898,30.36755699980557],[-82.11033199994039,30.365208999928928],[-82.11039999971246,30.366720000374517],[-82.10524100018857,30.36889600015014],[-82.10155899987507,30.36663999961952],[-82.10237499983477,30.36437899963143],[-82.10062800028766,30.364417000043577],[-82.10107500017641,30.36279099984325],[-82.09869900026736,30.36406099992772],[-82.09471800020312,30.360703000149538],[-82.08331800015858,30.360334000092763],[-82.08111399977868,30.358767999656774],[-82.0726679999515,30.361410000009972],[-82.0661839997566,30.355756999764676],[-82.06491099986242,30.356432999736597],[-82.06542100039867,30.358550000125554],[-82.06285600034374,30.358754999847672],[-82.06242100015055,30.360648999793394],[-82.05809100010686,30.359214000348427],[-82.04777099961267,30.363485000157038],[-82.04511699986928,30.366307000239924],[-82.04213900026078,30.365409000357477],[-82.04448699968242,30.367672000227866],[-82.04175799959596,30.36762000028954],[-82.04075099984057,30.370555999952728],[-82.03715700028893,30.372033000098412],[-82.03814099957978,30.37292400035937],[-82.03676499975343,30.37510900016897],[-82.03881199977452,30.37469299975493],[-82.03663300040726,30.378095999775002],[-82.03815599964838,30.38220900033406],[-82.03583499999094,30.385013000068682],[-82.0400649995772,30.391384999630787],[-82.04468500004914,30.403963000230604],[-82.041288000141,30.40666900037635],[-82.04389900022666,30.407989999732866],[-82.04363200026297,30.41055700023632],[-82.04186800009913,30.411314000122573],[-82.04335799972829,30.41305000000667],[-82.04084700010002,30.414937999853734],[-82.04376199995932,30.414868999680806],[-82.04098500019228,30.416596999765996],[-82.03950499971054,30.415503000265318],[-82.03913900001267,30.417051000008634],[-82.04054199960318,30.417638999739875],[-82.03755200029912,30.41753799986283],[-82.03406499997928,30.42003200034102],[-82.03600300022043,30.424967000201633],[-82.03378299994698,30.427649999878984],[-82.03532399962977,30.42799200001878],[-82.03772700020131,30.435473999943113],[-82.0394589996798,30.43437199969618],[-82.0400010000031,30.43666099966532],[-82.0360640003198,30.438463000269667],[-82.03387400018357,30.442316000376604],[-82.03246999986982,30.44159899968],[-82.028144999849,30.447252000164525],[-82.02962500033073,30.450742999637136],[-82.02687000030501,30.453721999964095],[-82.02831999975118,30.45539100020098],[-82.02227199957437,30.461381999653938],[-82.02416399978475,30.464478999786255],[-82.02359499969728,30.467211999652065],[-82.01690600036127,30.47511099980155],[-82.01934800039255,30.47897599999516],[-82.01743299971763,30.47987499985418],[-82.0192179997979,30.482979000115517],[-82.01554800007827,30.483958000059147],[-82.01714300018774,30.4855830001394],[-82.01640500004584,30.48867000017304],[-82.01801699987374,30.49207499997034],[-82.01571700013267,30.494821999616953],[-82.01775400010803,30.49579199976689],[-82.01514999969501,30.49989199985146],[-82.01708700011122,30.50207600017161],[-82.017020999989,30.507131999879245],[-82.01456399988909,30.512311999950008],[-82.01554100040558,30.520098000129643],[-82.01858500013631,30.51948900013577],[-82.0162960002659,30.521903999954958],[-82.01863100016708,30.523834000373363],[-82.01818099990527,30.527510000046497],[-82.01644100003085,30.526898999798632],[-82.01543400027546,30.528500999717693],[-82.01830300010401,30.528520999807693],[-82.01760099994713,30.532319999761977],[-82.01904999956841,30.53301200020643],[-82.01660900026035,30.534733000133272],[-82.0157539999426,30.539538999632967],[-82.01341200036873,30.542444000200977],[-82.01316600032143,30.54994599980259],[-82.00995000016326,30.550433999988506],[-82.01113900039185,30.55347299986807],[-82.00842299982587,30.554529000077263],[-82.00959699998583,30.556206000326597],[-82.0084680000317,30.558093999898315],[-82.010024999608,30.557872999718033],[-82.01071099987136,30.560735999727076],[-82.00803299983852,30.560252999640078],[-82.00540099983644,30.563573999793128],[-82.00840699993233,30.56365799966189],[-82.005820999961,30.565133000166316],[-82.00823000038034,30.569711999906733],[-82.00653200033872,30.572940999680984],[-82.00787999967766,30.57496900024359],[-82.00618300035927,30.574956999898173],[-82.00802600016583,30.577029999640196],[-82.00612599955954,30.577124000296664],[-82.00899500028639,30.580148999839494],[-82.00887800011053,30.58293599999538],[-82.01075400042738,30.58371699996533],[-82.01020899973103,30.586419000304716],[-82.01215799984283,30.586262000288674],[-82.01120299996596,30.588991000027974],[-82.01279300005254,30.590302999933087],[-82.01221899994219,30.593910000279386],[-82.01444900026138,30.596285999712897],[-82.01508699994582,30.60060200022389],[-82.02365499997173,30.6067750001295],[-82.0272290003302,30.60666100017607],[-82.02680900020563,30.610871999615373],[-82.02888499964071,30.611684999819104],[-82.02628299977584,30.613390000213325],[-82.02825899965183,30.622010999703335],[-82.02998299963271,30.621912000030182],[-82.02951800020061,30.6191579998107],[-82.03164600041254,30.619530000184653],[-82.03168400004736,30.625015999961185],[-82.03495899975678,30.626836999864167],[-82.03317100020179,30.629493000167457],[-82.03672999959333,30.62997499976724],[-82.03581999992231,30.63185299976917],[-82.04048999972464,30.63605000017504],[-82.0387680002919,30.638663000324133],[-82.04024500040059,30.639709000204824],[-82.03861199975796,30.640946999752813],[-82.04164100031839,30.64898100035895],[-82.0460759999441,30.652071999667697],[-82.04434500029052,30.652940999806397],[-82.04902299959045,30.65529500013045],[-82.04939599985934,30.662007000144726],[-82.04834399989811,30.662925999917565],[-82.0464709999543,30.660805999732432],[-82.04805900039106,30.665031000342324],[-82.04598999973037,30.66636999978592],[-82.04827899960077,30.668906000280753],[-82.05025500037506,30.676115000015084],[-82.0462950002272,30.681123999990245],[-82.04843099993674,30.682431999950545],[-82.04368599979135,30.683947000264705],[-82.04298399963447,30.69006500013613],[-82.04123700008736,30.69103199973106],[-82.04167899995323,30.69615200014035],[-82.04403700031892,30.697369000144896],[-82.04124399976007,30.699384999827966],[-82.04294599999962,30.70088599984922],[-82.03956599980991,30.700678000063466],[-82.03977900024526,30.70219200033456],[-82.03592700005244,30.706204999857896],[-82.0368040001115,30.713033000120713],[-82.03903899955522,30.714952000058812],[-82.03889399979029,30.717651000375593],[-82.03711700010595,30.71853799980697],[-82.03956599980991,30.719299000165197],[-82.03851300002376,30.72263699986403],[-82.04552699994808,30.7278810002117],[-82.04193099984832,30.730008999894107],[-82.0440709997558,30.73126299974079],[-82.03889399979029,30.73615299988311],[-82.0404510002649,30.737972000253087],[-82.03885600015545,30.7436979997431],[-82.03979500013878,30.747296999747558],[-82.03677300014935,30.754434000349935],[-82.0345860003862,30.75428900033651],[-82.03167900002451,30.75038799976267],[-82.02768100024181,30.750935000034644],[-82.0218439999522,30.753626000070426],[-82.02136799975113,30.755192999614906],[-82.01758900025156,30.754991000228973],[-82.02016400035225,30.75783899997055],[-82.01160299999904,30.761878000301902],[-82.01515999974076,30.77197100004626],[-82.01836500002828,30.772610999819015],[-82.0173800000142,30.775799999810264],[-82.02364300027617,30.78308200037288],[-82.02288000001991,30.78770599997278],[-82.01697499995824,30.787797999990115],[-82.01771499974994,30.790577000322504],[-82.01632700022805,30.791580000027576],[-82.01297399980251,30.7909309996882],[-82.0141839999475,30.78920999995099],[-82.0104459995575,30.789979000099002],[-82.00767399981332,30.79303700011491],[-82.00585199992314,30.790386000079785],[-82.0035870003422,30.79167499973109],[-81.99740600009599,30.786391000145297],[-81.99557300033516,30.78683899995696],[-81.9887119996734,30.780362999621453],[-81.98101999988164,30.776976000294248],[-81.97804200027313,30.776552000128262],[-81.97364000025941,30.778719000354457],[-81.97012299980236,30.784356999744304],[-81.96902399998544,30.79127699998863],[-81.96217300026774,30.796977999963897],[-81.96172300000593,30.800992999913845],[-81.96504200009629,30.806806999988],[-81.96194399993887,30.80870799999001],[-81.96388200018,30.81294599967618],[-81.96121900021578,30.81403699983525],[-81.96448499970437,30.81729699985539],[-81.94980599975246,30.827763999821332],[-81.94202400044735,30.825553999742713],[-81.94281500029268,30.828503999690586],[-81.93907899955249,30.827210999883395],[-81.93883400022844,30.82984899991073],[-81.93629400028784,30.827766000045493],[-81.93606499995899,30.82448200011749],[-81.9335169996225,30.823376000136516],[-81.93525700039523,30.821065999730845],[-81.92983199983425,30.82007199974205],[-81.92874100041327,30.817510999873537],[-81.91864699987488,30.817817999845605],[-81.90911099955332,30.815680000182535],[-81.90421300014538,30.81858999969599],[-81.90696899999601,30.826489999760216],[-81.9012449996843,30.829880000007353],[-81.89553799998934,30.82528900021498],[-81.89197500039985,30.824881999938153],[-81.89143399990145,30.816586000099097],[-81.88471899972787,30.81142199973421],[-81.88452899975707,30.8075979999349],[-81.88214100015246,30.804833999638497],[-81.88266699968392,30.8002819998691],[-81.87113899959289,30.798039999835073],[-81.8685149999867,30.792906000096785],[-81.85269100018716,30.794896999614256],[-81.84587100043159,30.7907499997219],[-81.84027099996842,30.792591000041305],[-81.8418800003216,30.787569000312214],[-81.83947699975006,30.786589000147124],[-81.83000900009887,30.789359999684955],[-81.82379900043867,30.78681199970012],[-81.81948799976323,30.789885999732668],[-81.80744900020933,30.790118999767266],[-81.80188700027934,30.78687500003037],[-81.79717200027115,30.78146900001117],[-81.79596700014905,30.782129000053345],[-81.7971260002404,30.78502999994379],[-81.79307499985596,30.78725100007753],[-81.79135099987508,30.782804000025088],[-81.78378999960456,30.773333000077407],[-81.78669699996627,30.76980199999714],[-81.78276000028293,30.766613000361385],[-81.78262999968828,30.761453999994178],[-81.77156799975258,30.7641430001279],[-81.77358999965928,30.76770799981165],[-81.77026399989626,30.773670000112684],[-81.77070599976214,30.77681999977333],[-81.7617200001598,30.775698000299716],[-81.75594300014464,30.76934400008395],[-81.74075299983157,30.76500699978157],[-81.74219499978017,30.75925400019345],[-81.7318569997426,30.754994999846407],[-81.73321500002561,30.75127600029321],[-81.73205500010934,30.74981500017806],[-81.72013000035824,30.744719000012715],[-81.70911399955497,30.74797599999021],[-81.70208700011017,30.74547000015971],[-81.6938930001781,30.748471999766164],[-81.68915499970538,30.74163199967973],[-81.67942000009052,30.741520000194296],[-81.67249400002973,30.738790000169253],[-81.6688379996555,30.742514000052747],[-81.670836999996,30.747395999876332],[-81.6734840000667,30.74855000025812],[-81.67990799998714,30.744692000290115],[-81.68277699981569,30.74596800009816],[-81.68309599965792,30.748491999977507],[-81.6790689995629,30.75090600023091],[-81.66955499988099,30.75170099962242],[-81.66232300039677,30.754177000128834],[-81.65972900002951,30.749716000219703],[-81.6634819995898,30.745853000058876],[-81.6630089997618,30.743492000084984],[-81.66083500041744,30.74233999978343],[-81.65430400036686,30.744359999822166],[-81.65182800000039,30.742208000381208],[-81.65409000010662,30.733092999856925],[-81.6521529996904,30.72887000031871],[-81.64853599967422,30.727423000129395],[-81.6435849996645,30.728202999654634],[-81.63661900031906,30.73393799992371],[-81.63268199973743,30.728596000095077],[-81.63043200022508,30.72808800003222],[-81.6288289997197,30.729307000168244],[-81.62833099977732,30.735394000367723],[-81.62436599960661,30.73634000005435],[-81.62068099981838,30.73095899977862],[-81.62343400019428,30.72555499983208],[-81.6229780000847,30.723466999898797],[-81.61416599966132,30.722352999956733],[-81.61193000039268,30.717200999630556],[-81.6098699999528,30.71593299980419],[-81.60604799989723,30.718675999725065],[-81.60583399963699,30.727263999623975],[-81.60188199988504,30.72958599979044],[-81.59653400021529,30.7274719999943],[-81.5973729997412,30.720225999687504],[-81.596176000015,30.718665999614505],[-81.59265799973304,30.718907999836233],[-81.58768400015708,30.723635000048606],[-81.57421799982491,30.722503999679883],[-81.56350700041678,30.717510000234213],[-81.56346100038603,30.713423000186427],[-81.5614240004107,30.71167200008611],[-81.54837700037817,30.718279000177294],[-81.54601999983737,30.71694200027128],[-81.54283100034168,30.711134000085433],[-81.53839099979483,30.70865599989769],[-81.5340110004207,30.711446999928356],[-81.53449199974634,30.720074000184216],[-81.53229499993743,30.724091000303147],[-81.50988700038386,30.722614000321443],[-81.48846399994606,30.72630900034118],[-81.48482500018856,30.725112999853923],[-81.47411300005723,30.713913000132692],[-81.45124099999813,30.7094840001921],[-81.40370199975399,30.709813999957216],[-81.40417499958201,30.712438999937138],[-81.34701500042411,30.712443999929246],[-81.35024999995056,30.721403000202155],[-81.35139499979822,30.730878999791774],[-81.35914600003953,30.744314000290277],[-81.37480900018062,30.757482999881752],[-81.3913040001749,30.764666000296145],[-81.40048200029615,30.766426000303078],[-81.38632999970065,30.80137100030628],[-81.37480900018062,30.817376999766562],[-81.36268199986485,30.845926000167704],[-81.36334200018892,30.85055699963027],[-81.3588559996113,30.867512000057182],[-81.35020399991981,30.889108999864803],[-81.34520699987934,30.93150300007076],[-81.33322900042481,30.936586000302885],[-81.31753500032158,30.948500000059404],[-81.30730400041416,30.962227000066584],[-81.30483200024565,30.970773999860324],[-81.30477899964389,30.985712000104115],[-81.31070899981991,30.997328999630447],[-81.3239440001734,31.008810000377487],[-81.33794400043298,31.016314999914762],[-81.34449800004977,31.01810999978988],[-81.35341599988003,31.03712100005364],[-81.34530599961354,31.05936200010213],[-81.32617199994445,31.062659999798694],[-81.31363700009803,31.067852000382842],[-81.29787400039783,31.08095199976563],[-81.2901990003245,31.093493999787995],[-81.28631600016955,31.10308300013426],[-81.28653000042979,31.116686000365775],[-81.28987100026143,31.13115700017927],[-81.29400999961113,31.13566600019995],[-81.29272500002138,31.142826000296683],[-81.29641700038061,31.151879999776952],[-81.29214500006323,31.15541499964095],[-81.26696800024023,31.1570320002452],[-81.24790999984081,31.160811999753925],[-81.23433700027684,31.17025800025734],[-81.22215999973237,31.187968999842006],[-81.21626300006662,31.20465100018171],[-81.2091369999893,31.21312699978547],[-81.20245199995293,31.227678000277937],[-81.18767500009174,31.246257999621694],[-81.18256400024845,31.268990999662396],[-81.18468499988937,31.301120999803228],[-81.18335000007092,31.31123500013199],[-81.18611900034036,31.32679600017311],[-81.17711600012126,31.339277000279598],[-81.17198199981344,31.355299000200905],[-81.17108899986086,31.370322999709387],[-81.17561300007331,31.382478999930868],[-81.19075800018054,31.399875999689616],[-81.18219000015465,31.405322999999157],[-81.1669389997422,31.423444999715848],[-81.16244499966699,31.437027000074796],[-81.16355100005488,31.442034000261447],[-81.15014599982209,31.4580399997009],[-81.14384499992528,31.471521000145195],[-81.13352199995634,31.473739999797697],[-81.1254350001544,31.47754100012152],[-81.11499800038264,31.48701100011416],[-81.10714000001121,31.496632000359952],[-81.09968599987084,31.518525999785435]]]}}]}