{"type":"FeatureCollection","features":[{"type":"Feature","properties":{"GEOID":"19","NAME":"Iowa","STATE":"19"},"geometry":{"type":"Polygon","coordinates":[[[-95.2448440003164,43.50119599978025],[-96.59919100033979,43.500456000202874],[-96.59901300006456,43.49534800000789],[-96.59479699982366,43.49311399993368],[-96.59021099968692,43.49412299993167],[-96.59015600033365,43.491975000052406],[-96.58691500006111,43.49151400030194],[-96.58455099984764,43.48909900028733],[-96.58700200009974,43.48757900015016],[-96.5867870000146,43.483833000090726],[-96.58242199981079,43.483417999830564],[-96.58108199996946,43.481497999829365],[-96.58689199959659,43.47787299990736],[-96.58374099973572,43.47510599972428],[-96.58529200036257,43.47097399992642],[-96.58241900033606,43.466706000233074],[-96.58700799994755,43.46450200008706],[-96.58943599973512,43.46645600024877],[-96.59055100034386,43.46290299980886],[-96.59465299988362,43.46222999975505],[-96.59385299981746,43.45885199981967],[-96.60094899975755,43.455942999676445],[-96.60001700034522,43.45057699980788],[-96.6030510000302,43.45082799997913],[-96.59907199961579,43.44527299989371],[-96.59944300023487,43.442527000313994],[-96.5965020004363,43.44227499973191],[-96.59749900014594,43.44003999997339],[-96.59366100019685,43.436966999945085],[-96.59414099969754,43.433823999711684],[-96.58804700038829,43.43146500027019],[-96.57610300037064,43.43187400010408],[-96.57028899964725,43.428546999728695],[-96.56999999994225,43.42563300004939],[-96.57355500003415,43.41896900003678],[-96.568258000418,43.41690300009538],[-96.56463700020387,43.4130939999387],[-96.56043900040464,43.41246199997161],[-96.55723400011713,43.40616600011834],[-96.54840800034836,43.40366199982585],[-96.54488099984555,43.40000700024119],[-96.54559999972088,43.39722200004809],[-96.54442899993394,43.39618900021794],[-96.54090999982705,43.39742599981088],[-96.53551899960127,43.394836000306306],[-96.53063999956157,43.39554400011153],[-96.52958299957746,43.3976239997493],[-96.52524199966311,43.396072000113286],[-96.52166200035516,43.38590499970936],[-96.52460599962846,43.382270999760856],[-96.52198299984721,43.38137999968836],[-96.52451699994,43.379776000198035],[-96.52135799968323,43.37587399977718],[-96.5220590000152,43.37218999968564],[-96.52498200027043,43.37258000024457],[-96.5247620001624,43.36985899971559],[-96.52671799994687,43.36814700009391],[-96.52891099955782,43.36931699975554],[-96.53096099995194,43.36843299987502],[-96.52945999955381,43.36263600021853],[-96.52726100009508,43.36155900026188],[-96.5277480001668,43.356325000250784],[-96.52511399961658,43.353578999858854],[-96.52771600037975,43.34829500029923],[-96.52427900028864,43.34742200005331],[-96.52844399957759,43.34224599977315],[-96.53275899955267,43.34274400012344],[-96.53166499975863,43.33933500026269],[-96.53508699978114,43.33650199986638],[-96.5314580000694,43.33188299995971],[-96.53318899972298,43.328714000192136],[-96.52884799980862,43.32433700027325],[-96.53096199977684,43.32066900011638],[-96.52563900022146,43.31863300012454],[-96.52651899975524,43.31586299979275],[-96.52901100001523,43.31639500008741],[-96.5281139998647,43.313630999956565],[-96.52405900018061,43.31138099971885],[-96.52915400013038,43.30907800016701],[-96.52696200034435,43.305229000088445],[-96.53190499995814,43.30423299978331],[-96.5303809999938,43.29982300032111],[-96.53876400007178,43.29854399970209],[-96.5408150002908,43.29553299984201],[-96.55205600032669,43.29285000021312],[-96.5549379996757,43.294025000297786],[-96.5547119997199,43.29650900019544],[-96.56438000028594,43.29463899994201],[-96.56647499998759,43.296047999837],[-96.56931899970178,43.29553899992419],[-96.57370599964689,43.29902600016391],[-96.5884919997289,43.296175000047675],[-96.58803300014459,43.29237900023023],[-96.5794729996163,43.29568899982488],[-96.5791760004137,43.292472999786575],[-96.5814159998803,43.28795800031414],[-96.57756000038785,43.27921200010722],[-96.58119599977228,43.2746689998145],[-96.58311100044718,43.27454900004877],[-96.58376500002517,43.27665999968718],[-96.58614900033014,43.274479999782066],[-96.58565999971027,43.26935199976623],[-96.5835690002066,43.26766200008762],[-96.57594699983672,43.267823000309946],[-96.56482299997673,43.26022700000188],[-96.55855600041511,43.258943999731365],[-96.55466400003932,43.259917000161764],[-96.55265999967595,43.25814800003355],[-96.55268899998826,43.25201200026919],[-96.54918699959981,43.246813999755524],[-96.55310300026505,43.247507999681694],[-96.56114599968608,43.2437790002943],[-96.56519100022274,43.24445399993801],[-96.57148600027176,43.2388470001628],[-96.56902300032408,43.237189000310536],[-96.56828900038016,43.23134400025646],[-96.56528999995695,43.230370000085934],[-96.55932600034406,43.222933999962606],[-96.55528099980738,43.226665999848464],[-96.54024600020333,43.22563199986064],[-96.53591500033471,43.22763400006833],[-96.52652399977812,43.2240520002841],[-96.52165599960907,43.22056100001044],[-96.52069200040968,43.217982999776915],[-96.51330900041441,43.21877300018798],[-96.50905999966324,43.21716000019467],[-96.50855099985021,43.221117000162],[-96.5011979999922,43.22057400016606],[-96.49663899961962,43.22371599998758],[-96.4856529998519,43.224221999818226],[-96.47665399983076,43.221941000253956],[-96.47495999998709,43.21739599988959],[-96.47646899988283,43.2129689999843],[-96.47066000008063,43.20732599971936],[-96.47077200023362,43.205111999938005],[-96.47500699984278,43.20256900001845],[-96.47210600022717,43.19634200008061],[-96.4740090003082,43.18963900025925],[-96.4725249996285,43.18560099996193],[-96.4673069996551,43.184780000073225],[-96.46485600030128,43.18196000016561],[-96.46687099963701,43.17421899985443],[-96.46557000015373,43.1713150000503],[-96.46913000026849,43.169420999921705],[-96.46698699998797,43.168354000146344],[-96.46754400037987,43.163734000229496],[-96.46595500011819,43.16142199979157],[-96.46955600024084,43.15835299969787],[-96.46398099989204,43.15548899998957],[-96.46498099997477,43.15272599986894],[-96.46849900025673,43.15188700023434],[-96.46514400018138,43.14747500003065],[-96.46217200042068,43.14918000017802],[-96.45924800034052,43.147488000029476],[-96.46042999999811,43.14363000008911],[-96.455754000348,43.14423500017007],[-96.45043000006937,43.14238999984634],[-96.4470800000169,43.13833800032327],[-96.44858700026279,43.13622799991095],[-96.44559899971026,43.13651299974752],[-96.44313400011274,43.13363600025116],[-96.44276000001894,43.128615000229146],[-96.44019099976603,43.12831700016055],[-96.44158099983608,43.12449600001965],[-96.43647199964262,43.120165999897466],[-96.43983199974083,43.1134229998426],[-96.44626800025516,43.10970299977773],[-96.44699200015334,43.10551399974339],[-96.4505360003746,43.10377500009333],[-96.4504030003052,43.10084999968662],[-96.45267299990904,43.10057500029318],[-96.45238000000609,43.09819299990883],[-96.45702300004423,43.09764700021831],[-96.45684599959391,43.09591499987753],[-96.46024199967712,43.095284000135756],[-96.46231999966035,43.09288499986804],[-96.4630829999166,43.08996699986904],[-96.45546700029281,43.08828300006696],[-96.45407999969751,43.083844999744336],[-96.45579799983061,43.08084500014939],[-96.45555500015637,43.07431900012418],[-96.4593870002577,43.069842999989895],[-96.45823300018922,43.06756100024258],[-96.46054999964872,43.06632400027551],[-96.46074200016766,43.06433700015411],[-96.46744200027263,43.06194700030181],[-96.47275300013244,43.063710999718964],[-96.47674000004449,43.062697000137476],[-96.48696699975395,43.05577900014307],[-96.49093000027486,43.05081199968309],[-96.50180399988959,43.04865800029107],[-96.51052300042655,43.049913000164516],[-96.51481199956406,43.045173999893514],[-96.51252100004382,43.04108000005726],[-96.52130199960673,43.039660000307535],[-96.52008599961397,43.037761999974826],[-96.51323300024644,43.040349999731816],[-96.5110480001331,43.03972699979438],[-96.50913800037937,43.03676299992503],[-96.51066599964336,43.032035999789166],[-96.51397100038832,43.03032399979403],[-96.51203200032228,43.02621199975072],[-96.5039370001244,43.02036599968134],[-96.49903999964302,43.019073000210504],[-96.49953199973763,43.0165480002446],[-96.4956720000472,43.01586900023737],[-96.49198100041117,43.01019699975885],[-96.49281099971626,43.0056499999908],[-96.49699500017009,42.998478000030914],[-96.50985999972941,42.99522800006011],[-96.51283400003827,42.9919120000648],[-96.51116299976083,42.99030999984234],[-96.51238200012664,42.985657999853046],[-96.51534200019178,42.98414100012879],[-96.51836400018121,42.98518699985253],[-96.51683099999605,42.98102000014987],[-96.52083799999956,42.98031400016859],[-96.51577300018701,42.97284400028482],[-96.50515999978985,42.97109500009597],[-96.50268199977356,42.96760500011414],[-96.50183900004969,42.96077699993871],[-96.49896299965013,42.9578020000326],[-96.50891900009626,42.95371499970727],[-96.50790700031799,42.948390999908604],[-96.5092880001672,42.94515300012175],[-96.51419800016905,42.944851000062904],[-96.5198699997039,42.93996900010796],[-96.51985800000833,42.93798899975914],[-96.51645000022953,42.93520000022521],[-96.516835000194,42.932347000325024],[-96.51979899955879,42.93197599994744],[-96.52170400018795,42.93514499984818],[-96.52531199998329,42.935626999915094],[-96.53406099975916,42.928165999999486],[-96.53295199989653,42.92475399975882],[-96.53410599996502,42.923710000201176],[-96.53640900007912,42.92310600007043],[-96.53992599963787,42.92506600005644],[-96.54128300009594,42.923926999941436],[-96.54116400027027,42.91940600018284],[-96.5377589999662,42.91731800014134],[-96.54009999971515,42.91231800001779],[-96.53780900019491,42.910954000013334],[-96.53858599979655,42.90784000024902],[-96.53646699980546,42.9056429998798],[-96.54241600024804,42.905054000090466],[-96.54293000008394,42.90375600008505],[-96.53953099962766,42.89993899968635],[-96.53612399967376,42.900878999930775],[-96.52887299992298,42.89792599986456],[-96.52969200025572,42.894217999775144],[-96.52528699986894,42.891909999713064],[-96.52721000004146,42.89061700007604],[-96.53983799977432,42.889803000264756],[-96.53769500039209,42.886747999754256],[-96.54348499992774,42.883765000270515],[-96.53767000027773,42.87846200028093],[-96.54714600032484,42.873955000158595],[-96.54970100033404,42.869880000148605],[-96.54617399983123,42.86755199979944],[-96.5465730000394,42.863913999691725],[-96.55045100017148,42.863547999750125],[-96.54610000021138,42.8611610001804],[-96.54681900008669,42.85743599999671],[-96.54521200028167,42.85708100029638],[-96.54261999956424,42.859688000305674],[-96.54145499962509,42.85686800015504],[-96.54526199961207,42.84985400024025],[-96.54945399956351,42.8512079998132],[-96.55019500007845,42.84758399967649],[-96.55608300042167,42.84923099982213],[-96.55380500042193,42.84318199997043],[-96.54859800031916,42.8408909997184],[-96.55032200030006,42.837530999722155],[-96.5539860001719,42.83610600023973],[-96.55854299999632,42.83951200030558],[-96.5609440000197,42.83913399972301],[-96.56286200016936,42.835886999776164],[-96.5630119999572,42.831355999822684],[-96.56151800013008,42.82946699977696],[-96.56360399961089,42.82817400024241],[-96.56968299974984,42.83450000011663],[-96.56838200026657,42.837781000230024],[-96.57442399969729,42.837978000115356],[-96.57816399973711,42.83472700009452],[-96.57971700001377,42.835625999852375],[-96.57833000031678,42.83779899970059],[-96.58147000030696,42.83772599987574],[-96.58230499963493,42.83374999987371],[-96.57765400009917,42.827791000320815],[-96.58055399988986,42.82488000015819],[-96.5858079998483,42.82377599991174],[-96.58410899998175,42.81900499968889],[-96.5889429998156,42.81848700012938],[-96.5907239996979,42.8153829998122],[-96.59594500004438,42.8149540002767],[-96.59562600020215,42.810343000145515],[-96.59046500013014,42.80829700014343],[-96.59407600029853,42.79823499979448],[-96.59644999965944,42.79759000003691],[-96.59817199999051,42.79996599996706],[-96.59968300043438,42.79843500020854],[-96.59521399957518,42.79289600011976],[-96.60500699981469,42.79169599984238],[-96.60234499967538,42.78811299984313],[-96.60444000027535,42.78311000015635],[-96.60799299981912,42.784434000149936],[-96.61048900027706,42.78257800026733],[-96.61256300006231,42.78461999976895],[-96.61470999964251,42.78224699992309],[-96.61556900015822,42.78501599975476],[-96.6195030003668,42.78404299979871],[-96.62198499968275,42.77682999993426],[-96.62698500009627,42.77530199971656],[-96.6263609997572,42.7714029999775],[-96.62924499965436,42.77199399983258],[-96.63130900029219,42.76964999982718],[-96.63305400018947,42.77133200027381],[-96.63638199960234,42.769740000015034],[-96.63550799991631,42.76803400009425],[-96.63271500025577,42.76861999979557],[-96.6315219998292,42.76609500024678],[-96.63600000001092,42.76542100023021],[-96.63609999957004,42.763986000197924],[-96.62812900011902,42.75718500030717],[-96.62724299983914,42.75441300011322],[-96.62556599971391,42.75445699978648],[-96.6228330003278,42.75839800004262],[-96.62026700044795,42.75758499994199],[-96.61926200034239,42.75460899979663],[-96.63001899978124,42.75069599999104],[-96.63000299988774,42.74714200002287],[-96.6321550003891,42.745210000223246],[-96.62942899977739,42.74364100014748],[-96.6356119996734,42.74189399987402],[-96.63058600021891,42.73528600013895],[-96.63948499978262,42.73692799997245],[-96.63671999971115,42.73323099997428],[-96.6305219997465,42.73023400027937],[-96.63470399965219,42.726122000080686],[-96.6341889999914,42.724305999951],[-96.62441400019355,42.72521199985366],[-96.6245449997148,42.72094400031885],[-96.62801100011825,42.71779799982509],[-96.62479900015802,42.7159549996837],[-96.62440599979764,42.71401100029873],[-96.62685500039994,42.7099259999577],[-96.62933300041624,42.70901499978115],[-96.63015400039878,42.70543799968013],[-96.62552899990399,42.70418099982341],[-96.625304999598,42.70712900004761],[-96.62395700025907,42.7076000000434],[-96.61919399967199,42.69981200024808],[-96.61607799997124,42.70043700010813],[-96.61514800020873,42.698433000167896],[-96.60980100036389,42.70232399996515],[-96.60559599999367,42.70202000002263],[-96.60460299958365,42.69847299979387],[-96.60962399991357,42.69842499984349],[-96.61208600003634,42.695579999851795],[-96.60564299984932,42.69468300018778],[-96.60138099957769,42.699002999832466],[-96.59963700040362,42.6988540001056],[-96.59762399981942,42.695637000295754],[-96.59392800016052,42.694327000228164],[-96.59653900024621,42.69193199995079],[-96.59361299961793,42.68979399973134],[-96.5965590003377,42.688287999863775],[-96.59938100031057,42.68890400022844],[-96.59963900005344,42.68689299976372],[-96.59229500041624,42.687160000023056],[-96.59185199982713,42.69054600016621],[-96.58984199961598,42.69104099972532],[-96.58634199977567,42.68979399973134],[-96.58618600014005,42.68317699980739],[-96.57518000028082,42.682756999710925],[-96.57497199986837,42.68072999976372],[-96.57875700011404,42.678122999945714],[-96.5726229997235,42.67892599978736],[-96.57205299981109,42.676703999978],[-96.57435400027539,42.67367700027221],[-96.57839899991376,42.671839999850846],[-96.5715669995643,42.67089600005288],[-96.5697070000393,42.6749699999436],[-96.56696399970912,42.67641699971938],[-96.56438899960844,42.6713280001837],[-96.55577000042723,42.66420699984996],[-96.55980800039289,42.66286800009487],[-96.55899900010589,42.65767900018093],[-96.54658800010802,42.66148499971231],[-96.54236500019444,42.66093400012474],[-96.53781800041574,42.65559999985818],[-96.53747199991102,42.645951000191914],[-96.52663000008333,42.64145000006005],[-96.5251429999289,42.634746000272465],[-96.52160100025579,42.6348830002145],[-96.51566100003402,42.6297110002405],[-96.51555100042916,42.6249829998823],[-96.51811399993595,42.61981599967453],[-96.52145300011779,42.61767599995172],[-96.52991400001356,42.61785900016386],[-96.53133500004576,42.61364200003535],[-96.52781599993887,42.60896099981832],[-96.52571799986417,42.609275999678225],[-96.51874699959754,42.616448000138014],[-96.51502400017448,42.61618299999512],[-96.50945300002364,42.612704000292716],[-96.50018299984086,42.59410400027964],[-96.50108199964124,42.58931100009633],[-96.49127099985837,42.586805999858846],[-96.49549899979483,42.5827919999368],[-96.49565399960552,42.57954100002068],[-96.48579699979193,42.57501999988099],[-96.48614599977138,42.57314900003983],[-96.49899699998532,42.56083199973016],[-96.4985440002488,42.55811600018372],[-96.4955399998027,42.556440000251094],[-96.4769600001525,42.555971999925966],[-96.47658100003584,42.54646700005041],[-96.47981300008753,42.52960100005172],[-96.4790070001736,42.52639400030283],[-96.47994899963165,42.524246000089185],[-96.49208500016825,42.51962499989146],[-96.49372200011051,42.516742000157976],[-96.48816299965524,42.51128399990384],[-96.47902300006712,42.51084299970517],[-96.47604799993336,42.5077830001758],[-96.4733339999155,42.503536000017505],[-96.47790800035668,42.494667999794714],[-96.47646100038523,42.49012800027814],[-96.47150500035264,42.48926800002731],[-96.46957299995928,42.49140600000147],[-96.463512000262,42.490463999942854],[-96.45594099994575,42.49257699966977],[-96.4479880000381,42.4904389999787],[-96.40196199988763,42.486439999867926],[-96.39612399977311,42.484361000294236],[-96.38600300036887,42.474495999752996],[-96.38130500007914,42.46169499993607],[-96.38070500002951,42.44639299988408],[-96.38760799962574,42.43249400029944],[-96.41030700033077,42.412965000223274],[-96.41518600037047,42.404203000051936],[-96.41497999960782,42.39344199987066],[-96.40915300026228,42.381490999865306],[-96.40843600003679,42.376091999994706],[-96.41709299975115,42.36144299968974],[-96.4177859996872,42.35144899995698],[-96.41389500003463,42.34339300004886],[-96.40799800036888,42.33740800003142],[-96.3841689998848,42.32587399980226],[-96.37530700013103,42.318338999962776],[-96.36921200009854,42.30834399972267],[-96.36846700028399,42.29261900008602],[-96.36575099971799,42.2858139997787],[-96.35655000003051,42.27659400005328],[-96.34138700037994,42.269086999799285],[-96.3359640003671,42.26477699995298],[-96.32889699984102,42.25472300025433],[-96.32770599996259,42.24999199995009],[-96.33000599970367,42.24022499993763],[-96.32286799993078,42.233636999854795],[-96.32372300024853,42.22988700001354],[-96.33699799988668,42.21746599987838],[-96.35659100003839,42.21518200009943],[-96.35986999994576,42.21055300028263],[-96.34956700006832,42.19814100029685],[-96.34737399955905,42.193075000292204],[-96.3472780001979,42.18577399976666],[-96.35026800040028,42.17794299995331],[-96.34968800044213,42.17070200004794],[-96.34157099960463,42.15907999996251],[-96.32073999971885,42.14792799996915],[-96.31404600035998,42.136448999746385],[-96.30975800014907,42.13210100017599],[-96.30015400005546,42.12769600003424],[-96.28300200011013,42.12503099982212],[-96.27458399987205,42.12033699988277],[-96.26945899978506,42.114215999909376],[-96.26698800033978,42.10617200032273],[-96.26773900000214,42.097054999859786],[-96.27675300009187,42.08169599989918],[-96.27947899980528,42.070879999950186],[-96.27804299970448,42.05841200014311],[-96.2725450002469,42.046201999746124],[-96.267195000029,42.041189999813035],[-96.25806700013645,42.038274000270455],[-96.24683199994837,42.041615999830405],[-96.23435599965315,42.04071199987309],[-96.22826099962067,42.03830199966774],[-96.22697699985584,42.03735300023254],[-96.2301560002041,42.03887099982992],[-96.23503400041889,42.04013699977297],[-96.22382199979704,42.03334600026681],[-96.2217299995701,42.02620500012859],[-96.22361099990982,42.022652000215196],[-96.23885999977412,42.01231500021476],[-96.2419200002967,42.00696300031066],[-96.24201999985581,42.000910999943194],[-96.23648800006303,41.996429000155715],[-96.22546299993725,41.99473399983184],[-96.22181199958587,41.997381999911624],[-96.21522500035712,42.00670099993537],[-96.20608300022087,42.009266999986345],[-96.19455599995474,42.00866200022639],[-96.18591900033185,42.0059139997388],[-96.18400200000713,42.0030629997442],[-96.1842549997271,41.99663399994118],[-96.19214099968764,41.98446099974483],[-96.19060800040077,41.98072900015416],[-96.18721899999022,41.97794600021162],[-96.17720399999286,41.97630800028658],[-96.16333799962761,41.97983900013834],[-96.15208999991904,41.97966099984448],[-96.14122899982478,41.97806299969126],[-96.13253699995032,41.97462500029138],[-96.12950499991516,41.97167299976022],[-96.12918600007292,41.96513599967459],[-96.13331799974989,41.955732000285465],[-96.14259700015351,41.94590799990367],[-96.14458300007522,41.941544000297434],[-96.14349299958083,41.937387000140795],[-96.13661300044912,41.92716699977925],[-96.13674300014546,41.92082600003354],[-96.14226499989249,41.91537900031291],[-96.1590979999956,41.91005699983098],[-96.16198799974053,41.90555300009352],[-96.16175599993694,41.901820000082054],[-96.14878300042257,41.88820499990808],[-96.14597399997017,41.875093000232866],[-96.14190800041543,41.868998999816796],[-96.13495999971502,41.8632520000525],[-96.11659699979981,41.855103000189146],[-96.11054799979807,41.84919899970627],[-96.10761700004525,41.84040000023271],[-96.11096200007486,41.828827000173234],[-96.10938399968384,41.82313499992103],[-96.106565000084,41.819613000228266],[-96.09747999984917,41.813916999919705],[-96.07535299960466,41.80771599973802],[-96.06756000042888,41.80099299981005],[-96.06479000033453,41.794406000080635],[-96.06637700004808,41.78898100012895],[-96.07754600011393,41.777822000232845],[-96.07902099967447,41.772350000017155],[-96.07849699979282,41.76263199976196],[-96.0812109998107,41.75708099991991],[-96.08736100009475,41.752175999921114],[-96.1009810004127,41.747572000306185],[-96.1048050001181,41.74301600016622],[-96.10635400019682,41.73804599975463],[-96.10532899999976,41.73150499975498],[-96.10221199957577,41.72764100023968],[-96.08527200024086,41.72131300029728],[-96.07664200029069,41.71565699979602],[-96.07336099983517,41.71019899973271],[-96.07322500029105,41.704062000014815],[-96.07733100002878,41.70023200003157],[-96.08464000040419,41.6977089998682],[-96.10381400025625,41.69940300014488],[-96.11346100000756,41.697569000099726],[-96.11986099963856,41.69264900030638],[-96.12260399996873,41.68303999985784],[-96.12104800021734,41.67700199979772],[-96.11795900028076,41.67331400026483],[-96.10005499994983,41.66107699979277],[-96.09522100011597,41.65011400012904],[-96.09777699995009,41.63962500024283],[-96.11599500010036,41.62202399977368],[-96.11827700029806,41.614967000040316],[-96.11581099997734,41.60565899998981],[-96.10945499982896,41.59677500010568],[-96.10133100021706,41.59141100026515],[-96.08718600019256,41.58655000005762],[-96.08396300036168,41.58368300017683],[-96.08138999991081,41.577900000161826],[-96.08248600025298,41.57114499978572],[-96.09125900031832,41.56224399968078],[-96.09504200001584,41.55476799970909],[-96.09661700003382,41.5456259997303],[-96.09510899996299,41.54108899986928],[-96.09011799977029,41.53170200015554],[-96.08265399958417,41.52597399996701],[-96.07338900032258,41.52352900009455],[-96.05276500012603,41.50843599967528],[-96.04061299969592,41.50689300017595],[-96.03660300021767,41.509046999760315],[-96.034352999807,41.51276099968624],[-96.03444099967054,41.5210509998656],[-96.03112699960307,41.52300399972106],[-96.0266569998173,41.54036600031819],[-96.01914999997348,41.54514000032217],[-96.00511200007907,41.54325000017069],[-95.99996600007567,41.539479999972905],[-95.9943079998862,41.523743000330185],[-95.99277700024918,41.51459599987392],[-95.9961940002488,41.50695999968975],[-96.00064899996599,41.5025400002753],[-96.01954300033385,41.491591999726126],[-96.01856300034264,41.4849909997844],[-96.01358499967041,41.478468999693554],[-96.00493600035196,41.4724130000326],[-95.98427899964514,41.4709390000534],[-95.966688000207,41.463425000227055],[-95.95837200007618,41.46321800029009],[-95.94500700002634,41.4664850002663],[-95.93634000026624,41.46530399985403],[-95.92708099995411,41.460810999921954],[-95.92119199978596,41.45513799976162],[-95.91956599971438,41.45001499993948],[-95.92084600017957,41.44344900020581],[-95.93277799960333,41.43081499977326],[-95.92967699997119,41.411071000067814],[-95.93769400035127,41.39477000013392],[-95.93641100041134,41.385876000012544],[-95.92948600017547,41.37532600000663],[-95.92968100016915,41.36705799971541],[-95.9369229996991,41.359246999755484],[-95.95395300034401,41.35377599996302],[-95.95713000014413,41.349593000174266],[-95.95713699981683,41.345902000008046],[-95.9534179996934,41.339470000076325],[-95.94653199981559,41.33313900027469],[-95.92583499982412,41.321579999743],[-95.91509099990571,41.319917999697324],[-95.89728399965917,41.321233999842256],[-95.88291600005189,41.31664699968318],[-95.87418399999446,41.30792400007967],[-95.87114100008863,41.29669000019619],[-95.87266699970282,41.28991900022626],[-95.87748100034351,41.28458300008689],[-95.88761500016653,41.27936599981197],[-95.90283999974139,41.27437399969438],[-95.91258100010236,41.27952700008588],[-95.90614399976312,41.28748799990213],[-95.90422200031384,41.29759099996295],[-95.90589900043906,41.3010379998699],[-95.92024699995484,41.30119100019801],[-95.92764199964567,41.2984399999916],[-95.92965100003192,41.29226200021656],[-95.92864599992635,41.28133200018008],[-95.914090999823,41.27242799989608],[-95.9214970002828,41.26760399975115],[-95.92230400002167,41.26301999980445],[-95.91909299988636,41.2526979996774],[-95.91185999967891,41.24102300024995],[-95.91062899961751,41.234578999898254],[-95.91427199957297,41.223857999877076],[-95.92304499963828,41.215823999682726],[-95.92673600017261,41.210314000204136],[-95.92801900011254,41.204895000195854],[-95.92725000000851,41.19708600003502],[-95.92278100004764,41.18985000028088],[-95.9161189995775,41.185279000300845],[-95.90050999986309,41.18460899991302],[-95.87813300027167,41.18794100024554],[-95.86165900019377,41.18796499999404],[-95.84724100035777,41.18335099969652],[-95.84335099963181,41.17967699969865],[-95.84161599978027,41.17546899994696],[-95.84273100038901,41.17003100006971],[-95.84793799959346,41.1662389999754],[-95.85345100001797,41.165517999989056],[-95.86730899998732,41.16815299974418],[-95.87369199989988,41.16664199967033],[-95.8791709999892,41.161968000081394],[-95.88254000030825,41.15588099975895],[-95.88327400025217,41.15006000014564],[-95.88147800030127,41.14214899970988],[-95.86722799979646,41.1214930001758],[-95.86666100025712,41.10497500021665],[-95.86242699957457,41.089686999754754],[-95.86583500025168,41.08007899987579],[-95.88101100032104,41.06630300000173],[-95.88234199994154,41.0594189997622],[-95.88158799990613,41.054378000065775],[-95.86178200021742,41.03942700027653],[-95.85965400000548,41.0356949998882],[-95.85991799959612,41.025402999903214],[-95.8658860003053,41.01741799974074],[-95.86950199959826,41.00942900006677],[-95.86695099978701,41.0010849998842],[-95.86011599996284,40.99524200025375],[-95.84275399995524,40.988811999777226],[-95.83543399970915,40.98418400014468],[-95.82907400026112,40.97568800003116],[-95.82982900012145,40.96385700010974],[-95.8379510000835,40.950618000319125],[-95.84027500011402,40.939941999888504],[-95.83974299983646,40.93278000006764],[-95.83643799998983,40.92164200011336],[-95.8306989996095,40.915003999969386],[-95.8143020004228,40.902935999905324],[-95.8097749998373,40.89544699989822],[-95.80947400043672,40.891227999796406],[-95.81208299997428,40.884239000315375],[-95.81593299961897,40.879845999708685],[-95.8249890004398,40.875000000312866],[-95.84252100032671,40.8702659997407],[-95.84693800040907,40.8657450002026],[-95.84859000041993,40.86106099968966],[-95.84708399999893,40.85417400017447],[-95.8413089996336,40.845604000309606],[-95.83718600017744,40.83534700012046],[-95.83860100036185,40.82617499978944],[-95.84392100044252,40.81768599970582],[-95.84534199957639,40.811323999846636],[-95.8437449998171,40.80378299996891],[-95.83452300021321,40.78777799981269],[-95.83523200004278,40.77915100003638],[-95.84662000039175,40.768619000223055],[-95.86998199999728,40.75964500005383],[-95.87902700004916,40.75308100027224],[-95.8866900004269,40.742101000090756],[-95.8889070003273,40.73185500016002],[-95.88317799999271,40.71757899972919],[-95.85937799982096,40.70805500026331],[-95.85261499996679,40.70226199984082],[-95.84793099992076,40.69419699995006],[-95.8460339996875,40.68260500014923],[-95.84280099981089,40.67749600025245],[-95.82291300010642,40.667240000001605],[-95.79548900024578,40.66238399987266],[-95.78656800004246,40.65725299988432],[-95.77625099992132,40.64746300010643],[-95.77132500002594,40.63939299975614],[-95.76892599965237,40.62126400032692],[-95.7512709997418,40.60905699980538],[-95.74862600021923,40.603354999832995],[-95.75027400003214,40.59631699985982],[-95.75314799988357,40.592839999916826],[-95.76564500009518,40.58520800014405],[-94.59419599982827,40.57095999972034],[-94.27045600027218,40.57153099989381],[-93.5475779999637,40.58040700003209],[-93.26042899962052,40.580813999821444],[-92.94347200001008,40.58776199996976],[-92.68669300024727,40.58980900009771],[-92.48521599976718,40.59508500003555],[-91.94770900010694,40.60547100027505],[-91.7291149998416,40.61363999995376],[-91.71676900014104,40.598530000090335],[-91.69635900020474,40.58814800030415],[-91.68635699972786,40.58087500004417],[-91.68572300024137,40.576784999875755],[-91.69156100035589,40.564867000101025],[-91.69080399994743,40.55989299992468],[-91.68870000002495,40.557389999944945],[-91.6817139996897,40.553034999733406],[-91.63278299972569,40.545029000324334],[-91.62007100032726,40.54081699976456],[-91.61802799960583,40.53402999981355],[-91.6187930004102,40.52628599970883],[-91.62219199996817,40.517038999902454],[-91.62135300044226,40.51007200019013],[-91.61282100040138,40.50237699981435],[-91.59081700018052,40.49229200020862],[-91.58688399979685,40.48723300006014],[-91.58152799973116,40.472875999977674],[-91.57473399991488,40.465655000138995],[-91.5638440004066,40.46098800010249],[-91.55269100023428,40.45876900014962],[-91.52859999980937,40.4590020000923],[-91.52508999992332,40.45784500034093],[-91.52307200021457,40.45225400030852],[-91.5240530000307,40.44843699978335],[-91.53355500001707,40.44058900015066],[-91.5334710003515,40.437714999865015],[-91.52913200008695,40.43427199994758],[-91.51913399980802,40.432821999668235],[-91.52138800041666,40.42648799999375],[-91.52655500033644,40.419872000221616],[-91.52642499974179,40.41340400019248],[-91.52233300024777,40.40964799991648],[-91.51028799994778,40.40725800016917],[-91.50527199964073,40.40351199994785],[-91.49809299985996,40.401925999988855],[-91.48782900034058,40.403866000338624],[-91.49091200042936,40.39298000009104],[-91.48315299979215,40.38249199966845],[-91.47655099959647,40.382071999993826],[-91.46355399979267,40.38554699968635],[-91.46589100024197,40.378365000066985],[-91.46500900016004,40.37622299997967],[-91.45453499968005,40.37544000021866],[-91.44662699997825,40.377917999912135],[-91.44516800031123,40.38246099975266],[-91.44124300032348,40.386255000044116],[-91.42566200019816,40.38249099993628],[-91.41942200040073,40.37826400032657],[-91.41301100000076,40.38227700011329],[-91.39161299967732,40.38403800032948],[-91.3769110001592,40.39077599977207],[-91.37292099987413,40.39910800026481],[-91.37282600033787,40.41427900017318],[-91.38096500001838,40.435394999686736],[-91.38146799998361,40.44604000013522],[-91.3781439998704,40.456393999965336],[-91.36646299961849,40.478869000138126],[-91.36391000015745,40.49012200034064],[-91.36387900019528,40.49806199977854],[-91.36905899963556,40.51253199994971],[-91.38185700014606,40.52824699973661],[-91.38806699980626,40.533069000048364],[-91.40412499995753,40.53912699977687],[-91.40685099967095,40.54755699981556],[-91.4052410003912,40.55464100032546],[-91.4014820000848,40.55945799977442],[-91.37975200039865,40.57445000013061],[-91.35987300001669,40.60180500005842],[-91.34873300026315,40.60969499985957],[-91.33971900017343,40.613487999877435],[-91.30656799962803,40.626218999683694],[-91.26495299971214,40.63389300016572],[-91.25307399999181,40.63796200011664],[-91.21843700001523,40.63843700019602],[-91.1979059997051,40.63610700024969],[-91.18698000021182,40.637296999917375],[-91.13805500009558,40.660893000128446],[-91.12392799961442,40.66915199966745],[-91.12082000030958,40.67277699989395],[-91.11540700034249,40.69182500022673],[-91.11194000011415,40.697018000009614],[-91.11109499984212,40.70828199968795],[-91.11573500040555,40.72516799974933],[-91.1104239996474,40.74552799991186],[-91.1082000000743,40.750934999969004],[-91.09810499971103,40.76323299976482],[-91.0917030004302,40.77970800032544],[-91.09225599972584,40.79290900024313],[-91.09764899960145,40.80557500030519],[-91.09694599961966,40.811402999908815],[-91.09299300004281,40.82107900029624],[-91.06715900026876,40.8419970002691],[-91.05643000041898,40.848387000135304],[-91.04465299990758,40.86835599971152],[-91.03909699982536,40.87356499983536],[-91.0274890002667,40.87917299990231],[-91.0215619995654,40.88402100023089],[-91.0095360004303,40.90056500018016],[-90.99850000043384,40.908120000246555],[-90.98546199972384,40.91214100005168],[-90.9653439998656,40.92163300026804],[-90.96256000042585,40.92583100015228],[-90.95994699979202,40.93773600007567],[-90.95223300025896,40.95404699980919],[-90.9527150003078,40.962086999871005],[-90.95814199962028,40.97976700019891],[-90.94963399986884,40.99524800001783],[-90.9459490000806,41.00649500019034],[-90.94532399991662,41.01927900024525],[-90.94225300042172,41.034702000298104],[-90.94599900030931,41.05633599972232],[-90.94554900004754,41.061730000280825],[-90.94939000036968,41.07278300029998],[-90.94662500029821,41.09662800021577],[-90.95726499956122,41.11106699967367],[-90.9659079999302,41.11955900007393],[-90.97085599956688,41.13010899976368],[-90.98966200007119,41.155707000187505],[-90.9949629998853,41.160630000311265],[-91.0075939999912,41.166187000052346],[-91.02723099962553,41.16338299995611],[-91.04155700029833,41.16616200025672],[-91.05506799993803,41.18578900010774],[-91.0729839999645,41.20715099994978],[-91.10958199974844,41.236565999923556],[-91.11365700042232,41.24140100022516],[-91.11418600032684,41.2500289996992],[-91.10114199976906,41.267169000130586],[-91.09203399996798,41.28691099998502],[-91.08687999956868,41.29437099981101],[-91.07484100001479,41.30557800033002],[-91.07155500043471,41.33964800018337],[-91.066231999981,41.36636700032604],[-91.05157999979329,41.38528299972944],[-91.0500669996996,41.40149600013383],[-91.04588999981677,41.414085000185636],[-91.03713099999514,41.42001699979222],[-91.02778700019253,41.42360299996514],[-91.00584599972089,41.426134999740974],[-90.98291299956243,41.434170999960244],[-90.97418499970296,41.433712000272905],[-90.94979100022768,41.424162999931745],[-90.92925400006976,41.42154400031974],[-90.90047100010123,41.431154000017735],[-90.86062600019697,41.451393000073026],[-90.84655800016534,41.45514099982694],[-90.79893100005764,41.45402500027771],[-90.77341699995075,41.45088200005645],[-90.74594600023445,41.4497300002153],[-90.701158999643,41.454742999819544],[-90.67643899975447,41.46083199988611],[-90.65583899984736,41.46213199981322],[-90.6325380003412,41.47873200000798],[-90.61853700025675,41.48503200018358],[-90.60593600028804,41.49423200024349],[-90.60213699979869,41.50603199973148],[-90.59523699967717,41.511032000195],[-90.58623600000622,41.51423200011786],[-90.56723600023146,41.517531999860516],[-90.5562350003951,41.524232000025606],[-90.54093499957885,41.526133000295204],[-90.5006329997401,41.51803300013439],[-90.47433199998584,41.519733000076975],[-90.46143200026643,41.52353299977232],[-90.44523099999998,41.536133000285275],[-90.43273100031364,41.54953300003965],[-90.42223000006948,41.554232999945924],[-90.4128250001675,41.565328999799206],[-90.39793000030554,41.57223299994632],[-90.3641279996569,41.5796330001845],[-90.34322800017414,41.58783300022944],[-90.33952800031729,41.59863300028805],[-90.34345199958182,41.646958999710144],[-90.33672899991062,41.66453199971749],[-90.33452500042902,41.67955899970152],[-90.33022200014949,41.68395399968373],[-90.31731499985906,41.691669999761324],[-90.31343500007716,41.69808200019769],[-90.31289299975386,41.70752800008992],[-90.31742100016427,41.718332999728354],[-90.31766800003648,41.722688999814636],[-90.31554900004538,41.734426000008185],[-90.30997299987169,41.74342000004099],[-90.27863300024413,41.76735800009197],[-90.26328599957223,41.7721119998235],[-90.21688899970101,41.79533499990577],[-90.18796900036344,41.80316299977636],[-90.18197300006518,41.807069999714344],[-90.18095399971588,41.80935399998632],[-90.18188900039958,41.827754999995044],[-90.18397300023058,41.83306999992344],[-90.18190100009515,41.84321600025381],[-90.17300900020415,41.857393000273575],[-90.17323699980976,41.864609999841214],[-90.17004099974308,41.87643899974634],[-90.15701899982491,41.89801899975204],[-90.15358400028192,41.90661399979588],[-90.15160000001005,41.93100200012452],[-90.16384699997641,41.94493399996665],[-90.1641349998565,41.956177999978664],[-90.15382799978109,41.97412100009643],[-90.1462249996778,41.981329000100416],[-90.14603300005716,41.98813899982678],[-90.1406130004174,41.99599900003994],[-90.14006100004835,42.00325199982218],[-90.14230600043614,42.011838999735474],[-90.14809599997177,42.020013999914426],[-90.15157900009365,42.03063300033064],[-90.16448499966086,42.04210500005509],[-90.1668530000723,42.054910000095724],[-90.16555500006378,42.062637999851276],[-90.16835799977008,42.07577900004876],[-90.16340500011053,42.087613000017974],[-90.16115999972273,42.106372000329465],[-90.16289499957429,42.11671800029488],[-90.16753299958954,42.12247500023209],[-90.17096999968068,42.125198000273265],[-90.1904520004026,42.12577899986935],[-90.20140399983516,42.130936999754354],[-90.20535999978506,42.139079000076926],[-90.20825999957573,42.15099000022886],[-90.21610700007649,42.156730000265725],[-90.25012899993486,42.17146899984953],[-90.26908000020414,42.17449999984328],[-90.28217300026742,42.178846000237954],[-90.29844200030591,42.187575999768896],[-90.3177740003417,42.19378899990784],[-90.3282730000377,42.20104699999914],[-90.35696399994475,42.20544500003729],[-90.37512900039157,42.214811000080516],[-90.39315099982494,42.22718599979431],[-90.40065299964589,42.23929300007676],[-90.41932600008083,42.254467000142114],[-90.43088400030912,42.27823000001415],[-90.4307350003462,42.284211000156525],[-90.42432599959605,42.293325999977846],[-90.4189150001771,42.30832799990378],[-90.42104699968867,42.31610899967408],[-90.4159369996703,42.322699000037034],[-90.41902700033009,42.32850500026223],[-90.43054600020032,42.33686000002314],[-90.44387400044022,42.35521800022162],[-90.45272399960012,42.35930300027838],[-90.46261899994687,42.36725300002371],[-90.47027300010379,42.37835500022483],[-90.47727899963219,42.38379399995806],[-90.48715399988745,42.38514100017021],[-90.50012800012504,42.39553900008934],[-90.50682900005492,42.398791999969426],[-90.5550179996791,42.416138000071726],[-90.55816799971504,42.420984000116505],[-90.56043900004211,42.43289699973839],[-90.56796799962724,42.44038900001316],[-90.60632799992521,42.4515050001924],[-90.62432799961728,42.45890399975577],[-90.64607300027035,42.471087000255615],[-90.65449599963299,42.47920499996789],[-90.65630199962965,42.48369099987097],[-90.6562849999112,42.49137100017849],[-90.64961199957041,42.50090600015397],[-90.63598899977771,42.51540900011805],[-90.63598299992992,42.51871200026396],[-90.6413730003308,42.5285749997643],[-90.64468700039828,42.54131699991232],[-90.65412699956204,42.54989999995724],[-90.65912699997557,42.557899999857696],[-90.66152700017406,42.56799899980691],[-90.67793500012972,42.58003100029625],[-90.68697500015872,42.591774000168925],[-90.69203099975043,42.61036599974513],[-90.70009499998618,42.622461000131906],[-90.70267099991176,42.63075600009904],[-90.70630299999655,42.63416899986457],[-90.71782100004185,42.639914000171885],[-90.73113199966502,42.64343699973763],[-90.75694600024589,42.64775600018953],[-90.76949500033605,42.65144299977889],[-90.84391000026973,42.66307099986356],[-90.8874299999165,42.672470000312394],[-90.90026100003895,42.67625400001093],[-90.9211549996739,42.685406000187925],[-90.93704499959573,42.68339899987167],[-90.94921000044462,42.685569000321074],[-90.96504799958959,42.693232999736125],[-90.97773499977198,42.69681599996949],[-90.98877599979132,42.708724000116305],[-91.00012800015526,42.71618899976297],[-91.00957700043817,42.72012299982995],[-91.0172390000927,42.71956600027364],[-91.02678600028491,42.724227999887084],[-91.02969199992339,42.72677400014656],[-91.03201299958084,42.7344840002126],[-91.03541799988493,42.73733999992793],[-91.0441390000717,42.73860500025482],[-91.04997200016334,42.7369050002706],[-91.05373300011956,42.738238000322234],[-91.05629700034957,42.74734099984299],[-91.06017200010862,42.750480999967266],[-91.06505899964593,42.75133800016753],[-91.0654920001893,42.75708100015071],[-91.06143199958402,42.757974000014045],[-91.0602609997971,42.761846999680664],[-91.06954900042152,42.76962800011304],[-91.07082999981331,42.782225000068536],[-91.07809700035592,42.80652599996837],[-91.07866499972019,42.82767799993532],[-91.082769999633,42.829976999752006],[-91.09013599990983,42.829237000026126],[-91.09406000007267,42.830812999805794],[-91.09511399968373,42.83496600031353],[-91.09140200013132,42.849859999989604],[-91.09765600017246,42.859871000136536],[-91.09823799978041,42.87579799982606],[-91.10056500018396,42.883078000216855],[-91.11741099980755,42.89583700028688],[-91.1434909996289,42.90469799971451],[-91.14561499964286,42.90800600013706],[-91.14586800026116,42.91496700030755],[-91.14380000032368,42.92287700029582],[-91.14988000028754,42.941954999918906],[-91.1455400001981,42.956510000003526],[-91.14593500020831,42.96076999988506],[-91.14800099959764,42.96615500022444],[-91.15656199995085,42.97822600030071],[-91.15749000006352,42.99147499983787],[-91.17469200023757,43.03871300017636],[-91.17789400015205,43.06420599968086],[-91.17945699957613,43.06742700031004],[-91.17726399996522,43.07298299975358],[-91.17519299965468,43.1037709999086],[-91.17825099962911,43.12498199990026],[-91.17525299992913,43.13466499999594],[-91.1561999995526,43.14294500029448],[-91.14619999962386,43.15240499967719],[-91.14328300011474,43.15641299980764],[-91.1386490002974,43.16999300019149],[-91.12442800010493,43.18788600021781],[-91.12217000019666,43.19725500023596],[-91.08745600022716,43.22189099995563],[-91.06639799966236,43.23929300005809],[-91.059684000212,43.24856600006898],[-91.05791800039832,43.25536600002259],[-91.05975000033423,43.25907399976026],[-91.06993699986072,43.26027200022732],[-91.07264900022875,43.26212900001983],[-91.0717239995908,43.27139199979905],[-91.07371000041083,43.274746000095476],[-91.08565199988034,43.29186999968484],[-91.10723699980153,43.313644999901754],[-91.13281299983271,43.328030000224395],[-91.15480600018292,43.33482599999542],[-91.18111500033311,43.34592600028491],[-91.20184699958638,43.34910299967359],[-91.20662000021919,43.35252399974826],[-91.21498999987834,43.36800600027867],[-91.2060720000481,43.37497599996412],[-91.19895299964347,43.38983500021844],[-91.19766999970356,43.39533399987053],[-91.20035899960705,43.41270099983841],[-91.20714499992573,43.42503100020741],[-91.2287499999384,43.44553700025223],[-91.2333670000373,43.45516799988607],[-91.23224099955789,43.46001800012672],[-91.22458599957606,43.46552500020989],[-91.22039899964747,43.47130599989888],[-91.2160350001669,43.4811419998452],[-91.2152819999564,43.48479799974104],[-91.21761500020774,43.49100800025153],[-91.21770600044435,43.500550000079734],[-93.2675310003067,43.499361000130705],[-95.2448440003164,43.50119599978025]]]}}]}