{"type":"FeatureCollection","features":[{"type":"Feature","properties":{"GEOID":"2001","NAME":"Congressional District 1","BASENAME":"1","STATE":"20","CD119":"01"},"geometry":{"type":"Polygon","coordinates":[[[-102.05174399959115,40.00307800029882],[-102.04535099963286,38.85689699968866],[-102.04470799992554,38.04125699988134],[-102.04160499974526,37.68924199993616],[-102.04208900034224,36.993015999850805],[-100.19479700022086,37.002173000318386],[-99.54111599987264,36.99960999986015],[-99.54479200033838,37.26549200018157],[-99.543188999833,37.381123999677044],[-99.55577399990815,37.38111199974041],[-99.56027200018134,37.825587000090835],[-99.5705759998837,37.82563400006851],[-99.56992700032859,38.17490199971554],[-99.13174100026339,38.17433699990149],[-99.13182099973102,38.181624999860645],[-99.10521100018026,38.18165899978982],[-99.10523399974647,38.18376199979003],[-99.09156800029606,38.184863000004526],[-99.08363499958156,38.188857000179965],[-99.02236100029005,38.238086000243634],[-99.02247199971981,38.26120799987852],[-98.4724369998858,38.26074100011594],[-98.47231999970995,37.82464300007418],[-98.46489900007984,37.8245120002956],[-98.46480399964528,37.732675000196394],[-97.85486700014813,37.73337799969263],[-97.69869199992031,37.73505600000171],[-97.69967899958422,37.825156000002025],[-97.70210100042235,37.82515800026998],[-97.70184100013135,38.17381399985313],[-97.37174999955141,38.17367300031582],[-97.37191100010823,38.609353000124514],[-96.93028600030206,38.6093619999568],[-96.92968799990227,38.65169199997499],[-96.93392400023464,38.6553499996724],[-96.93049600036436,38.67747699986929],[-96.9304090003257,38.696008999957144],[-96.9273739999175,38.696005000114866],[-96.92843400027466,38.71244300000464],[-96.92723400017542,38.8121600002321],[-96.89006499975585,38.81225500033148],[-96.8902449996809,38.87006700009669],[-96.92671000029377,38.87035000009557],[-96.92627699975041,38.96999500032886],[-96.92813399980069,38.973537999768645],[-96.92615100025203,38.97451999993688],[-96.92620899997834,38.97894100015196],[-96.93441700015414,38.97820299994115],[-96.9350409995949,38.97617700002214],[-96.93107100029962,38.97545499986151],[-96.93283499956516,38.97285700032367],[-96.93667800043545,38.97248000010806],[-96.93972899983888,38.976717999831266],[-96.94734100016302,38.97056999999132],[-96.94879599963208,38.97185299985689],[-96.94664700040205,38.97602000009504],[-96.95060699965158,38.976750999737526],[-96.95053300003175,38.971048000195005],[-96.96346999956111,38.96490100007692],[-96.96317699965813,39.13230000002531],[-96.96137999988233,39.132325000344174],[-96.96085799965051,39.17644700026454],[-96.96169299987677,39.22007599977508],[-96.84987900026806,39.21901200031126],[-96.84967000003068,39.139280000334686],[-96.8309849999002,39.13922800008764],[-96.83096700035685,39.13549200028488],[-96.83223900042611,39.11964500021485],[-96.83949199982673,39.11581699966248],[-96.8512690003381,39.10073999992207],[-96.85140900008021,39.08817599971248],[-96.74343900026838,39.08765899996042],[-96.74345500016192,39.08195500034076],[-96.73959299992336,39.08206200011108],[-96.73605999957277,39.07995700019386],[-96.72335800022005,39.09093099965173],[-96.71245299974485,39.090030999720064],[-96.70626200035123,39.09157100028507],[-96.70612199971082,39.073076999971036],[-96.50096199999062,39.0726810002171],[-96.50116600020515,39.04366600016559],[-96.4049029996862,39.043246999866945],[-96.39079600019484,39.04325699993136],[-96.3909059997997,39.13031600013305],[-96.38943899973675,39.13033100019054],[-96.38904600027467,39.17287799985501],[-96.37778699979714,39.164137000023025],[-96.3720740002544,39.164497000304884],[-96.36328100009761,39.172050000124074],[-96.35762499955796,39.17302199984249],[-96.35623000036335,39.17063599983396],[-96.35912900032913,39.15770700034716],[-96.35517900022704,39.15530600013144],[-96.34594900022722,39.15410200023583],[-96.33743200025496,39.1621569996683],[-96.33198300030286,39.1590170002784],[-96.32902700043567,39.15989999985514],[-96.32840499974643,39.16124199996252],[-96.33119300028243,39.16608600002709],[-96.32903300028346,39.16814999991691],[-96.324729000179,39.18605100013327],[-96.32144900044675,39.189847000171014],[-96.30819200035192,39.19677499967171],[-96.30236299955992,39.19749299965771],[-96.29420499961284,39.1954529997017],[-96.28682900018859,39.189715000335454],[-96.28385099968177,39.18482800029349],[-96.27062299989929,39.17888700032451],[-96.26595300009696,39.180599999676375],[-96.25451700006742,39.19123499976173],[-96.24420699961898,39.20800000005287],[-96.23541600001032,39.21211800009773],[-96.2291500002736,39.21041199994995],[-96.22212499958032,39.20201300019722],[-96.2166539998869,39.20031499968177],[-96.20407399983462,39.199980000346855],[-96.1947850002836,39.20760999990456],[-96.18156699964854,39.206333000179164],[-96.17886400039966,39.2032059999338],[-96.1792979998696,39.19225900028345],[-96.1767410002106,39.18861600024427],[-96.15284300012954,39.19257600021133],[-96.1227570001296,39.18712399976386],[-96.11550999967847,39.19076699986115],[-96.11161900002591,39.20004399968243],[-96.10696799959182,39.2010320000402],[-96.09625999965843,39.191840999679435],[-96.0835569995825,39.19350399981751],[-96.06871000029942,39.17941500013801],[-96.06499700002378,39.171080999730606],[-96.0568669996658,39.16148699991238],[-96.05765800040945,39.15816799980829],[-96.06074800017093,39.15729600028121],[-96.07044699980078,39.16234400023148],[-96.08386700010222,39.16326300027805],[-96.0908919998972,39.15871799980556],[-96.09058499975053,39.15395099968606],[-96.07031700010444,39.147546000291555],[-96.0579370000687,39.14150199974026],[-96.04259100012001,39.140830000166595],[-96.04014400006587,39.137284000222955],[-96.04187999974232,39.12874699988786],[-96.03906000031758,39.126527000074816],[-96.03899599984514,39.12975900000983],[-96.03589900041098,39.129783999837045],[-96.03557299999774,39.216519999864616],[-95.58947199965971,39.21608100028376],[-95.58930500015343,39.12915900010048],[-95.59471100044784,39.12927499976609],[-95.5946529998232,39.08190400026281],[-95.59834799965718,39.07351400022524],[-95.59675900029382,39.06467199999913],[-95.58933699994049,39.058432999773785],[-95.58234499975747,39.053998000057994],[-95.57696000027778,39.05438400010759],[-95.56832000028187,39.057183999896516],[-95.55182299973944,39.067070999911564],[-95.54284700018283,39.06910299967486],[-95.53260600022968,39.065727000141905],[-95.52191800038779,39.064958999943784],[-95.5154700001779,39.067406999691535],[-95.5121900004456,39.06663900033524],[-95.50764600014165,39.064607000082894],[-95.49949099966932,39.05569399991326],[-95.49382099978428,39.053954000315954],[-95.48236200018852,39.056873999770175],[-95.45665899993574,39.0682589997601],[-95.43614000021948,39.06978099992664],[-95.41943900036087,39.067204999953276],[-95.40067399986441,39.06006399991685],[-95.38778599984056,39.04882400013454],[-95.38851499976161,39.04774299991763],[-95.36723500033726,39.03909999984339],[-95.36342099977927,39.03703900026554],[-95.36573399993914,39.036843000195205],[-95.3639990000876,39.036034999690266],[-95.35554300021468,39.0329290001144],[-95.33558000016713,39.0295909999086],[-95.33526799999758,39.00055799994796],[-95.34384199987127,39.00044600031675],[-95.34382599997774,38.9967100002409],[-95.33324799974069,38.9963700002498],[-95.32318300041293,38.997935000245576],[-95.31648300030798,38.99802700000414],[-95.33411899995195,38.99619799976351],[-95.3438290003508,38.996546000054884],[-95.34269000035091,38.98931000028749],[-95.33976999957044,38.985827999736465],[-95.33525299992898,38.9858329999898],[-95.33386100020911,38.97873500023301],[-95.34454200037831,38.978623000283214],[-95.34450700021823,38.971354999986275],[-95.33205500021245,38.971473000241325],[-95.33362799968229,38.968958999919565],[-95.3335430001918,38.96417900021352],[-95.33488999970582,38.96413799969577],[-95.33656500018121,38.96009299967565],[-95.33623700011816,38.95687599999227],[-95.32552300033697,38.95695800032789],[-95.32563299994185,38.953377999753],[-95.32903200039813,38.953368000251324],[-95.3297069998925,38.95094999983071],[-95.32797399969077,38.94763700023315],[-95.33253300006335,38.94659799985651],[-95.33528200024129,38.94252599969235],[-95.31358299961896,38.941516000064915],[-95.29878900003933,38.93017900025413],[-95.29788699986592,38.93189200027552],[-95.29950299989177,38.93217000009474],[-95.29788600004102,38.93216700018544],[-95.29787199979731,38.935354999909144],[-95.29319799979702,38.935357999683546],[-95.29321299986563,38.93068100017355],[-95.28863000010193,38.92936500016152],[-95.28858999991897,38.92809199997911],[-95.28274400030685,38.92811299984906],[-95.27917699962107,38.930222000146934],[-95.27935200042155,38.92469700029745],[-95.27053300032551,38.92509100013597],[-95.27051900008178,38.920865999857135],[-95.26059500032103,38.921188000158104],[-95.26045499968065,38.91623999970963],[-95.25782699987651,38.91515399986561],[-95.25533499961651,38.915370000077324],[-95.25644900040037,38.92130800032627],[-95.24420699955854,38.92653800003973],[-95.24522799955766,38.92825600006261],[-95.22349799987151,38.92808499978815],[-95.22351299994011,38.92582000025962],[-95.22120099960516,38.925724000096444],[-95.22118499971164,38.927176999909136],[-95.2141759998102,38.928474000268416],[-95.21425700000104,38.92629899977324],[-95.21209799982697,38.926160000025675],[-95.2037060004265,38.92816799991153],[-95.20495699968104,38.92826899968657],[-95.20497199974966,38.93262800013016],[-95.20799000043944,38.933291999894166],[-95.20024900024389,38.93364400027025],[-95.20023800037322,38.935458999701886],[-95.18604899996778,38.935320999661606],[-95.18601899983054,38.942872000037234],[-95.17702800020534,38.942873999674894],[-95.17675399967064,38.94182299996005],[-95.17683599968642,38.94997700013313],[-95.1839659999617,38.95013500021263],[-95.20301400031536,38.95731399973055],[-95.21185900035069,38.962828999944236],[-95.2118669998483,38.96426300021214],[-95.20072600026985,38.962925000167296],[-95.19874899967067,38.966402000192645],[-95.18618899970986,38.96454199974217],[-95.18796299991948,39.12890899990719],[-95.18012499963952,39.12888899965827],[-95.18089100026882,39.41921800010424],[-95.46005199964591,39.42091900025055],[-95.57035100040942,39.41905000018494],[-95.57013100030139,39.52552799973647],[-95.65893599958366,39.54969900019038],[-95.66351599987263,39.54979500020404],[-95.66352599991838,39.550939999745005],[-95.71860999964117,39.56593900002255],[-96.23896899955406,39.5662200003052],[-96.23920000043107,40.000880999668794],[-101.87545600042628,40.00316600026501],[-102.05174399959115,40.00307800029882]]]}},{"type":"Feature","properties":{"GEOID":"2004","NAME":"Congressional District 4","BASENAME":"4","STATE":"20","CD119":"04"},"geometry":{"type":"Polygon","coordinates":[[[-99.5705540001424,37.826301999926784],[-99.56027200018134,37.825587000090835],[-99.55577399990815,37.38111199974041],[-99.543188999833,37.381123999677044],[-99.54479200033838,37.26549200018157],[-99.54111599987264,36.99960999986015],[-98.7937250002632,36.99946100023034],[-98.3004649996226,36.99768399975325],[-95.96426999956684,36.999103999703166],[-95.96466600030028,37.38665600010584],[-95.96143500007348,37.386840999811014],[-95.96253600043852,37.50207500033583],[-95.96022099973054,37.69085499990604],[-95.96159800028009,37.80647900029235],[-95.9614080003093,37.82198499972994],[-95.95813400042479,37.82193800026682],[-95.95886199962263,38.1709389999734],[-96.35727700030174,38.17266000024759],[-96.3580990001092,38.08581700009054],[-96.8749959998166,38.08565700019733],[-97.15291299961184,38.087703999648355],[-97.15309300043523,38.17463399991487],[-97.70184100013135,38.17381399985313],[-97.70210100042235,37.82515800026998],[-97.69967899958422,37.825156000002025],[-97.69869199992031,37.73505600000171],[-97.85486700014813,37.73337799969263],[-98.46480399964528,37.732675000196394],[-98.46489900007984,37.8245120002956],[-98.47231999970995,37.82464300007418],[-98.4724369998858,38.26074100011594],[-99.02247199971981,38.26120799987852],[-99.02236100029005,38.238086000243634],[-99.08363499958156,38.188857000179965],[-99.09156800029606,38.184863000004526],[-99.10523399974647,38.18376199979003],[-99.10521100018026,38.18165899978982],[-99.13182099973102,38.181624999860645],[-99.13174100026339,38.17433699990149],[-99.56992700032859,38.17490199971554],[-99.5705540001424,37.826301999926784]]]}},{"type":"Feature","properties":{"GEOID":"2002","NAME":"Congressional District 2","BASENAME":"2","STATE":"20","CD119":"02"},"geometry":{"type":"Polygon","coordinates":[[[-97.37191100010823,38.609353000124514],[-97.37174999955141,38.17367300031582],[-97.15309300043523,38.17463399991487],[-97.15291299961184,38.087703999648355],[-96.92680999985289,38.085755999779266],[-96.3580990001092,38.08581700009054],[-96.35727700030174,38.17266000024759],[-95.95886199962263,38.1709389999734],[-95.95813400042479,37.82193800026682],[-95.9614080003093,37.82198499972994],[-95.96159800028009,37.80647900029235],[-95.96022099973054,37.69085499990604],[-95.96253600043852,37.50207500033583],[-95.96143500007348,37.386840999811014],[-95.96466600030028,37.38665600010584],[-95.96426999956684,36.999103999703166],[-94.617964000213,36.998905000209035],[-94.61672399993077,37.50012300032795],[-94.61789600044092,37.72029699997976],[-94.61411100019525,37.9737970000539],[-94.61246300038235,38.22395600025797],[-94.61323199958807,38.38871799982165],[-95.06583100036471,38.38994499971984],[-95.06510300026856,38.25864800017172],[-95.07545899984946,38.25871400026867],[-95.07787599976639,38.03770600013672],[-95.5189700000182,38.038230000233334],[-95.51675700031576,38.25929600006709],[-95.50747399971421,38.25924800019462],[-95.50850200028432,38.68157800000672],[-95.50804199997677,38.69526800029372],[-95.50122300004612,38.6952629999132],[-95.50073799962422,38.7388080000743],[-95.05641200021901,38.73858700008324],[-95.05625800023323,38.98211999993398],[-95.04067200008504,38.97415599978435],[-95.03327499984607,38.975504999928006],[-95.02784699981038,38.978865000177066],[-95.02494399964662,38.98302600010356],[-95.0236380001405,38.988237999906524],[-95.02606699975298,38.99309399994926],[-95.02181700007523,38.999623999654936],[-95.01405699961309,39.000858000255825],[-94.9803619999929,38.99240699977018],[-94.9716039999962,38.98518999984524],[-94.96488299997482,38.98214099986103],[-94.95654500010271,38.98197200030447],[-94.9443879996497,38.9863899998855],[-94.94054999970061,38.989981999928034],[-94.93892500035223,38.99466199984223],[-94.93157099977095,39.001459999926354],[-94.92334900024979,39.00263300030771],[-94.91831299985124,39.00040900006929],[-94.91624300026395,38.99689999995558],[-94.92173400004884,38.98668699981347],[-94.92101599999845,38.98449999996801],[-94.91881800036464,38.98363299965351],[-94.91230800023045,38.987732000283366],[-94.90876499983413,38.991401000348965],[-94.90846500025847,39.1160010001997],[-94.85371999957106,39.11580499979253],[-94.85332399973593,39.11155600015892],[-94.85008400018663,39.10903399981297],[-94.8369810000776,39.109695000314986],[-94.83514699959355,39.108379000301674],[-94.83506600030101,39.10594300025021],[-94.81617899960584,39.10660399976674],[-94.81629999997965,39.10177100004084],[-94.80702700032214,39.10179400001287],[-94.80572500011566,39.103967999925],[-94.80038999996636,39.10046599988408],[-94.79818099956358,39.10182900013778],[-94.79780499981995,39.10055199984784],[-94.7977110001086,39.10183799990817],[-94.76971999981032,39.10179300034766],[-94.7678729998058,39.1049209998774],[-94.73935799962587,39.10632300021928],[-94.73481800041819,39.10075200026577],[-94.72433600044062,39.09879499982957],[-94.7100380002552,39.09329799990151],[-94.70235999980885,39.10253299969715],[-94.69920099955206,39.10361499983625],[-94.68893399965964,39.10270399970434],[-94.67969799981205,39.09975999981518],[-94.65412699980375,39.08445400013593],[-94.64672100024225,39.074950999693066],[-94.63231099990388,39.07371800016585],[-94.6206470002687,39.076897999826976],[-94.61076799981548,39.08427599970614],[-94.6086510003725,39.090063999746064],[-94.6072229997693,39.08970900009243],[-94.60825499963909,39.11830599977122],[-94.6051160003721,39.12325900029426],[-94.59108099995244,39.13683899975399],[-94.58939999962925,39.14054199977911],[-94.58841299996534,39.14986899980469],[-94.59066099982786,39.154766999825355],[-94.60645500038854,39.160827000161824],[-94.61548000034891,39.160147000063624],[-94.6355520001764,39.154082000177006],[-94.65064700005492,39.15409199985885],[-94.65578700021054,39.15568000026305],[-94.65921000005794,39.157841000207284],[-94.66139699982112,39.16274200033403],[-94.65916200037738,39.17412600016363],[-94.66527699960301,39.18037800022916],[-94.67390300025355,39.18355399974102],[-94.68878800006978,39.18322799968902],[-94.70552300026357,39.17380000026497],[-94.71413700032024,39.170403000032586],[-94.72363699975847,39.16900300012619],[-94.7365149997366,39.16928599985244],[-94.75164700032332,39.17300399968605],[-94.76376799989299,39.180988000188705],[-94.77025000043807,39.18982699983212],[-94.77553199998559,39.20060600008912],[-94.78224799998408,39.206793999666864],[-94.78735399980451,39.207860999871784],[-94.80259900036916,39.206146999936834],[-94.8115430001387,39.20690599978312],[-94.82193499970458,39.209668999782615],[-94.8316790004386,39.215938000255626],[-94.83472999984203,39.220754999890694],[-94.83489600042171,39.22384200015291],[-94.82779100026077,39.23400099998873],[-94.82566300004886,39.24172900002343],[-94.82747900009124,39.24989599976708],[-94.8305529999592,39.25513499993542],[-94.84631999985736,39.26848099998917],[-94.88409299962618,39.28451199993101],[-94.89851600038335,39.29845000016412],[-94.90612600015935,39.314721000304736],[-94.91035300027089,39.34473500033658],[-94.9100169998119,39.352542999778],[-94.90249700044762,39.36038299995771],[-94.88714499975283,39.36543099990767],[-94.88136000024008,39.370382999867296],[-94.87908800008809,39.37570299972994],[-94.87928100043194,39.379780000246775],[-94.88502599976174,39.38980100010491],[-94.8918449996924,39.39331300020248],[-94.90013200040922,39.3933330001254],[-94.9158590001244,39.38634800004093],[-94.92299400042255,39.384883000254185],[-94.93365200012722,39.3855460002104],[-94.94203900040316,39.38949899988115],[-94.94622700015665,39.39564799984217],[-94.94629300027887,39.405646000022955],[-94.9478640000989,39.4086040002224],[-94.95481699992385,39.41384399982054],[-94.96448899978954,39.416717999903426],[-94.97295200023343,39.42170499984926],[-94.97660600005953,39.426701000141186],[-94.97879799984558,39.4362410002315],[-94.9821439997001,39.44055200012718],[-94.99017199995085,39.44619199980822],[-95.01576300005063,39.453099000172614],[-95.03750000030779,39.4636889997473],[-95.0446680002179,39.47125599985573],[-95.04767099994075,39.477535999993],[-95.05055200036318,39.49751400013706],[-95.05445899990927,39.502652999761175],[-95.05930000031414,39.50647299988459],[-95.0774409995732,39.51355199982453],[-95.08759000036316,39.520354999656796],[-95.10458699959949,39.53514400028727],[-95.1103679998126,39.54456199983623],[-95.1135570002066,39.55394099971957],[-95.11328400039513,39.55815200032649],[-95.1074739998697,39.57374300033976],[-95.10494800017283,39.57660399979813],[-95.09214999966233,39.58111600025971],[-95.07521000032742,39.576429000242804],[-95.06709500003805,39.57650199986571],[-95.0568969997426,39.580566999932174],[-95.05058999999802,39.58756299978985],[-95.04716499960246,39.59511699978803],[-95.04644499990223,39.60160600016438],[-95.05423600032651,39.61729099970876],[-95.05426700028865,39.62774500024111],[-95.04951799994528,39.63787600020625],[-95.0276440003191,39.66545400024156],[-95.01531000031409,39.67426200022467],[-94.98156499956688,39.67863600026141],[-94.97581299966608,39.68175399997755],[-94.97067699970842,39.6872390000346],[-94.96898100021495,39.69295400004954],[-94.96845300013534,39.70740199982614],[-94.97120599961293,39.72930499978462],[-94.96395800023521,39.74036099997269],[-94.95528599955391,39.74568900010699],[-94.94754100005872,39.74533699975466],[-94.94180400022653,39.74336700012525],[-94.91834200016358,39.72879699996653],[-94.89931599955122,39.72404200009922],[-94.8841429998549,39.72679400020183],[-94.87563400027854,39.730491999915046],[-94.86773999992211,39.73604199971404],[-94.86273500038402,39.74219500010418],[-94.85903499962888,39.75411599975481],[-94.86063899995915,39.762982999754065],[-94.86522000007302,39.770069999844296],[-94.86965499969871,39.77289899980144],[-94.88216100013115,39.771042999747344],[-94.89826299976507,39.76162199983772],[-94.91094900012256,39.75917800011644],[-94.92069299995826,39.76293799982813],[-94.93457299966889,39.77296099994316],[-94.93499699999143,39.78369199991198],[-94.9282299999393,39.788938000118755],[-94.89318000040916,39.790914999987805],[-94.88465199966792,39.79399699999843],[-94.88102200013127,39.79726200017949],[-94.87764399959137,39.80359400005055],[-94.87594399989993,39.81329399992992],[-94.87733300014506,39.824473999802024],[-94.8848259997452,39.83241799967163],[-94.89148099964432,39.834644000269435],[-94.90634000041959,39.83373600028951],[-94.91676600032068,39.835806999996294],[-94.93985400028981,39.85204399974368],[-94.94256699958444,39.857033999921164],[-94.94237800033687,39.86225399982894],[-94.9397260002433,39.86617799980119],[-94.93047100012916,39.87356199992249],[-94.92720700029038,39.881974000098786],[-94.93015999978454,39.889933999811824],[-94.93996399989467,39.896452999946185],[-94.95517799959887,39.90128800023796],[-94.96212700012418,39.90126300018452],[-94.98705899972481,39.89632000026264],[-95.00381900003298,39.90040100031605],[-95.01312500020077,39.90019200013615],[-95.01874300020727,39.897372000105705],[-95.02438899980285,39.89120199976757],[-95.02594700010238,39.88674700006627],[-95.02490099998893,39.877254999687],[-95.02674700016854,39.87227300032567],[-95.03524599969917,39.86592099995029],[-95.0750460002959,39.86156199974336],[-95.09015799989284,39.86313999983266],[-95.10871099977886,39.87040200002684],[-95.12452899973066,39.87285700026141],[-95.13709200006448,39.87835099981908],[-95.14060100012563,39.88168800029402],[-95.14325400004412,39.887775000020746],[-95.14283800011751,39.90040200027584],[-95.14965700004817,39.90594799987068],[-95.15983400042724,39.906984000175804],[-95.17430300031684,39.9009910002266],[-95.1812219998066,39.899996000252116],[-95.19124000017702,39.90042400007602],[-95.20174999974368,39.90437699996464],[-95.20538799967626,39.90831000023709],[-95.20606300006897,39.912060999984405],[-95.20058200032982,39.925123999876504],[-95.20038200031325,39.93103099973584],[-95.20192399982095,39.936121999924374],[-95.20526600037586,39.9397499997955],[-95.21643999956625,39.94395300021107],[-95.23676099981408,39.94393099992929],[-95.25025399991044,39.948643999942334],[-95.25765199997433,39.954886000320634],[-95.26988600042021,39.96939599965759],[-95.30233999993328,39.98455500023386],[-95.30766099983886,39.990690000053235],[-95.3082900002008,39.999998000215854],[-96.23920000043107,40.000880999668794],[-96.23896899955406,39.5662200003052],[-95.71860999964117,39.56593900002255],[-95.66352599991838,39.550939999745005],[-95.66351599987263,39.54979500020404],[-95.65893599958366,39.54969900019038],[-95.57013100030139,39.52552799973647],[-95.57035100040942,39.41905000018494],[-95.46005199964591,39.42091900025055],[-95.18089100026882,39.41921800010424],[-95.18012499963952,39.12888899965827],[-95.18796299991948,39.12890899990719],[-95.18618899970986,38.96454199974217],[-95.19874899967067,38.966402000192645],[-95.20072600026985,38.962925000167296],[-95.2118669998483,38.96426300021214],[-95.21185900035069,38.962828999944236],[-95.20301400031536,38.95731399973055],[-95.1839659999617,38.95013500021263],[-95.17683599968642,38.94997700013313],[-95.17675399967064,38.94182299996005],[-95.17702800020534,38.942873999674894],[-95.18601899983054,38.942872000037234],[-95.18604899996778,38.935320999661606],[-95.20023800037322,38.935458999701886],[-95.20024900024389,38.93364400027025],[-95.20799000043944,38.933291999894166],[-95.20497199974966,38.93262800013016],[-95.20495699968104,38.92826899968657],[-95.2037060004265,38.92816799991153],[-95.21209799982697,38.926160000025675],[-95.21425700000104,38.92629899977324],[-95.2141759998102,38.928474000268416],[-95.22118499971164,38.927176999909136],[-95.22120099960516,38.925724000096444],[-95.22351299994011,38.92582000025962],[-95.22349799987151,38.92808499978815],[-95.24522799955766,38.92825600006261],[-95.24420699955854,38.92653800003973],[-95.25644900040037,38.92130800032627],[-95.25533499961651,38.915370000077324],[-95.25782699987651,38.91515399986561],[-95.26045499968065,38.91623999970963],[-95.26059500032103,38.921188000158104],[-95.27051900008178,38.920865999857135],[-95.27053300032551,38.92509100013597],[-95.27935200042155,38.92469700029745],[-95.27917699962107,38.930222000146934],[-95.28274400030685,38.92811299984906],[-95.28858999991897,38.92809199997911],[-95.28863000010193,38.92936500016152],[-95.29321299986563,38.93068100017355],[-95.29319799979702,38.935357999683546],[-95.29787199979731,38.935354999909144],[-95.29788600004102,38.93216700018544],[-95.29950299989177,38.93217000009474],[-95.29788699986592,38.93189200027552],[-95.29878900003933,38.93017900025413],[-95.31358299961896,38.941516000064915],[-95.33528200024129,38.94252599969235],[-95.33253300006335,38.94659799985651],[-95.32797399969077,38.94763700023315],[-95.3297069998925,38.95094999983071],[-95.32903200039813,38.953368000251324],[-95.32563299994185,38.953377999753],[-95.32552300033697,38.95695800032789],[-95.33623700011816,38.95687599999227],[-95.33656500018121,38.96009299967565],[-95.33488999970582,38.96413799969577],[-95.3335430001918,38.96417900021352],[-95.33362799968229,38.968958999919565],[-95.33205500021245,38.971473000241325],[-95.34450700021823,38.971354999986275],[-95.34454200037831,38.978623000283214],[-95.33386100020911,38.97873500023301],[-95.33525299992898,38.9858329999898],[-95.33976999957044,38.985827999736465],[-95.34269000035091,38.98931000028749],[-95.3438290003508,38.996546000054884],[-95.33411899995195,38.99619799976351],[-95.31648300030798,38.99802700000414],[-95.34382599997774,38.9967100002409],[-95.34384199987127,39.00044600031675],[-95.33526799999758,39.00055799994796],[-95.33558000016713,39.0295909999086],[-95.35554300021468,39.0329290001144],[-95.3639990000876,39.036034999690266],[-95.36573399993914,39.036843000195205],[-95.36342099977927,39.03703900026554],[-95.36723500033726,39.03909999984339],[-95.38851499976161,39.04774299991763],[-95.38778599984056,39.04882400013454],[-95.40067399986441,39.06006399991685],[-95.41943900036087,39.067204999953276],[-95.43614000021948,39.06978099992664],[-95.45665899993574,39.0682589997601],[-95.48236200018852,39.056873999770175],[-95.49382099978428,39.053954000315954],[-95.49949099966932,39.05569399991326],[-95.50764600014165,39.064607000082894],[-95.5121900004456,39.06663900033524],[-95.5154700001779,39.067406999691535],[-95.52191800038779,39.064958999943784],[-95.53260600022968,39.065727000141905],[-95.54284700018283,39.06910299967486],[-95.55182299973944,39.067070999911564],[-95.56832000028187,39.057183999896516],[-95.57696000027778,39.05438400010759],[-95.58234499975747,39.053998000057994],[-95.58933699994049,39.058432999773785],[-95.59675900029382,39.06467199999913],[-95.59834799965718,39.07351400022524],[-95.5946529998232,39.08190400026281],[-95.59471100044784,39.12927499976609],[-95.58930500015343,39.12915900010048],[-95.58947199965971,39.21608100028376],[-96.03557299999774,39.216519999864616],[-96.03589900041098,39.129783999837045],[-96.03899599984514,39.12975900000983],[-96.03906000031758,39.126527000074816],[-96.04187999974232,39.12874699988786],[-96.04014400006587,39.137284000222955],[-96.04259100012001,39.140830000166595],[-96.0579370000687,39.14150199974026],[-96.07031700010444,39.147546000291555],[-96.09058499975053,39.15395099968606],[-96.0908919998972,39.15871799980556],[-96.08386700010222,39.16326300027805],[-96.07044699980078,39.16234400023148],[-96.06074800017093,39.15729600028121],[-96.05765800040945,39.15816799980829],[-96.0568669996658,39.16148699991238],[-96.06499700002378,39.171080999730606],[-96.06871000029942,39.17941500013801],[-96.0835569995825,39.19350399981751],[-96.09625999965843,39.191840999679435],[-96.10696799959182,39.2010320000402],[-96.11161900002591,39.20004399968243],[-96.11550999967847,39.19076699986115],[-96.1227570001296,39.18712399976386],[-96.15284300012954,39.19257600021133],[-96.1767410002106,39.18861600024427],[-96.1792979998696,39.19225900028345],[-96.17886400039966,39.2032059999338],[-96.18156699964854,39.206333000179164],[-96.1947850002836,39.20760999990456],[-96.20407399983462,39.199980000346855],[-96.2166539998869,39.20031499968177],[-96.22212499958032,39.20201300019722],[-96.2291500002736,39.21041199994995],[-96.23541600001032,39.21211800009773],[-96.24420699961898,39.20800000005287],[-96.25451700006742,39.19123499976173],[-96.26595300009696,39.180599999676375],[-96.27062299989929,39.17888700032451],[-96.28385099968177,39.18482800029349],[-96.28682900018859,39.189715000335454],[-96.29420499961284,39.1954529997017],[-96.30236299955992,39.19749299965771],[-96.30819200035192,39.19677499967171],[-96.32144900044675,39.189847000171014],[-96.324729000179,39.18605100013327],[-96.32903300028346,39.16814999991691],[-96.33119300028243,39.16608600002709],[-96.32840499974643,39.16124199996252],[-96.32902700043567,39.15989999985514],[-96.33198300030286,39.1590170002784],[-96.33743200025496,39.1621569996683],[-96.34594900022722,39.15410200023583],[-96.35517900022704,39.15530600013144],[-96.35912900032913,39.15770700034716],[-96.35623000036335,39.17063599983396],[-96.35762499955796,39.17302199984249],[-96.36328100009761,39.172050000124074],[-96.3720740002544,39.164497000304884],[-96.37778699979714,39.164137000023025],[-96.38904600027467,39.17287799985501],[-96.38943899973675,39.13033100019054],[-96.3909059997997,39.13031600013305],[-96.39079600019484,39.04325699993136],[-96.4049029996862,39.043246999866945],[-96.50116600020515,39.04366600016559],[-96.50096199999062,39.0726810002171],[-96.70612199971082,39.073076999971036],[-96.70626200035123,39.09157100028507],[-96.71245299974485,39.090030999720064],[-96.72335800022005,39.09093099965173],[-96.73605999957277,39.07995700019386],[-96.73959299992336,39.08206200011108],[-96.74345500016192,39.08195500034076],[-96.74343900026838,39.08765899996042],[-96.85140900008021,39.08817599971248],[-96.8512690003381,39.10073999992207],[-96.83949199982673,39.11581699966248],[-96.83223900042611,39.11964500021485],[-96.83096700035685,39.13549200028488],[-96.8309849999002,39.13922800008764],[-96.84967000003068,39.139280000334686],[-96.84987900026806,39.21901200031126],[-96.96169299987677,39.22007599977508],[-96.96085799965051,39.17644700026454],[-96.96137999988233,39.132325000344174],[-96.96317699965813,39.13230000002531],[-96.96346999956111,38.96490100007692],[-96.95053300003175,38.971048000195005],[-96.95060699965158,38.976750999737526],[-96.94664700040205,38.97602000009504],[-96.94879599963208,38.97185299985689],[-96.94734100016302,38.97056999999132],[-96.93972899983888,38.976717999831266],[-96.93667800043545,38.97248000010806],[-96.93283499956516,38.97285700032367],[-96.93107100029962,38.97545499986151],[-96.9350409995949,38.97617700002214],[-96.93441700015414,38.97820299994115],[-96.92620899997834,38.97894100015196],[-96.92615100025203,38.97451999993688],[-96.92813399980069,38.973537999768645],[-96.92627699975041,38.96999500032886],[-96.92671000029377,38.87035000009557],[-96.8902449996809,38.87006700009669],[-96.89006499975585,38.81225500033148],[-96.92723400017542,38.8121600002321],[-96.92843400027466,38.71244300000464],[-96.9273739999175,38.696005000114866],[-96.9304090003257,38.696008999957144],[-96.93049600036436,38.67747699986929],[-96.93392400023464,38.6553499996724],[-96.92968799990227,38.65169199997499],[-96.93028600030206,38.6093619999568],[-97.37191100010823,38.609353000124514]]]}},{"type":"Feature","properties":{"GEOID":"2003","NAME":"Congressional District 3","BASENAME":"3","STATE":"20","CD119":"03"},"geometry":{"type":"Polygon","coordinates":[[[-95.51894499990384,38.03895200017082],[-95.07787599976639,38.03770600013672],[-95.07545899984946,38.25871400026867],[-95.06510300026856,38.25864800017172],[-95.06583100036471,38.38994499971984],[-94.61323199958807,38.38871799982165],[-94.61158499960007,38.63473899985227],[-94.60762500035054,38.82755999987043],[-94.60845700020374,38.97929800012794],[-94.6072229997693,39.08970900009243],[-94.6086510003725,39.090063999746064],[-94.61076799981548,39.08427599970614],[-94.6206470002687,39.076897999826976],[-94.63231099990388,39.07371800016585],[-94.64262999967484,39.073720999658],[-94.64799300031152,39.07587000018023],[-94.65412699980375,39.08445400013593],[-94.67969799981205,39.09975999981518],[-94.68893399965964,39.10270399970434],[-94.69920099955206,39.10361499983625],[-94.70235999980885,39.10253299969715],[-94.7100380002552,39.09329799990151],[-94.72433600044062,39.09879499982957],[-94.73481800041819,39.10075200026577],[-94.73935799962587,39.10632300021928],[-94.7678729998058,39.1049209998774],[-94.76971999981032,39.10179300034766],[-94.7977110001086,39.10183799990817],[-94.79780499981995,39.10055199984784],[-94.79818099956358,39.10182900013778],[-94.80038999996636,39.10046599988408],[-94.80572500011566,39.103967999925],[-94.80702700032214,39.10179400001287],[-94.81629999997965,39.10177100004084],[-94.81617899960584,39.10660399976674],[-94.83506600030101,39.10594300025021],[-94.83514699959355,39.108379000301674],[-94.8369810000776,39.109695000314986],[-94.85008400018663,39.10903399981297],[-94.85332399973593,39.11155600015892],[-94.85371999957106,39.11580499979253],[-94.90846500025847,39.1160010001997],[-94.90876499983413,38.991401000348965],[-94.91230800023045,38.987732000283366],[-94.91881800036464,38.98363299965351],[-94.92101599999845,38.98449999996801],[-94.92173400004884,38.98668699981347],[-94.91624300026395,38.99689999995558],[-94.91831299985124,39.00040900006929],[-94.92334900024979,39.00263300030771],[-94.93157099977095,39.001459999926354],[-94.93892500035223,38.99466199984223],[-94.94054999970061,38.989981999928034],[-94.9443879996497,38.9863899998855],[-94.95654500010271,38.98197200030447],[-94.96488299997482,38.98214099986103],[-94.9716039999962,38.98518999984524],[-94.9803619999929,38.99240699977018],[-95.01405699961309,39.000858000255825],[-95.02181700007523,38.999623999654936],[-95.02606699975298,38.99309399994926],[-95.0236380001405,38.988237999906524],[-95.02494399964662,38.98302600010356],[-95.02784699981038,38.978865000177066],[-95.03327499984607,38.975504999928006],[-95.04067200008504,38.97415599978435],[-95.05625800023323,38.98211999993398],[-95.05641200021901,38.73858700008324],[-95.50073799962422,38.7388080000743],[-95.50122300004612,38.6952629999132],[-95.50804199997677,38.69526800029372],[-95.50850200028432,38.68157800000672],[-95.50747399971421,38.25924800019462],[-95.51675700031576,38.25929600006709],[-95.51894499990384,38.03895200017082]]]}}]}