{"type":"FeatureCollection","features":[{"type":"Feature","properties":{"GEOID":"20","NAME":"Kansas","STATE":"20"},"geometry":{"type":"Polygon","coordinates":[[[-94.61764500037076,37.76124300004363],[-94.61411100019525,37.9737970000539],[-94.61247400025302,38.22103999973077],[-94.61335600033493,38.4579670000888],[-94.60762500035054,38.82755999987043],[-94.60845700020374,38.97929800012794],[-94.60713200043104,39.10067499976768],[-94.60851900012804,39.11624399980174],[-94.6051160003721,39.12325900029426],[-94.59028799955897,39.13812100017396],[-94.58841299996534,39.14986899980469],[-94.59066099982786,39.154766999825355],[-94.59384600002392,39.156828000129956],[-94.60865700022029,39.16104400034618],[-94.6355520001764,39.154082000177006],[-94.65064700005492,39.15409199985885],[-94.65578700021054,39.15568000026305],[-94.65921000005794,39.157841000207284],[-94.66139699982112,39.16274200033403],[-94.65916200037738,39.17412600016363],[-94.66157699974616,39.177358999982296],[-94.66911000042758,39.182203999881104],[-94.67823999996995,39.184169000133295],[-94.68878800006978,39.18322799968902],[-94.71413700032024,39.170403000032586],[-94.72363699975847,39.16900300012619],[-94.74077700000822,39.16998699986652],[-94.75228599983271,39.17324999979991],[-94.76285800022197,39.17999099978],[-94.77025000043807,39.18982699983212],[-94.776398000174,39.20181000024498],[-94.78295099996586,39.20716200007424],[-94.8115430001387,39.20690599978312],[-94.82193499970458,39.209668999782615],[-94.8316790004386,39.215938000255626],[-94.83472999984203,39.220754999890694],[-94.83489600042171,39.22384200015291],[-94.82779100026077,39.23400099998873],[-94.82566300004886,39.24172900002343],[-94.82747900009124,39.24989599976708],[-94.8305529999592,39.25513499993542],[-94.84631999985736,39.26848099998917],[-94.88409299962618,39.28451199993101],[-94.89851600038335,39.29845000016412],[-94.90612600015935,39.314721000304736],[-94.91035300027089,39.34473500033658],[-94.9100169998119,39.352542999778],[-94.90249700044762,39.36038299995771],[-94.88714499975283,39.36543099990767],[-94.88136000024008,39.370382999867296],[-94.87908800008809,39.37570299972994],[-94.87928100043194,39.379780000246775],[-94.88502599976174,39.38980100010491],[-94.8918449996924,39.39331300020248],[-94.90013200040922,39.3933330001254],[-94.9158590001244,39.38634800004093],[-94.92299400042255,39.384883000254185],[-94.93365200012722,39.3855460002104],[-94.94203900040316,39.38949899988115],[-94.94622700015665,39.39564799984217],[-94.94629300027887,39.405646000022955],[-94.9478640000989,39.4086040002224],[-94.95481699992385,39.41384399982054],[-94.96448899978954,39.416717999903426],[-94.97295200023343,39.42170499984926],[-94.97660600005953,39.426701000141186],[-94.97879799984558,39.4362410002315],[-94.9821439997001,39.44055200012718],[-94.99017199995085,39.44619199980822],[-95.01576300005063,39.453099000172614],[-95.03750000030779,39.4636889997473],[-95.0446680002179,39.47125599985573],[-95.04767099994075,39.477535999993],[-95.05055200036318,39.49751400013706],[-95.05445899990927,39.502652999761175],[-95.05930000031414,39.50647299988459],[-95.0827139997982,39.516712000027844],[-95.10130199984432,39.53166800016045],[-95.10930400015579,39.54228499992788],[-95.11348900043454,39.55683200015076],[-95.1074739998697,39.57374300033976],[-95.10494800017283,39.57660399979813],[-95.09214999966233,39.58111600025971],[-95.07521000032742,39.576429000242804],[-95.06709500003805,39.57650199986571],[-95.0568969997426,39.580566999932174],[-95.05058999999802,39.58756299978985],[-95.04716499960246,39.59511699978803],[-95.04644499990223,39.60160600016438],[-95.05423600032651,39.61729099970876],[-95.05426700028865,39.62774500024111],[-95.04951799994528,39.63787600020625],[-95.0276440003191,39.66545400024156],[-95.01531000031409,39.67426200022467],[-94.98156499956688,39.67863600026141],[-94.97581299966608,39.68175399997755],[-94.97067699970842,39.6872390000346],[-94.96898100021495,39.69295400004954],[-94.96845300013534,39.70740199982614],[-94.97120599961293,39.72930499978462],[-94.96395800023521,39.74036099997269],[-94.95528599955391,39.74568900010699],[-94.94754100005872,39.74533699975466],[-94.94180400022653,39.74336700012525],[-94.91834200016358,39.72879699996653],[-94.89931599955122,39.72404200009922],[-94.8841429998549,39.72679400020183],[-94.87563400027854,39.730491999915046],[-94.86773999992211,39.73604199971404],[-94.86273500038402,39.74219500010418],[-94.85903499962888,39.75411599975481],[-94.86063899995915,39.762982999754065],[-94.86522000007302,39.770069999844296],[-94.86965499969871,39.77289899980144],[-94.88216100013115,39.771042999747344],[-94.89826299976507,39.76162199983772],[-94.91094900012256,39.75917800011644],[-94.92069299995826,39.76293799982813],[-94.93457299966889,39.77296099994316],[-94.93499699999143,39.78369199991198],[-94.9282299999393,39.788938000118755],[-94.89205200027995,39.791083000216986],[-94.88228900017766,39.795803999881876],[-94.87634399993303,39.806894000157186],[-94.8766600003005,39.82252199997671],[-94.87867700018437,39.826522000332744],[-94.88650399969532,39.833336000239676],[-94.89293400036188,39.834680000221816],[-94.90634000041959,39.83373600028951],[-94.91676600032068,39.835806999996294],[-94.93985400028981,39.85204399974368],[-94.94256699958444,39.857033999921164],[-94.94237800033687,39.86225399982894],[-94.92846599994085,39.876343999790684],[-94.92735899972804,39.88396599986988],[-94.93015999978454,39.889933999811824],[-94.93490699957974,39.893784000150966],[-94.95153999966631,39.9005329997023],[-94.96212700012418,39.90126300018452],[-94.98705899972481,39.89632000026264],[-95.00381900003298,39.90040100031605],[-95.01312500020077,39.90019200013615],[-95.01874300020727,39.897372000105705],[-95.02438899980285,39.89120199976757],[-95.02594700010238,39.88674700006627],[-95.02490099998893,39.877254999687],[-95.02674700016854,39.87227300032567],[-95.03524599969917,39.86592099995029],[-95.0750460002959,39.86156199974336],[-95.09015799989284,39.86313999983266],[-95.10871099977886,39.87040200002684],[-95.12452899973066,39.87285700026141],[-95.13709200006448,39.87835099981908],[-95.14060100012563,39.88168800029402],[-95.14325400004412,39.887775000020746],[-95.14283800011751,39.90040200027584],[-95.14965700004817,39.90594799987068],[-95.15983400042724,39.906984000175804],[-95.17430300031684,39.9009910002266],[-95.1812219998066,39.899996000252116],[-95.19124000017702,39.90042400007602],[-95.20174999974368,39.90437699996464],[-95.20538799967626,39.90831000023709],[-95.20606300006897,39.912060999984405],[-95.20058200032982,39.925123999876504],[-95.20038200031325,39.93103099973584],[-95.20192399982095,39.936121999924374],[-95.20526600037586,39.9397499997955],[-95.21643999956625,39.94395300021107],[-95.23676099981408,39.94393099992929],[-95.25025399991044,39.948643999942334],[-95.25765199997433,39.954886000320634],[-95.26988600042021,39.96939599965759],[-95.30233999993328,39.98455500023386],[-95.30766099983886,39.990690000053235],[-95.3082900002008,39.999998000215854],[-98.27401699955524,40.00266199979887],[-99.75683499956332,40.00134199998426],[-102.05174399959115,40.00307800029882],[-102.04535099963286,38.85689699968866],[-102.0445149995817,37.98457499995051],[-102.04162599966166,37.69669900001853],[-102.04208900034224,36.993015999850805],[-100.10789099992334,37.00231199975241],[-99.55800400022733,36.99952899979911],[-98.7937250002632,36.99946100023034],[-98.3004649996226,36.99768399975325],[-97.63684399962013,36.9990849998713],[-94.617964000213,36.998905000209035],[-94.61672399993077,37.50012300032795],[-94.61764500037076,37.76124300004363]]]}}]}