{"type":"FeatureCollection","features":[{"type":"Feature","properties":{"GEOID":"2503","NAME":"Congressional District 3","BASENAME":"3","STATE":"25","CD119":"03"},"geometry":{"type":"Polygon","coordinates":[[[-72.11658299990253,42.62739799975395],[-72.07574899978623,42.62523500010863],[-72.035983000423,42.59385699990687],[-72.04181099959347,42.59197799972126],[-72.04220899997674,42.589364000196696],[-72.03880200002283,42.58648099992255],[-72.04229299964231,42.58390900009906],[-72.04202400002882,42.57979399969618],[-72.0378489997958,42.57840799986807],[-72.0379969999338,42.577070000079935],[-72.03459900020074,42.579991999991506],[-72.03172899964898,42.57833600010906],[-72.03292600027348,42.57632400030675],[-72.03111400042904,42.57594800013669],[-72.03121800018612,42.57421100015114],[-72.02669899999653,42.573265999828486],[-72.02341900026423,42.57367300009748],[-72.01936600022997,42.57670599994883],[-72.01702899978068,42.575535000294714],[-72.01599899956075,42.57365499995642],[-72.01945400009352,42.570777999946564],[-72.01499900037635,42.567942999769706],[-72.02701000034115,42.56324099990649],[-71.94979299962775,42.51188600002913],[-71.95131800031533,42.51790399993348],[-71.94847000040316,42.52448499990606],[-71.93280800008701,42.52636399984125],[-71.92969400003606,42.52894799992732],[-71.92908099956765,42.52505199981124],[-71.92625600012005,42.52320599994702],[-71.92046599968609,42.529876000305784],[-71.91855900030541,42.52577200018739],[-71.91430999955423,42.5232819999428],[-71.90849300025442,42.52655699995505],[-71.90243900022983,42.535679000283],[-71.89642200001516,42.53175200021672],[-71.89362099995867,42.527641999721325],[-71.89079499978784,42.5179759999084],[-71.88014999960365,42.51458200030271],[-71.87486499968307,42.50952000030627],[-71.86453099984348,42.51693299991152],[-71.861040000224,42.516373999725275],[-71.8568370004019,42.519083000169715],[-71.84940400017793,42.51790300013556],[-71.84736999967733,42.51470499974061],[-71.8420039995659,42.51467899968584],[-71.83712299987639,42.548550999806835],[-71.8308799997059,42.54901800022957],[-71.82128099963515,42.54653900019625],[-71.8078999996918,42.54716399995867],[-71.7986990000043,42.55259399986644],[-71.78602299969255,42.55104700013411],[-71.77134200009083,42.55924799995808],[-71.76428700015863,42.555055999945935],[-71.76036200017089,42.54762200031298],[-71.7577660001538,42.548567999943025],[-71.74967900035183,42.54520199982502],[-71.74986900032263,42.549758999905826],[-71.74776899969979,42.54993500009902],[-71.75409600043417,42.5594559999091],[-71.76294999979201,42.56392400031115],[-71.74507200029869,42.57386000015297],[-71.72041699980919,42.552329000140446],[-71.71123100019032,42.53535400002055],[-71.70223600036715,42.53389500013635],[-71.7123840004339,42.52132899985411],[-71.71674000041686,42.51897100031783],[-71.72838499978546,42.47512800016217],[-71.71869899967608,42.473374000035946],[-71.7183620002905,42.41021999998978],[-71.72157800044869,42.40923899974731],[-71.7259789997392,42.390289000017724],[-71.70101700000133,42.395808000167094],[-71.67055100005979,42.386664999958015],[-71.67779400031297,42.365154000236195],[-71.63394200040521,42.358397999786305],[-71.61755000034306,42.34196799995744],[-71.60409900007951,42.33676900023317],[-71.6035910000914,42.33167600007628],[-71.60526599966848,42.3301600000348],[-71.59736299998951,42.32101599989806],[-71.58520999973449,42.310952000206036],[-71.56908499963606,42.32037299975837],[-71.55112599995188,42.32639499982132],[-71.51652699961011,42.33033599985544],[-71.5082160004005,42.32792799994652],[-71.48679700016065,42.33018900010325],[-71.48329800014524,42.35313000017122],[-71.46944299965064,42.402592999805904],[-71.47838200029562,42.43710400031509],[-71.46434900042411,42.45030000002483],[-71.36634000018296,42.41271999977085],[-71.36392800028892,42.41602199984974],[-71.36441600018554,42.420440999681915],[-71.35657799990561,42.419923000137395],[-71.35256000003143,42.42692300008123],[-71.3353789997738,42.43777599972164],[-71.31361800012552,42.45502299981372],[-71.30480400005231,42.45275999995408],[-71.30228199965508,42.46200999992941],[-71.2893019995697,42.46455700016818],[-71.29871999989051,42.47290900031478],[-71.3094649996338,42.47640399996288],[-71.31376799991332,42.47418200013712],[-71.32126800008447,42.48051499967166],[-71.31698700044456,42.48418100012406],[-71.3196439996627,42.48693300000567],[-71.316968000178,42.50646300018943],[-71.30632999966647,42.51439299969337],[-71.30669899973743,42.52059299986748],[-71.30373899967226,42.519926000232715],[-71.2781069995646,42.52671300025953],[-71.25639600014503,42.52399199987998],[-71.25457199970673,42.52259300002443],[-71.25249000042385,42.52407799988401],[-71.26042400006494,42.53093599969457],[-71.25779799991064,42.532086000138136],[-71.25869300041136,42.53756699973181],[-71.26300699966322,42.53675300004294],[-71.26362699980433,42.539623000231764],[-71.27358700044843,42.53748000028046],[-71.27416599968333,42.539856000133014],[-71.27608499965788,42.5393120002956],[-71.27598099990082,42.54106499980109],[-71.27378099971885,42.54208799986956],[-71.27639500017759,42.54438300021289],[-71.26655599990734,42.54462699991267],[-71.2678349996493,42.55459399972573],[-71.26580600006989,42.55507000003958],[-71.26415400005902,42.55287299971551],[-71.26022999989618,42.554261000299185],[-71.25797399963773,42.55756599971964],[-71.25129500034748,42.55976300024952],[-71.25427299995596,42.562899000007924],[-71.24958100041232,42.563941999952355],[-71.25040200039489,42.566527000173075],[-71.24173300008665,42.57373700011589],[-71.22566900008759,42.58003600026575],[-71.2963189998671,42.61266699980248],[-71.28342699964527,42.61529900026157],[-71.27779100009543,42.6208469998591],[-71.27118800007483,42.64424199984073],[-71.27515400007047,42.65621599990837],[-71.25673300042892,42.657001000187776],[-71.25076300006992,42.66078199978926],[-71.24248999959678,42.66234599991092],[-71.23928500020759,42.66819500019993],[-71.22817100039332,42.680036000102874],[-71.22425100042844,42.694505999741516],[-71.22012200022618,42.69957700029468],[-71.21553600008944,42.70119799987737],[-71.19454899966973,42.69838299977396],[-71.18886200006627,42.69626800004711],[-71.18550299979296,42.675868000207785],[-71.151213000146,42.681706999925325],[-71.13445200001294,42.676778000092085],[-71.1335840001747,42.67942799976588],[-71.13940200019773,42.684477000285995],[-71.13778699999679,42.68504600017716],[-71.13946499994692,42.685344000158686],[-71.13798100016557,42.68690100025315],[-71.13980899990351,42.68718600017742],[-71.13731900019164,42.68934299979272],[-71.13793599995972,42.692507000049304],[-71.14314899991027,42.69419999992862],[-71.14339499995755,42.69702799984694],[-71.14585700008033,42.69848100011206],[-71.1427780001895,42.69892299991721],[-71.14089000017708,42.70334500011515],[-71.13711599980206,42.70438700030318],[-71.13755900039116,42.70652499982364],[-71.13395599972037,42.71041400006814],[-71.13445799986071,42.72116199999639],[-71.11557899956145,42.74110399979721],[-71.10863199958428,42.735281000100805],[-71.08190999988052,42.73668499999488],[-71.07211099979324,42.732668000089475],[-71.05888300001075,42.73246300009744],[-71.044523999726,42.74903400030099],[-71.04409600010382,42.75321399996046],[-71.04177399972312,42.75465399994944],[-71.04256700011659,42.75704100004401],[-71.03796500008633,42.758945000228564],[-71.0242350001635,42.77576000006891],[-71.0187080003936,42.79160499990009],[-71.00343500023988,42.80110100006966],[-70.9986850000716,42.80862699983178],[-70.99961099963613,42.81054499973262],[-71.05400499979596,42.83328199971637],[-71.06441599962844,42.80627499979891],[-71.13280500002493,42.8214759998798],[-71.14793900026152,42.816175999884614],[-71.16664699995823,42.808881000230166],[-71.18613999965251,42.79093500010305],[-71.18178600021767,42.73734100016633],[-71.22382999958064,42.74648399979196],[-71.24542600027081,42.74254599973771],[-71.26787300018245,42.72602600000637],[-71.27894900036188,42.711350000114756],[-71.294636999719,42.697041999738616],[-71.69650500038276,42.70572200027061],[-72.11105899960738,42.717205999959525],[-72.11658299990253,42.62739799975395]]]}},{"type":"Feature","properties":{"GEOID":"2509","NAME":"Congressional District 9","BASENAME":"9","STATE":"25","CD119":"09"},"geometry":{"type":"Polygon","coordinates":[[[-71.13835299971122,41.603691999991234],[-71.13161999999431,41.59371599989452],[-71.12243699985015,41.52207500030118],[-71.11987400034337,41.494604000320095],[-71.1211160002754,41.49278700008756],[-71.08857099962744,41.431314999762186],[-71.08503800017516,41.43346700020873],[-71.07240399969619,41.42557000002438],[-71.0534509997771,41.41695899996075],[-71.03360400008047,41.414085000185636],[-71.03991800039607,41.39825899996903],[-71.03270100008216,41.38027300007018],[-71.02610300008445,41.37169299967534],[-71.01479900029936,41.362019999807885],[-70.99074800005745,41.35128900012414],[-70.97052100041924,41.34918699995328],[-70.95575200005568,41.3501609998456],[-70.93866399968445,41.353986000286135],[-70.91839900041141,41.363033000073116],[-70.8960169998988,41.37014800019951],[-70.90186599988398,41.361770000280885],[-70.90373899982777,41.35508000006002],[-70.90381499999575,41.34672699995781],[-70.90100499971844,41.33461300016776],[-70.89772199961311,41.32741100011186],[-70.8844720000893,41.310162000040854],[-70.87002699959082,41.29706799994866],[-70.87818200006316,41.29214699974826],[-70.8856830000592,41.285066000257956],[-70.89033699996801,41.27736199993487],[-70.89359499995899,41.26799400027655],[-70.89420300040452,41.259439000267136],[-70.89054100018252,41.24309100020124],[-70.88497300040473,41.23378400003525],[-70.8744739998104,41.22138099992231],[-70.86634299962749,41.21539700006565],[-70.84774600025885,41.20581400009508],[-70.82364499978821,41.200648999818185],[-70.80594999969468,41.19874199974897],[-70.78358200032407,41.20121899995307],[-70.76783700016722,41.206489999841516],[-70.75418800043526,41.21609099981364],[-70.7443070003322,41.226029999885704],[-70.73475299956898,41.24626000013046],[-70.73366700017088,41.25011599986124],[-70.73484299998067,41.25923099999235],[-70.716499000332,41.26945200010747],[-70.70736200021864,41.28021800011797],[-70.70310599979479,41.28904000026538],[-70.69287400006245,41.28963899985701],[-70.68501999988898,41.29317599979951],[-70.60667199957163,41.299410000134074],[-70.57184799999729,41.300093999733605],[-70.51219900005414,41.2983130000821],[-70.49330800005932,41.279974999726306],[-70.47563499970707,41.27021999973255],[-70.45985100009048,41.26525300015181],[-70.4447579998618,41.26551300021921],[-70.42907499962924,41.268651000012596],[-70.40873300036331,41.277293999821815],[-70.39677699975178,41.273014000033214],[-70.37446600028258,41.26945799982833],[-70.34408300018171,41.27614600004654],[-70.33509000000836,41.27277899972282],[-70.31429799958232,41.26053199987948],[-70.29448400039601,41.246498999838586],[-70.28573600044506,41.242346000054624],[-70.23998200028116,41.22846300020307],[-70.21701700033567,41.21817599966451],[-70.17885100020646,41.204530999762035],[-70.10968400038341,41.18980299994938],[-70.07266599957659,41.191633999784315],[-70.01248299970605,41.187052999986186],[-69.98315099974153,41.19140299999691],[-69.96373900023809,41.19639299983875],[-69.94200799982873,41.20452000015556],[-69.91584199979366,41.22093899978936],[-69.91031900022172,41.22684899980805],[-69.8990100004138,41.245538000241524],[-69.89447199995762,41.25924000030685],[-69.89220900002648,41.27132299977177],[-69.89378900006733,41.28692500031366],[-69.9100930002659,41.31726299968095],[-69.9264400001222,41.3387940000498],[-69.94380100030489,41.36671699974946],[-69.96963400025402,41.40351100013025],[-69.98177499991519,41.41520799966954],[-70.0064670002146,41.43389800016319],[-70.02590200018257,41.44107900006128],[-70.04427199977049,41.44380100009852],[-70.06517399980139,41.442687000053425],[-70.09441200005458,41.43081000025903],[-70.1058189997718,41.419865999691474],[-70.11273399996192,41.408125999900214],[-70.1165409999489,41.39513200027849],[-70.11643999966655,41.38616499976571],[-70.11132799999835,41.370389000087],[-70.09784400012282,41.353583999864654],[-70.11933500033268,41.35263800002488],[-70.13794000009726,41.34637100018911],[-70.14869900008428,41.34521599991978],[-70.15999199999867,41.352242000244246],[-70.17490600012722,41.357290000114446],[-70.19838300025879,41.35902499972874],[-70.20829699997381,41.358024999733075],[-70.21511500007955,41.36027500002971],[-70.22162199984068,41.371769000334154],[-70.23814199994932,41.386204999772616],[-70.24768900014153,41.389890999693996],[-70.26728300011816,41.39342599999152],[-70.28321400004783,41.392885000095184],[-70.30243800012859,41.38962500001188],[-70.32359299987947,41.39160700009978],[-70.3382890004481,41.388550000217755],[-70.35308499967756,41.3814549999708],[-70.37011199994943,41.36876899972821],[-70.38344900041017,41.36993299996047],[-70.38069299966122,41.38536099973349],[-70.38080700036234,41.41199600021507],[-70.38587399982471,41.43372100007348],[-70.39289199994698,41.44548000023978],[-70.40592800010886,41.457013000083855],[-70.42108699956147,41.46441599983755],[-70.43644900030199,41.46891900027624],[-70.4639500001555,41.468000000276376],[-70.48968900039331,41.462976999927726],[-70.49494199962851,41.479632000227596],[-70.49947199968875,41.488232999719585],[-70.50860299995436,41.49896499984115],[-70.49820899984032,41.50256499980461],[-70.48974000044693,41.50185600015254],[-70.4664359996694,41.50615999968139],[-70.4485670003969,41.51309299975788],[-70.42389600001387,41.52873199990041],[-70.39516400009896,41.556722000293554],[-70.36420600006284,41.56219599999248],[-70.34633699989203,41.5684529996758],[-70.33154900016018,41.56789800016135],[-70.3112539998516,41.57106199980687],[-70.28996500020642,41.56163900016183],[-70.27889800024782,41.55931599982745],[-70.267428999708,41.558372999881875],[-70.24946300035113,41.56014599985545],[-70.22555799969908,41.56856099989176],[-70.20804000005585,41.58415000006347],[-70.18149999992697,41.593546999693345],[-70.16035699987165,41.59936999990629],[-70.13849099974307,41.59869200004058],[-70.12695199978138,41.600202999939164],[-70.07793399977872,41.61252800008509],[-70.06856900005971,41.61069699990041],[-70.06804600000298,41.602953999822084],[-70.0633519999112,41.59017299988579],[-70.07358600019165,41.57770800000789],[-70.08031600043387,41.56445400015246],[-70.10202900040157,41.55635200007176],[-70.10952000035186,41.551481999928164],[-70.12255899998848,41.53783300009322],[-70.12855399956352,41.52473200014841],[-70.12667700032009,41.503698000041595],[-70.12259499997349,41.49449899995598],[-70.1143940003687,41.48408299977197],[-70.10150799999467,41.474443999858664],[-70.08490400022043,41.46749300028061],[-70.07374199982728,41.465020000307334],[-70.05543699963837,41.464109999866395],[-70.04031300034586,41.465959999788055],[-70.02367699988625,41.47194799968611],[-70.01386199990543,41.477438999974595],[-69.99945800031315,41.49052699994892],[-69.99816899962713,41.493398999687365],[-69.98830599996575,41.49449599969316],[-69.96742999987411,41.500115999839494],[-69.94661300023205,41.512152000201745],[-69.93640099969288,41.52193600031961],[-69.92899400030647,41.53215199999615],[-69.9246319995774,41.54464599984455],[-69.92134500017242,41.56228199974484],[-69.92151699970157,41.57090000031026],[-69.91539900010287,41.58924300019492],[-69.89856199980181,41.606096000187904],[-69.89166199968031,41.61718600010071],[-69.88901200013487,41.625195999813336],[-69.87445899968135,41.64502600009279],[-69.8681250001726,41.65679099971215],[-69.86287600023704,41.67315300024138],[-69.85895000042437,41.70691599979195],[-69.8600579995638,41.75850299996173],[-69.86559500027775,41.790979999687984],[-69.86652500004027,41.81701099973051],[-69.87237900004833,41.8315860002394],[-69.88001800013662,41.861978000272444],[-69.89530499963574,41.90675300003654],[-69.9091779996737,41.942062000111335],[-69.92910899993421,41.97847599981154],[-69.94820999999133,42.00010599967334],[-69.96948199991806,42.02925400025819],[-69.9962789999649,42.059687000053096],[-70.01159099957839,42.073377999887924],[-70.04030199957688,42.0916340002055],[-70.06709799979882,42.10532699979471],[-70.12069100006754,42.125101000256315],[-70.15067599978515,42.13146500003464],[-70.17254199991375,42.134515000135266],[-70.1953999997291,42.13154900014282],[-70.20622099964041,42.13305400013493],[-70.22917499971526,42.13118899984665],[-70.24947199967366,42.12692599989179],[-70.27743000035997,42.114345000049525],[-70.60838100038221,42.13847900005962],[-70.62448200019121,42.15722499994184],[-70.6244830000161,42.12510699996631],[-70.66578400011265,42.12510000019354],[-70.68474100022972,42.15100000009801],[-70.69427800037619,42.17105700003935],[-70.70235099993447,42.19945600006745],[-70.73235599974353,42.25010099968188],[-70.75104900026997,42.29311399998622],[-70.67569000033008,42.375097999906515],[-70.72921199955539,42.37384799991878],[-70.82563800028093,42.26463300020671],[-70.83574000031692,42.26479199968605],[-70.84062699985424,42.260989000057535],[-70.84462700018504,42.260425999998375],[-70.84888600008364,42.25230399973792],[-70.84927699989589,42.24733100008406],[-70.84124100014756,42.24454599999108],[-70.84115199956078,42.243345999860324],[-70.8533800001589,42.239606999727904],[-70.84080000010658,42.21311799990784],[-70.82701499993219,42.20078600006893],[-70.87024800042208,42.182470999924824],[-70.89351600031628,42.16981400032963],[-70.94076799960693,42.1513649999007],[-70.9314869995535,42.11654899975311],[-70.90241200040523,42.085897000019685],[-70.91296200015488,42.08441699968444],[-70.89972900034952,42.02529899989347],[-70.89661799977331,42.023284999711215],[-70.89957100016578,42.002974999735336],[-70.89918700002623,41.99637099966992],[-70.91283300028346,41.99700499978567],[-70.91855500004704,42.00592800022431],[-70.92536399993195,42.00890900014931],[-70.95366400002672,42.005850000245566],[-70.97958499983939,42.010998999819336],[-70.97878599959813,42.00739500026481],[-70.99060699959215,42.00390800017285],[-71.00271700018946,41.99805300030752],[-71.0541839998961,41.982716000081105],[-71.0547179998235,41.985057000181186],[-71.07034499997955,41.98784100004248],[-71.06974199955688,41.98111100016617],[-71.06630799983881,41.97803699989966],[-71.0610279999411,41.978882999743256],[-71.06040699997509,41.97371800023005],[-71.06372699989035,41.97325400028842],[-71.06170300033382,41.97042400031074],[-71.0616680001737,41.96822799968026],[-71.06359600036909,41.967104999999165],[-71.0615979998535,41.96701200028829],[-71.06144700024078,41.964402999735135],[-71.06790700014623,41.9631949996841],[-71.07032400006315,41.95406900017478],[-71.07350800043429,41.95485399991489],[-71.07452299968729,41.94747400022393],[-71.08549000008678,41.941743000042656],[-71.07981000015599,41.93845500018709],[-71.07289400014096,41.948995000080195],[-71.06032699960913,41.945123000233735],[-71.0534089999443,41.94048899974272],[-71.05108099971582,41.93382900014898],[-71.04718000001752,41.93392900030907],[-71.04619099980546,41.936162000333354],[-71.03472100033906,41.93236099993579],[-71.03808700028506,41.926789999694215],[-71.03564799972851,41.923657000105486],[-71.02827800015204,41.922537000157504],[-71.01883700026505,41.92425999980943],[-71.01118800013097,41.90700100030114],[-71.00478000010408,41.91026200016755],[-71.0053679995598,41.91475300013147],[-71.00348399974534,41.917363000141435],[-70.99749400019317,41.91843999969696],[-70.99582200009083,41.91524000013768],[-70.9920329996472,41.915751000216005],[-70.990984000059,41.91005900004613],[-70.9929330001708,41.90622799978651],[-70.98783700039611,41.90567700000269],[-70.98487399995791,41.907450999820014],[-70.97628199964257,41.901151000066776],[-70.96713299983362,41.90125400002992],[-70.96334400028832,41.89638600003835],[-70.91641099994156,41.87691700007937],[-70.91632700027598,41.87256999967843],[-70.91296800000265,41.870243999716266],[-70.91673800017972,41.867166999906104],[-70.91350799977782,41.863859000286745],[-70.91444699976115,41.862132000138935],[-70.91287599994115,41.861726999886315],[-70.91774800030817,41.85871600026953],[-70.91681500017262,41.85720000003371],[-70.91870499983484,41.851943000278204],[-70.893454000392,41.82790100015358],[-70.89864399987802,41.81487700008054],[-70.89640000021343,41.79431999987293],[-70.92179200012161,41.791264000248574],[-70.90718400031481,41.76354300002152],[-70.92631600033407,41.75884499969085],[-70.92614599955643,41.7570169999999],[-70.92222200029192,41.75484100026286],[-71.06663000005408,41.68561899974933],[-71.10569300033384,41.692804000294004],[-71.11440699994962,41.692804000294004],[-71.13419000007211,41.63399700012515],[-71.13306199994287,41.63071699986835],[-71.13539900039217,41.62564799972205],[-71.13835299971122,41.603691999991234]]]}},{"type":"Feature","properties":{"GEOID":"2501","NAME":"Congressional District 1","BASENAME":"1","STATE":"25","CD119":"01"},"geometry":{"type":"Polygon","coordinates":[[[-73.50820999977523,42.08613399972491],[-73.49701800014317,42.0496240001605],[-73.42851499994384,42.050476000308045],[-73.03680199991786,42.03929399980414],[-72.8137839998975,42.03674400029586],[-72.81705299975913,41.997685000102855],[-72.7667330004483,42.003266000225935],[-72.76625300004928,42.00787099995701],[-72.76150100023118,42.009302000017016],[-72.76297699961664,42.01346599984035],[-72.75895000041993,42.015469000326206],[-72.76294700037771,42.01968299970212],[-72.76580600016052,42.01956800008805],[-72.76447700018984,42.02087299995016],[-72.76525200014166,42.02236600005444],[-72.76348700015288,42.02118399998345],[-72.76056700027071,42.022650000195206],[-72.75734100006677,42.02097899988133],[-72.752061999994,42.0290250003208],[-72.75255300026367,42.03124900023115],[-72.75730099988381,42.033380999723356],[-72.75589400009532,42.03634900028546],[-72.6993299998908,42.03695699988561],[-72.64019099958557,42.03204800023287],[-72.60797800009692,42.0310830001198],[-72.60716899980993,42.025148000156115],[-72.58216299969114,42.02474099975854],[-72.57277799988063,42.030219000113114],[-72.53154899975411,42.034578000228784],[-72.1431509996205,42.0305220000485],[-72.0718260003466,42.027636999679444],[-71.84571199981868,42.023994000113035],[-71.85587699960385,42.03392599992669],[-71.86146000034857,42.04599199972061],[-71.86786500000244,42.047391999898075],[-71.86616000028813,42.05035700006898],[-71.87310499971719,42.0509750000266],[-71.87437099993865,42.055693000241206],[-71.88038700032841,42.05550700008676],[-71.87992799984579,42.057834000128],[-71.88232499967123,42.05876799982846],[-71.88210399973829,42.062419999733756],[-71.87882700037905,42.06615799973275],[-71.88150899971154,42.07589299979715],[-71.81132799956208,42.09887099971569],[-71.8092169999669,42.09536300009627],[-71.79717699968978,42.09917199984794],[-71.81795599969702,42.13326399992452],[-71.82952999981883,42.12939100030965],[-71.83194199971288,42.143775000277856],[-71.82959099991821,42.14486000028782],[-71.82485300034381,42.15533199993501],[-71.83410500008492,42.15499000028297],[-71.83448500002652,42.15725699969486],[-71.82548799965521,42.15991999995121],[-71.82595899983342,42.165820000309154],[-71.83150400004497,42.16425299993043],[-71.83492400041766,42.159829000257915],[-71.85809600005237,42.160705999801856],[-71.87580200001658,42.17011999980041],[-71.89513499987729,42.192424999815834],[-71.939355999856,42.18923799973227],[-71.96729100007778,42.31068200028631],[-72.04116799988614,42.30869699983992],[-72.12366700014707,42.363929999777795],[-72.12399400038521,42.36163999996423],[-72.12662700021221,42.35975000011057],[-72.13466999963325,42.35739600016965],[-72.13698600016616,42.353118000218444],[-72.13638799976636,42.34870899970848],[-72.14031500030224,42.3482329999815],[-72.14039499976987,42.3446869998219],[-72.15229399958167,42.34550499971743],[-72.1585119996378,42.34312499976528],[-72.15960799997997,42.33857600015112],[-72.16362699967905,42.336360999942755],[-72.16239300014293,42.33389200002399],[-72.16753300029855,42.33109300020518],[-72.17243400007955,42.32580600022335],[-72.17210900038954,42.322743999703356],[-72.17690399986535,42.31919400020712],[-72.17697900020842,42.316563999960216],[-72.18522099982108,42.310351999844954],[-72.18582900026661,42.30800099989179],[-72.18395999962246,42.30642000032062],[-72.18729399978143,42.3047109997648],[-72.19223100044576,42.304874999830005],[-72.19422599968999,42.30612099970843],[-72.19336600024768,42.30852700018488],[-72.19462599972306,42.30948800014548],[-72.19971599964995,42.31137499983323],[-72.20718300020913,42.31152199970234],[-72.20498999969986,42.30623699971238],[-72.21397299982748,42.29425700001864],[-72.21674499957163,42.294055999717976],[-72.2163050002539,42.29913499982603],[-72.21242100027403,42.301981999897876],[-72.21285399991908,42.30773700025793],[-72.21079500020242,42.3113800000332],[-72.26154499968358,42.30333099985953],[-72.26192200015043,42.30525800027109],[-72.27463899957178,42.30196300001951],[-72.28000300003336,42.32909100001953],[-72.27707899995323,42.3294050000503],[-72.27849099976459,42.33646500017704],[-72.28138200023275,42.33612699978292],[-72.28423099996982,42.35201000023837],[-72.2919810003862,42.351827000103995],[-72.3011269998221,42.34843499975356],[-72.30465199977678,42.345307000085946],[-72.30638199960545,42.346053000073546],[-72.30680400027815,42.344282000192365],[-72.31477800010221,42.34349600001248],[-72.31493299991291,42.339543000005385],[-72.31763100003724,42.339625999849964],[-72.32286099970621,42.33415999981731],[-72.32258399969679,42.33116899970984],[-72.32533399969962,42.33006600008732],[-72.32608500026032,42.32824400014654],[-72.3245350003567,42.32629700008351],[-72.32621400013174,42.32515800011885],[-72.32676200030284,42.32681399981156],[-72.32817999996197,42.326059000179434],[-72.32811700021279,42.31874599993223],[-72.33307300024538,42.319122000117105],[-72.33524599976482,42.31514200021867],[-72.34228700035166,42.314242000318245],[-72.34625900019506,42.30977399999203],[-72.3511690001969,42.31033999969967],[-72.34959599982875,42.3084430000061],[-72.35277799965176,42.30745099979274],[-72.34996499989971,42.30676800003144],[-72.34989399975458,42.30451600024125],[-72.35155800035933,42.304041000083835],[-72.35220000024175,42.306422999879615],[-72.35637399975154,42.30332599968453],[-72.36059400019039,42.3084139998788],[-72.35637999959931,42.31100900032155],[-72.3569279997704,42.31303299974905],[-72.354526999747,42.3158369998853],[-72.35520399978952,42.31933099994795],[-72.35300199995774,42.32125199971913],[-72.3542730002021,42.323855999698594],[-72.35117800041773,42.324883999811284],[-72.35359399961143,42.327691999930174],[-72.35112800018902,42.32956299995948],[-72.35276299958315,42.33181500009293],[-72.35104500034835,42.33516600022051],[-72.35292699961467,42.33627699973018],[-72.35398799979674,42.34006800028086],[-72.38036800009205,42.34061400027324],[-72.4054550004017,42.33643699972224],[-72.40941700019935,42.3587619997226],[-72.47228700032358,42.351458000160775],[-72.46419499960042,42.30805300022263],[-72.47969399970998,42.3069020000485],[-72.49358600001449,42.302267999961664],[-72.49911699998235,42.306262999947386],[-72.50074499970377,42.305166000069036],[-72.50666499983407,42.30638799970084],[-72.52796100005025,42.30145799992754],[-72.53121200036855,42.303623999721864],[-72.54465799971092,42.30568300002283],[-72.56930599962942,42.30448900006539],[-72.5879609996227,42.30035800019286],[-72.60212400008886,42.288045000189335],[-72.6099480001251,42.28522400033083],[-72.61364100030927,42.286627999678515],[-72.61470099976812,42.290199000171356],[-72.62108500040391,42.289619999916034],[-72.6302319996647,42.28492900019629],[-72.6348489997636,42.28538799997714],[-72.63744099958271,42.28740600010604],[-72.64067699983238,42.28413700017786],[-72.64208000032122,42.288174000131114],[-72.64876600018249,42.29182400013942],[-72.66046800035079,42.28869600005745],[-72.6720349999016,42.29019300017188],[-72.67209099997808,42.29188700013519],[-72.73672600009108,42.284240999674054],[-72.73575799979541,42.26651800018182],[-72.81440499986351,42.2568189998212],[-72.82112199968692,42.338629999796815],[-72.82638800023923,42.342362999763274],[-72.8334830003544,42.34174800012428],[-72.83573700006473,42.34325399972726],[-72.83922199983641,42.3429450001326],[-72.84037599990492,42.34507700029444],[-72.84372299958434,42.344653000251675],[-72.84643699960219,42.34046699997553],[-72.84749600013444,42.342310999897045],[-72.85424399992,42.34340499986634],[-72.88563499960117,42.34003600017074],[-72.90458000002268,42.430385000307],[-72.84790500038835,42.436489999821454],[-72.85563300016513,42.48091999970418],[-72.87113599957432,42.48404099978089],[-72.8751550001717,42.50724900014001],[-72.87031999961464,42.52514999983722],[-72.87546099959515,42.52589700011072],[-72.87702599956737,42.55542499999396],[-72.84845400038436,42.55906900015773],[-72.83174799960456,42.616626999853366],[-72.82247999996991,42.618797999771544],[-72.8156500001686,42.61680699991243],[-72.8031100002993,42.616625000114205],[-72.78354100043704,42.621296000138884],[-72.76428200019618,42.619428000196436],[-72.75409899996933,42.620978999997675],[-72.74838399987846,42.61803799978962],[-72.74527999987326,42.61967099973336],[-72.74672099999694,42.624170999925596],[-72.74309499975992,42.62711500004038],[-72.73688900029768,42.627021000301646],[-72.73511400026317,42.6331080001873],[-72.76609200039078,42.62925999984911],[-72.77264699983249,42.65833400029411],[-72.82150599982648,42.63687699989974],[-72.8357069999275,42.63506999969202],[-72.8362009996719,42.637788999955454],[-72.84279299982185,42.63809800024483],[-72.84227300013816,42.64661399999691],[-72.85120600003704,42.64714500012937],[-72.85421499960768,42.66465200006691],[-72.85542499975267,42.664615000067855],[-72.8576869998589,42.67409000010362],[-72.85958400009216,42.683087000072895],[-72.8540339998577,42.68320700013014],[-72.8643190001918,42.737837999861625],[-73.26482700002443,42.74585099972671],[-73.50820999977523,42.08613399972491]]]}},{"type":"Feature","properties":{"GEOID":"2508","NAME":"Congressional District 8","BASENAME":"8","STATE":"25","CD119":"08"},"geometry":{"type":"Polygon","coordinates":[[[-71.30378499970303,42.14921100003739],[-71.30011800035645,42.14717600021192],[-71.30050599979565,42.14287399980774],[-71.2989469996712,42.14041999992642],[-71.30218600029394,42.136870999850565],[-71.29893999999852,42.12649999998646],[-71.30022299993844,42.12590999989075],[-71.28026800028681,42.08849199973007],[-71.27173600024592,42.09844499983904],[-71.25330200018557,42.1053440001664],[-71.23880399998365,42.10640100005148],[-71.23799300004684,42.112895999735414],[-71.2398979997777,42.12083000001202],[-71.23109799994819,42.12329800003017],[-71.23330700035098,42.12595900032246],[-71.23194499987002,42.131558999751746],[-71.1868850003654,42.15326399972684],[-71.18869100036206,42.16112699987978],[-71.18280300001881,42.16328699981094],[-71.18131300038965,42.165523000160235],[-71.17789899986475,42.16556700012235],[-71.17636800022771,42.15536000030757],[-71.16219800008882,42.145278999723764],[-71.16354200012813,42.14145700022113],[-71.14916600012494,42.13861200016084],[-71.15016500038273,42.13585299969618],[-71.14820500040028,42.12811699981632],[-71.13860399978141,42.11954599976237],[-71.13349100028829,42.11098899979967],[-71.13113000044785,42.101790000263314],[-71.13942800013702,42.08486999995526],[-71.13860700015444,42.0727749998829],[-71.16868099956051,42.06116099981539],[-71.156450000386,42.001042000171374],[-71.05539200039128,41.98517799967582],[-71.0541839998961,41.982716000081105],[-71.00271700018946,41.99805300030752],[-70.99060699959215,42.00390800017285],[-70.97878599959813,42.00739500026481],[-70.97958499983939,42.010998999819336],[-70.95366400002672,42.005850000245566],[-70.92536399993195,42.00890900014931],[-70.91855500004704,42.00592800022431],[-70.91283300028346,41.99700499978567],[-70.89918700002623,41.99637099966992],[-70.89957100016578,42.002974999735336],[-70.89661799977331,42.023284999711215],[-70.89972900034952,42.02529899989347],[-70.91296200015488,42.08441699968444],[-70.90241200040523,42.085897000019685],[-70.9314869995535,42.11654899975311],[-70.94076799960693,42.1513649999007],[-70.89351600031628,42.16981400032963],[-70.87024800042208,42.182470999924824],[-70.82701499993219,42.20078600006893],[-70.84080000010658,42.21311799990784],[-70.8533800001589,42.239606999727904],[-70.84115199956078,42.243345999860324],[-70.84124100014756,42.24454599999108],[-70.84927699989589,42.24733100008406],[-70.84888600008364,42.25230399973792],[-70.84462700018504,42.260425999998375],[-70.84062699985424,42.260989000057535],[-70.83574000031692,42.26479199968605],[-70.82563800028093,42.26463300020671],[-70.72921199955539,42.37384799991878],[-70.67569000033008,42.375097999906515],[-70.75104900026997,42.29311399998622],[-70.73235599974353,42.25010099968188],[-70.70235099993447,42.19945600006745],[-70.69109900002793,42.16367100027635],[-70.67507699986164,42.136198999706316],[-70.66578400011265,42.12510000019354],[-70.6244830000161,42.12510699996631],[-70.62448200019121,42.15722499994184],[-70.64294600038878,42.178184999782374],[-70.6363299999494,42.20290300005667],[-70.6363299999494,42.21638599999784],[-70.64011299964693,42.228371999944464],[-70.64862200012159,42.23736000001761],[-70.68406099981416,42.253836000176186],[-70.68870399985231,42.263468000063604],[-70.6903929996731,42.2789989998625],[-70.64807200030069,42.40562800029661],[-70.74948699977247,42.40082000015345],[-70.85143600006995,42.393208999722944],[-70.9012919997736,42.384098000036616],[-70.91789200024823,42.385996999774314],[-70.97289300013036,42.35359700009456],[-70.9750940001372,42.34349899979619],[-71.01099399996224,42.342698000015524],[-71.02836299964252,42.35409900008133],[-71.02979500044368,42.35178899990045],[-71.0458279995823,42.35722699970378],[-71.04259600042892,42.363798000288554],[-71.04909499979412,42.37119700025951],[-71.06299399977134,42.368390999949405],[-71.06947799996624,42.36904599986744],[-71.07733399978952,42.35908399972127],[-71.08751100016858,42.35555699995531],[-71.08374900038746,42.34838000004758],[-71.06423499987847,42.35339399988041],[-71.05800900032473,42.35234999980268],[-71.04959500028463,42.35449699993207],[-71.05446900030145,42.34677799979751],[-71.05814300021903,42.34564700005502],[-71.06026399985996,42.34239899979867],[-71.06100899967453,42.334781999763464],[-71.06665500016844,42.325844999736915],[-71.06874700039536,42.31859400003947],[-71.06271799958681,42.31600600002423],[-71.0616740000215,42.31838000010995],[-71.05883399960693,42.31859999998972],[-71.06001799981267,42.31473800001608],[-71.06348199966797,42.31317399992883],[-71.0593790003033,42.311038999697296],[-71.05888100036093,42.31277100013097],[-71.0560209998549,42.31286400026226],[-71.05560300027847,42.3109730002546],[-71.05350600002868,42.310493000051984],[-71.05595399990774,42.301374000282465],[-71.0590420000194,42.300333000126564],[-71.05645699987299,42.29636999969361],[-71.05917199971574,42.29440099985949],[-71.05691700018053,42.29397999990661],[-71.05534700018542,42.28824199983441],[-71.06430299965052,42.28569900021288],[-71.06650299983248,42.27790400019765],[-71.07207700035636,42.27566599986935],[-71.06813999977473,42.27099999987819],[-71.0732640000368,42.27031700029115],[-71.08120000022603,42.25837000002441],[-71.08434000021623,42.25924999993566],[-71.09350999994159,42.25691999993161],[-71.09331199957487,42.238670000063856],[-71.07664000002856,42.221119999790716],[-71.09318899955123,42.213936000304784],[-71.08272699966511,42.20429000020721],[-71.04948999980434,42.20666900000779],[-71.0472710002541,42.19459199990935],[-71.02959100022919,42.19152999987866],[-71.019130000168,42.18685099991357],[-71.02161999987986,42.17016599992791],[-71.03509299988472,42.1356340000971],[-71.04012000006244,42.13719399991517],[-71.11479899958678,42.21265300017697],[-71.13077100042264,42.22792599971239],[-71.14268100010513,42.235998000135524],[-71.14664200007788,42.25575500022503],[-71.15211799979416,42.25824699995161],[-71.15001499969658,42.25945400005348],[-71.15195600031076,42.260807000321414],[-71.15162300022483,42.25905899970951],[-71.1550419998743,42.261847000285506],[-71.1569369995594,42.260825000070284],[-71.16042399987924,42.26682300025484],[-71.15864299999694,42.26956600010641],[-71.1546760001764,42.26929699999342],[-71.15112399955922,42.266666000218464],[-71.12737299979128,42.28709999979271],[-71.12217200043462,42.2945559998278],[-71.11841499977803,42.293409000331856],[-71.10294400015589,42.31929800026549],[-71.10528900010281,42.319364999924694],[-71.10845199965922,42.32238900013247],[-71.11850600001463,42.32125699979866],[-71.12152800000406,42.323881999961436],[-71.1400959999587,42.30217300027972],[-71.15211299977128,42.29458799981659],[-71.1647020000444,42.30383000018053],[-71.17863600018173,42.29459500010272],[-71.19124700019616,42.282992000145505],[-71.18821199978792,42.2804379996901],[-71.19712499959532,42.26895299975293],[-71.20502399997463,42.26705899981525],[-71.21797300009787,42.26867800029358],[-71.21987500035398,42.2635319996967],[-71.22318799969824,42.26269699975201],[-71.22933299995942,42.2640400002971],[-71.251415999823,42.20261300023105],[-71.26105500007671,42.204096000182176],[-71.26956899967594,42.20049899978589],[-71.2756710002794,42.18166699987233],[-71.27502500019902,42.14862299975228],[-71.30378499970303,42.14921100003739]]]}},{"type":"Feature","properties":{"GEOID":"2505","NAME":"Congressional District 5","BASENAME":"5","STATE":"25","CD119":"05"},"geometry":{"type":"Polygon","coordinates":[[[-71.49701100034963,42.289894999701254],[-71.46075599979905,42.27906299967927],[-71.41929800024198,42.25728100013627],[-71.39776900039728,42.26152800013232],[-71.3903649995873,42.271916000145644],[-71.35690699979358,42.26349499987515],[-71.35668599986066,42.25998399996033],[-71.35368099958966,42.256792999786306],[-71.34177699975497,42.25353699994563],[-71.34245899982037,42.25045499981773],[-71.33290800032852,42.24783800008508],[-71.33249599970155,42.24907500021442],[-71.30292199988769,42.24827400013627],[-71.3093020003255,42.27637899992191],[-71.30463599982282,42.278357999815405],[-71.30031499999994,42.28289699996254],[-71.29710899988751,42.28197899997211],[-71.29754800027864,42.283543000109994],[-71.29422199961729,42.28553200015746],[-71.2911739996886,42.293202999668374],[-71.28831699955563,42.295826999797065],[-71.27917000029481,42.29205000029587],[-71.27526000037568,42.294730000152256],[-71.27925599961023,42.29883999972442],[-71.2757900001051,42.30021999972963],[-71.26436999996909,42.30018000032837],[-71.27281999999421,42.30383000018053],[-71.27299999991926,42.30579000007411],[-71.27511999973527,42.30501999984786],[-71.27802999957171,42.30675999992219],[-71.27858799978854,42.30830800012451],[-71.27614999995521,42.31063999998806],[-71.27711999990069,42.311979999895186],[-71.2719169999959,42.3143110001661],[-71.24662999966971,42.31573000030551],[-71.24614599997103,42.321012999706056],[-71.25280800044116,42.32671000022178],[-71.25781800000212,42.32450599972618],[-71.25956500044755,42.326673999838405],[-71.26353599956774,42.32601700018105],[-71.27025499993928,42.32855499992417],[-71.27024599971844,42.330979999906795],[-71.26566600032781,42.331272999896804],[-71.26441500017492,42.334472999706115],[-71.25993299979525,42.334824999951984],[-71.25568899996527,42.339290999830126],[-71.26188399955686,42.341868999961804],[-71.25975899971799,42.34611100014668],[-71.26030600006416,42.348193999743714],[-71.25862399991607,42.34936100016824],[-71.2603579999427,42.3536579998084],[-71.256464999742,42.354905000038386],[-71.25573099979808,42.3537539998694],[-71.25314599965165,42.355897000246415],[-71.2170609998787,42.3665690001244],[-71.20745799961,42.36409999973719],[-71.19542200042916,42.36782500019071],[-71.19221499959347,42.36542400000643],[-71.19629799976498,42.36180199973393],[-71.18368000007786,42.35882899982943],[-71.1821259999763,42.36068100003339],[-71.17527199988552,42.359271999679116],[-71.16682400040854,42.36003599982147],[-71.16260099959665,42.35850899989368],[-71.14808400002646,42.36120500004035],[-71.14406500032737,42.36500400015747],[-71.13914699992962,42.36470299999875],[-71.13211700011176,42.369145999720054],[-71.13314999980643,42.37256299974189],[-71.13068500020893,42.37392199995469],[-71.12700999956812,42.37283900027192],[-71.12382699992021,42.369156999747254],[-71.1179339995541,42.36838500010301],[-71.1169209999509,42.364246000264394],[-71.11390099961132,42.364478000122325],[-71.1135120003472,42.368563999698786],[-71.1099840000195,42.36727399986201],[-71.10901599972384,42.36490800002535],[-71.10510400015488,42.36452099991319],[-71.10314599982226,42.36634400029379],[-71.10174999990441,42.36830199973544],[-71.10585900001519,42.3697500001707],[-71.10206200007397,42.37389699991644],[-71.10861400004093,42.37955199982765],[-71.11305899971235,42.380932000013246],[-71.11165600012184,42.38174899995603],[-71.11819300002018,42.388008999962224],[-71.11708499998245,42.389581000296566],[-71.1209739999852,42.393706000023464],[-71.12283799970815,42.39224200025843],[-71.1243680004186,42.39365299972506],[-71.12684899990964,42.39034199983958],[-71.12900600043386,42.39007199970462],[-71.12755799973921,42.387402000273674],[-71.13172999959916,42.38518499967788],[-71.1304099998493,42.38291800023031],[-71.13579400040238,42.384599999842564],[-71.13475800033468,42.38557199987015],[-71.1383719999778,42.38744000017063],[-71.14372399984552,42.38828399973972],[-71.14112100015575,42.39209199985471],[-71.15636199962414,42.395852000158854],[-71.15205699969478,42.40104000014331],[-71.14355700033926,42.39742800002742],[-71.14429700013096,42.39467600014587],[-71.14060700031986,42.39467999991699],[-71.14074500041212,42.395885999890126],[-71.13835899955902,42.39564500010967],[-71.13693199967905,42.39757199990754],[-71.13221300037124,42.39727599994285],[-71.13215300009678,42.395761999961785],[-71.12736100009569,42.39709600018704],[-71.13463500031104,42.40425900026293],[-71.13222300041697,42.40952299986469],[-71.13243500012908,42.41521600026068],[-71.13040499982644,42.41742399974046],[-71.12695100001689,42.41784000016599],[-71.12992199995269,42.41332699997918],[-71.12703999970533,42.41232799970921],[-71.12810099988742,42.41072000009131],[-71.11554099992661,42.405145000076466],[-71.11548900004809,42.40290500020192],[-71.11237400017225,42.40022600024165],[-71.10039400016957,42.396224000002235],[-71.09668900028986,42.400455000142216],[-71.09199299964995,42.39889999988484],[-71.08568699973026,42.400650999766995],[-71.075995999598,42.39639600028284],[-71.07598800010041,42.39970600017663],[-71.07129700038169,42.40692199987269],[-71.07374400043584,42.40867900004568],[-71.07187300014185,42.41109899992426],[-71.07329599982386,42.41479599985656],[-71.06044100031028,42.416006999673876],[-71.05047200034367,42.42288699972775],[-71.0282270000984,42.42420200002707],[-71.03318099958287,42.41420600014372],[-71.02623699997875,42.40592500025836],[-71.00939600037805,42.401183000021554],[-71.01339499998562,42.397398000066055],[-71.01127199979658,42.396589000078876],[-71.01192999957253,42.39575199971079],[-71.00586100037762,42.39389200027854],[-70.99830599995491,42.396928999867136],[-70.99381799972744,42.39292400025393],[-70.98713299969111,42.39212300017984],[-70.98673100000819,42.38700700022708],[-70.99423899967694,42.384647000203145],[-70.99669400012702,42.378741000017065],[-71.00612300031845,42.37605199971811],[-71.01036299995047,42.36503100025118],[-70.98659700011389,42.36457199973507],[-70.98559299983324,42.35679699967416],[-70.97289300013036,42.35359700009456],[-70.91789200024823,42.385996999774314],[-70.92459300017809,42.38679799973114],[-70.95949399974532,42.40749799980174],[-70.96209300013544,42.41239700002632],[-70.95299299983198,42.429396000129515],[-70.95079299965003,42.44429600006307],[-70.96859400004878,42.444396000017576],[-70.98229399983437,42.43129600010635],[-70.99012000041874,42.43487700023725],[-70.99571400013579,42.43085500021493],[-71.01077700022725,42.434567999837654],[-71.01144199967588,42.436692999932326],[-71.01009900035982,42.43830099979615],[-71.0123649997657,42.4397410000764],[-71.00950299960984,42.440963999785005],[-71.0187569998991,42.45011800021218],[-71.02583600012075,42.44470900024204],[-71.05336499956337,42.475925000284455],[-71.0613230003922,42.47419599980751],[-71.06126899996555,42.47265100010785],[-71.06930499971386,42.47163700031638],[-71.07815200029735,42.47402000022146],[-71.0752399999128,42.48800800001364],[-71.08550199978232,42.49225800032412],[-71.09011499968327,42.50126100009464],[-71.1007270002555,42.50224199970334],[-71.11975999964223,42.50029199995944],[-71.13545399974545,42.53000099996084],[-71.17003299999573,42.51553699975595],[-71.16844399973405,42.49829900018881],[-71.16891400008731,42.49054699967273],[-71.17071900025907,42.489755000235704],[-71.16892400013307,42.48708699993764],[-71.18650600024871,42.480979999854064],[-71.18548000022675,42.4799670002638],[-71.18827899973508,42.479695999987214],[-71.20431699979488,42.46584499973167],[-71.21022299968148,42.47072699988786],[-71.21211599971676,42.466244000177255],[-71.2409060002563,42.49001300013992],[-71.24417699976776,42.48853899996233],[-71.25319800042851,42.493237999898206],[-71.25666200028382,42.492924999810015],[-71.25706099959365,42.49044200002792],[-71.26184900029509,42.486261000021464],[-71.2596049997322,42.48404099978089],[-71.25972699993093,42.47774399996541],[-71.25669300024596,42.4784559999438],[-71.26151500038422,42.47624599970509],[-71.27269500032074,42.459703999889925],[-71.2778890000047,42.460709999735016],[-71.28183999993173,42.45964000028185],[-71.28967599966353,42.46618199988957],[-71.2893019995697,42.46455700016818],[-71.30228199965508,42.46200999992941],[-71.30480400005231,42.45275999995408],[-71.31361800012552,42.45502299981372],[-71.3353789997738,42.43777599972164],[-71.35256000003143,42.42692300008123],[-71.35657799990561,42.419923000137395],[-71.36441600018554,42.420440999681915],[-71.36392800028892,42.41602199984974],[-71.36634000018296,42.41271999977085],[-71.46434900042411,42.45030000002483],[-71.47838200029562,42.43710400031509],[-71.46944299965064,42.402592999805904],[-71.48329800014524,42.35313000017122],[-71.48680399983334,42.3302170000193],[-71.48510900016477,42.32316399968668],[-71.48594799969067,42.311228000285055],[-71.49701100034963,42.289894999701254]]]}},{"type":"Feature","properties":{"GEOID":"2506","NAME":"Congressional District 6","BASENAME":"6","STATE":"25","CD119":"06"},"geometry":{"type":"Polygon","coordinates":[[[-71.32123499957419,42.48063700015368],[-71.31376799991332,42.47418200013712],[-71.3094649996338,42.47640399996288],[-71.29871999989051,42.47290900031478],[-71.28183999993173,42.45964000028185],[-71.2778890000047,42.460709999735016],[-71.27269500032074,42.459703999889925],[-71.26151500038422,42.47624599970509],[-71.25669300024596,42.4784559999438],[-71.25972699993093,42.47774399996541],[-71.2596049997322,42.48404099978089],[-71.26184900029509,42.486261000021464],[-71.25706099959365,42.49044200002792],[-71.25666200028382,42.492924999810015],[-71.25344699995054,42.49329199967033],[-71.24566800012013,42.488895000155914],[-71.2409060002563,42.49001300013992],[-71.21211599971676,42.466244000177255],[-71.21022299968148,42.47072699988786],[-71.20431699979488,42.46584499973167],[-71.18827899973508,42.479695999987214],[-71.18548000022675,42.4799670002638],[-71.18650600024871,42.480979999854064],[-71.16892400013307,42.48708699993764],[-71.17071900025907,42.489755000235704],[-71.16891400008731,42.49054699967273],[-71.16844399973405,42.49829900018881],[-71.17003299999573,42.51553699975595],[-71.13545399974545,42.53000099996084],[-71.11975999964223,42.50029199995944],[-71.1007270002555,42.50224199970334],[-71.09011499968327,42.50126100009464],[-71.08550199978232,42.49225800032412],[-71.0752399999128,42.48800800001364],[-71.07815200029735,42.47402000022146],[-71.06930499971386,42.47163700031638],[-71.06126899996555,42.47265100010785],[-71.0613230003922,42.47419599980751],[-71.05336499956337,42.475925000284455],[-71.02583600012075,42.44470900024204],[-71.0187569998991,42.45011800021218],[-71.00950299960984,42.440963999785005],[-71.0123649997657,42.4397410000764],[-71.01009900035982,42.43830099979615],[-71.01144199967588,42.436692999932326],[-71.01077700022725,42.434567999837654],[-70.99571400013579,42.43085500021493],[-70.99012000041874,42.43487700023725],[-70.98229399983437,42.43129600010635],[-70.96859400004878,42.444396000017576],[-70.95079299965003,42.44429600006307],[-70.95299299983198,42.429396000129515],[-70.96209300013544,42.41239700002632],[-70.95949399974532,42.40749799980174],[-70.92459300017809,42.38679799973114],[-70.9012919997736,42.384098000036616],[-70.85143600006995,42.393208999722944],[-70.74948699977247,42.40082000015345],[-70.64807200030069,42.40562800029661],[-70.6062899999802,42.53122000026482],[-70.58270900009155,42.553003999710064],[-70.54537399999066,42.57011900005886],[-70.52179300010201,42.5934590003015],[-70.51196800007546,42.60590700032805],[-70.5021430000489,42.624578999720114],[-70.5021430000489,42.635471000144165],[-70.51393399990567,42.68059400024674],[-70.52965499977309,42.7070479999741],[-70.5493059996511,42.72416400009981],[-70.62594300040637,42.73972399985762],[-70.64166400027376,42.73972300031748],[-70.66131400032687,42.73660999975247],[-70.68293000021019,42.72883000017155],[-70.70258000026332,42.72416199985789],[-70.71432400026443,42.731911000126566],[-70.71927000025129,42.75009499979276],[-70.72584800015751,42.75901999983424],[-70.73183900043291,42.778356999795996],[-70.7372249997375,42.7879559998839],[-70.73365499957698,42.80365900005825],[-70.7348739999428,42.82447699990263],[-70.73903800030517,42.83581800019123],[-70.74552199960175,42.84444299999096],[-70.74882999982145,42.85883099975284],[-70.73500500036238,42.87468500021481],[-70.82023799983433,42.871786999801124],[-70.84771799977145,42.860866999724095],[-70.88560199986836,42.88283399989744],[-70.90353299996345,42.886778000316056],[-70.92959400041653,42.88503199993913],[-70.9670180002059,42.86880000016689],[-71.03120100040726,42.8590869998415],[-71.0449199995611,42.8486669999432],[-71.05400499979596,42.83328199971637],[-70.99961099963613,42.81054499973262],[-70.99908599992958,42.806292999876476],[-71.00343500023988,42.80110100006966],[-71.0187080003936,42.79160499990009],[-71.0242350001635,42.77576000006891],[-71.03796500008633,42.758945000228564],[-71.04256700011659,42.75704100004401],[-71.04177399972312,42.75465399994944],[-71.04409600010382,42.75321399996046],[-71.044523999726,42.74903400030099],[-71.05888300001075,42.73246300009744],[-71.07211099979324,42.732668000089475],[-71.08190999988052,42.73668499999488],[-71.10863199958428,42.735281000100805],[-71.11557899956145,42.74110399979721],[-71.13445799986071,42.72116199999639],[-71.13395599972037,42.71041400006814],[-71.13755900039116,42.70652499982364],[-71.13711599980206,42.70438700030318],[-71.14089000017708,42.70334500011515],[-71.1427780001895,42.69892299991721],[-71.14585700008033,42.69848100011206],[-71.14339499995755,42.69702799984694],[-71.14314899991027,42.69419999992862],[-71.13793599995972,42.692507000049304],[-71.13731900019164,42.68934299979272],[-71.13980899990351,42.68718600017742],[-71.13798100016557,42.68690100025315],[-71.13946499994692,42.685344000158686],[-71.13778699999679,42.68504600017716],[-71.13940200019773,42.684477000285995],[-71.1335840001747,42.67942799976588],[-71.13445200001294,42.676778000092085],[-71.151213000146,42.681706999925325],[-71.18550299979296,42.675868000207785],[-71.18886200006627,42.69626800004711],[-71.19454899966973,42.69838299977396],[-71.21553600008944,42.70119799987737],[-71.22012200022618,42.69957700029468],[-71.22425100042844,42.694505999741516],[-71.22817100039332,42.680036000102874],[-71.23928500020759,42.66819500019993],[-71.24248999959678,42.66234599991092],[-71.25076300006992,42.66078199978926],[-71.25673300042892,42.657001000187776],[-71.27515400007047,42.65621599990837],[-71.27118800007483,42.64424199984073],[-71.27779100009543,42.6208469998591],[-71.28342699964527,42.61529900026157],[-71.2963189998671,42.61266699980248],[-71.22566900008759,42.58003600026575],[-71.24173300008665,42.57373700011589],[-71.25040200039489,42.566527000173075],[-71.24958100041232,42.563941999952355],[-71.25427299995596,42.562899000007924],[-71.25129500034748,42.55976300024952],[-71.25797399963773,42.55756599971964],[-71.26022999989618,42.554261000299185],[-71.26415400005902,42.55287299971551],[-71.26580600006989,42.55507000003958],[-71.2678349996493,42.55459399972573],[-71.26655599990734,42.54462699991267],[-71.27639500017759,42.54438300021289],[-71.27378099971885,42.54208799986956],[-71.27598099990082,42.54106499980109],[-71.27608499965788,42.5393120002956],[-71.27416599968333,42.539856000133014],[-71.27358700044843,42.53748000028046],[-71.26362699980433,42.539623000231764],[-71.26300699966322,42.53675300004294],[-71.25869300041136,42.53756699973181],[-71.25779799991064,42.532086000138136],[-71.26042400006494,42.53093599969457],[-71.25249000042385,42.52407799988401],[-71.25457199970673,42.52259300002443],[-71.25639600014503,42.52399199987998],[-71.2781069995646,42.52671300025953],[-71.30373899967226,42.519926000232715],[-71.30669899973743,42.52059299986748],[-71.30632999966647,42.51439299969337],[-71.31609299976876,42.50763000017425],[-71.3177079999697,42.50479599979033],[-71.3196439996627,42.48693300000567],[-71.31698700044456,42.48418100012406],[-71.32123499957419,42.48063700015368]]]}},{"type":"Feature","properties":{"GEOID":"2504","NAME":"Congressional District 4","BASENAME":"4","STATE":"25","CD119":"04"},"geometry":{"type":"Polygon","coordinates":[[[-71.59274800043879,42.121647999935654],[-71.59109999972756,42.013646000020174],[-71.52757600002536,42.01509899981241],[-71.49825900012945,42.01727199988229],[-71.3814009997263,42.0187979997801],[-71.38146299965057,41.89354600001753],[-71.33878699955261,41.89859300001877],[-71.34088999965017,41.88180400016222],[-71.33403999975737,41.86260399999971],[-71.34255000005695,41.84465599971396],[-71.33541700030695,41.83564500019505],[-71.34519799995256,41.82767600010971],[-71.34754500044761,41.82324600013131],[-71.33933200024896,41.80852700022873],[-71.34048100029456,41.79703300001129],[-71.33464499982988,41.79483500015642],[-71.33274299957375,41.7901599996962],[-71.3294569999937,41.78832700008242],[-71.33039099995415,41.785381000220305],[-71.3284719999796,41.7806940001221],[-71.26106699977227,41.75208200018372],[-71.19547900033056,41.67509000022768],[-71.1757840000716,41.67149300010397],[-71.17611999963228,41.66824799991862],[-71.13255700032782,41.66036300023152],[-71.13530700033067,41.62848800000227],[-71.14018499964716,41.62386899971188],[-71.14195800003183,41.612532999683964],[-71.14030799967081,41.604849999987174],[-71.13834600003855,41.60367600029008],[-71.13539900039217,41.62564799972205],[-71.13306199994287,41.63071699986835],[-71.13419000007211,41.63399700012515],[-71.11440699994962,41.692804000294004],[-71.10569300033384,41.692804000294004],[-71.06663000005408,41.68561899974933],[-70.92222200029192,41.75484100026286],[-70.92614599955643,41.7570169999999],[-70.92631600033407,41.75884499969085],[-70.90718400031481,41.76354300002152],[-70.92179200012161,41.791264000248574],[-70.89640000021343,41.79431999987293],[-70.89864399987802,41.81487700008054],[-70.893454000392,41.82790100015358],[-70.91870499983484,41.851943000278204],[-70.91681500017262,41.85720000003371],[-70.91774800030817,41.85871600026953],[-70.91287599994115,41.861726999886315],[-70.91444699976115,41.862132000138935],[-70.91350799977782,41.863859000286745],[-70.91673800017972,41.867166999906104],[-70.91296800000265,41.870243999716266],[-70.91632700027598,41.87256999967843],[-70.91641099994156,41.87691700007937],[-70.96334400028832,41.89638600003835],[-70.96713299983362,41.90125400002992],[-70.97628199964257,41.901151000066776],[-70.98487399995791,41.907450999820014],[-70.98783700039611,41.90567700000269],[-70.9929330001708,41.90622799978651],[-70.990984000059,41.91005900004613],[-70.9920329996472,41.915751000216005],[-70.99582200009083,41.91524000013768],[-70.99749400019317,41.91843999969696],[-71.00348399974534,41.917363000141435],[-71.0053679995598,41.91475300013147],[-71.00478000010408,41.91026200016755],[-71.01118800013097,41.90700100030114],[-71.01883700026505,41.92425999980943],[-71.02827800015204,41.922537000157504],[-71.03564799972851,41.923657000105486],[-71.03808700028506,41.926789999694215],[-71.03472100033906,41.93236099993579],[-71.04619099980546,41.936162000333354],[-71.04718000001752,41.93392900030907],[-71.05108099971582,41.93382900014898],[-71.0534089999443,41.94048899974272],[-71.06032699960913,41.945123000233735],[-71.07289400014096,41.948995000080195],[-71.07981000015599,41.93845500018709],[-71.08549000008678,41.941743000042656],[-71.07452299968729,41.94747400022393],[-71.07350800043429,41.95485399991489],[-71.07032400006315,41.95406900017478],[-71.06790700014623,41.9631949996841],[-71.06144700024078,41.964402999735135],[-71.0615979998535,41.96701200028829],[-71.06359600036909,41.967104999999165],[-71.0616680001737,41.96822799968026],[-71.06170300033382,41.97042400031074],[-71.06372699989035,41.97325400028842],[-71.06040699997509,41.97371800023005],[-71.0610279999411,41.978882999743256],[-71.06630799983881,41.97803699989966],[-71.06974199955688,41.98111100016617],[-71.07034499997955,41.98784100004248],[-71.156450000386,42.001042000171374],[-71.16868099956051,42.06116099981539],[-71.13860700015444,42.0727749998829],[-71.13942800013702,42.08486999995526],[-71.13129000028142,42.100739999951806],[-71.13165699980424,42.105968999923896],[-71.13910199972376,42.120234999721774],[-71.14820500040028,42.12811699981632],[-71.15016500038273,42.13585299969618],[-71.14916600012494,42.13861200016084],[-71.16354200012813,42.14145700022113],[-71.16219800008882,42.145278999723764],[-71.17636800022771,42.15536000030757],[-71.17797400020783,42.16565499995467],[-71.18131300038965,42.165523000160235],[-71.18280300001881,42.16328699981094],[-71.18869100036206,42.16112699987978],[-71.1868850003654,42.15326399972684],[-71.2318729999,42.13163300013955],[-71.23330700035098,42.12595900032246],[-71.23109799994819,42.12329800003017],[-71.2398979997777,42.12083000001202],[-71.23799300004684,42.112895999735414],[-71.23880399998365,42.10640100005148],[-71.25330200018557,42.1053440001664],[-71.27173600024592,42.09844499983904],[-71.28026800028681,42.08849199973007],[-71.30022299993844,42.12590999989075],[-71.29893999999852,42.12649999998646],[-71.30218600029394,42.136870999850565],[-71.2989469996712,42.14041999992642],[-71.30050599979565,42.14287399980774],[-71.30011800035645,42.14717600021192],[-71.30375100026616,42.14950000007735],[-71.27502500019902,42.14862299975228],[-71.2756710002794,42.18166699987233],[-71.26956899967594,42.20049899978589],[-71.26105500007671,42.204096000182176],[-71.251415999823,42.20261300023105],[-71.22945500015815,42.263907000022414],[-71.21987500035398,42.2635319996967],[-71.21797300009787,42.26867800029358],[-71.20502399997463,42.26705899981525],[-71.19712499959532,42.26895299975293],[-71.18821199978792,42.2804379996901],[-71.19124700019616,42.282992000145505],[-71.17863600018173,42.29459500010272],[-71.1647020000444,42.30383000018053],[-71.15211299977128,42.29458799981659],[-71.1468830001023,42.29727999996065],[-71.1400959999587,42.30217300027972],[-71.12371099956925,42.32271599978189],[-71.11653699981136,42.32393900032137],[-71.11321199987323,42.33245800017173],[-71.11053300001548,42.33532999995024],[-71.11155900003745,42.337381000021665],[-71.11057900004623,42.340442999880736],[-71.10551599988351,42.343811999679566],[-71.10721300010024,42.347049000057645],[-71.1065700003929,42.34991200024714],[-71.1228550003249,42.35186099977746],[-71.12858299993626,42.34983300001188],[-71.15703600019192,42.330389999935655],[-71.16129500009052,42.333782999771394],[-71.16756500002516,42.33344099988507],[-71.16921700003604,42.33806800027942],[-71.16668299994325,42.34010400030232],[-71.17485000011115,42.350336999825494],[-71.17391600015067,42.35346500014107],[-71.16762500029964,42.36007300002088],[-71.17527199988552,42.359271999679116],[-71.1821259999763,42.36068100003339],[-71.18368000007786,42.35882899982943],[-71.19629799976498,42.36180199973393],[-71.19221499959347,42.36542400000643],[-71.19542200042916,42.36782500019071],[-71.20745799961,42.36409999973719],[-71.2170609998787,42.3665690001244],[-71.23467999980427,42.36137700002234],[-71.25314599965165,42.355897000246415],[-71.25573099979808,42.3537539998694],[-71.256464999742,42.354905000038386],[-71.2603579999427,42.3536579998084],[-71.25862399991607,42.34936100016824],[-71.26030600006416,42.348193999743714],[-71.25975899971799,42.34611100014668],[-71.26188399955686,42.341868999961804],[-71.25568899996527,42.339290999830126],[-71.25993299979525,42.334824999951984],[-71.26441500017492,42.334472999706115],[-71.26566600032781,42.331272999896804],[-71.27029199974919,42.330863999683196],[-71.26955899963018,42.32777900018837],[-71.26353599956774,42.32601700018105],[-71.25956500044755,42.326673999838405],[-71.25781800000212,42.32450599972618],[-71.25357499999706,42.32673199985559],[-71.25174600043418,42.32612299999658],[-71.24614599997103,42.321012999706056],[-71.24662999966971,42.31573000030551],[-71.2719169999959,42.3143110001661],[-71.27711999990069,42.311979999895186],[-71.27614999995521,42.31063999998806],[-71.27858799978854,42.30830800012451],[-71.27802999957171,42.30675999992219],[-71.27511999973527,42.30501999984786],[-71.27299999991926,42.30579000007411],[-71.27281999999421,42.30383000018053],[-71.26436999996909,42.30018000032837],[-71.2757900001051,42.30021999972963],[-71.27925599961023,42.29883999972442],[-71.27526000037568,42.294730000152256],[-71.27917000029481,42.29205000029587],[-71.28831699955563,42.295826999797065],[-71.2911739996886,42.293202999668374],[-71.29422199961729,42.28553200015746],[-71.29754800027864,42.283543000109994],[-71.29710899988751,42.28197899997211],[-71.30031499999994,42.28289699996254],[-71.30463599982282,42.278357999815405],[-71.3093020003255,42.27637899992191],[-71.30292199988769,42.24827400013627],[-71.33249599970155,42.24907500021442],[-71.33290800032852,42.24783800008508],[-71.34245899982037,42.25045499981773],[-71.34177699975497,42.25353699994563],[-71.35368099958966,42.256792999786306],[-71.35668599986066,42.25998399996033],[-71.35690699979358,42.26349499987515],[-71.3903649995873,42.271916000145644],[-71.39776900039728,42.26152800013232],[-71.41929800024198,42.25728100013627],[-71.41830300018215,42.24650400018376],[-71.42007499984362,42.23812299998397],[-71.41725899971851,42.237888000145865],[-71.41336200021817,42.23455700016125],[-71.41253799986256,42.228170999701945],[-71.4090489998929,42.22457499971541],[-71.41002200021143,42.21874900002817],[-71.40195299995281,42.21541999988044],[-71.40358200039746,42.214286999791256],[-71.39752900019779,42.21030200017542],[-71.3973409998768,42.207888999875074],[-71.39392300005227,42.207089000123496],[-71.39170600015187,42.20974199971581],[-71.38848900016879,42.208004999726626],[-71.38820600031156,42.20430300006408],[-71.38018200025878,42.2017589996861],[-71.38476500002248,42.19201399976443],[-71.40442699977116,42.18843300014386],[-71.40229500025957,42.178793999818005],[-71.37561799986335,42.13545399982317],[-71.379583999859,42.13576000025093],[-71.37953399963028,42.13313800013432],[-71.38328000041619,42.13349099983389],[-71.38209600021048,42.135546999717704],[-71.39710300022543,42.13732299990546],[-71.40234299994016,42.13954299970924],[-71.40862700011851,42.13432099984006],[-71.41269100002343,42.133603999852305],[-71.41583299966346,42.1356340000971],[-71.41509799989463,42.13825899969464],[-71.41884499960715,42.13640199987014],[-71.42053500015116,42.13754099979271],[-71.4192210002491,42.13896800018923],[-71.43022899975814,42.139011999963984],[-71.43457200022064,42.1343270000092],[-71.4426930003578,42.135783999712565],[-71.47852200003771,42.13137799992417],[-71.47802699957006,42.165870999992656],[-71.49737799987243,42.16664300014211],[-71.50262599998308,42.1914159997568],[-71.50689400010252,42.18892700031357],[-71.53949800030172,42.18973399968185],[-71.55573800002789,42.18250300022208],[-71.5520080000338,42.17977500009863],[-71.55252500024275,42.17740799985314],[-71.56201700018337,42.178613999775294],[-71.56326900016116,42.17196999999749],[-71.55980899960551,42.167108000221646],[-71.56283899999084,42.167838999734066],[-71.56444099977298,42.16420399983076],[-71.56095400035149,42.15831500018842],[-71.57140199999388,42.15184500031451],[-71.57159100013978,42.14236700031744],[-71.57000500025114,42.139184000061704],[-71.59274800043879,42.121647999935654]]]}},{"type":"Feature","properties":{"GEOID":"2502","NAME":"Congressional District 2","BASENAME":"2","STATE":"25","CD119":"02"},"geometry":{"type":"Polygon","coordinates":[[[-72.90436400011261,42.430413999872904],[-72.88563499960117,42.34003600017074],[-72.85424399992,42.34340499986634],[-72.84749600013444,42.342310999897045],[-72.84643699960219,42.34046699997553],[-72.84372299958434,42.344653000251675],[-72.84037599990492,42.34507700029444],[-72.83922199983641,42.3429450001326],[-72.83573700006473,42.34325399972726],[-72.8334830003544,42.34174800012428],[-72.82638800023923,42.342362999763274],[-72.82112199968692,42.338629999796815],[-72.81440499986351,42.2568189998212],[-72.73575799979541,42.26651800018182],[-72.73672600009108,42.284240999674054],[-72.67209099997808,42.29188700013519],[-72.6720349999016,42.29019300017188],[-72.66046800035079,42.28869600005745],[-72.64876600018249,42.29182400013942],[-72.64208000032122,42.288174000131114],[-72.64067699983238,42.28413700017786],[-72.63744099958271,42.28740600010604],[-72.6348489997636,42.28538799997714],[-72.6302319996647,42.28492900019629],[-72.62108500040391,42.289619999916034],[-72.61470099976812,42.290199000171356],[-72.61364100030927,42.286627999678515],[-72.6099480001251,42.28522400033083],[-72.60212400008886,42.288045000189335],[-72.5879609996227,42.30035800019286],[-72.56930599962942,42.30448900006539],[-72.54465799971092,42.30568300002283],[-72.53121200036855,42.303623999721864],[-72.52796100005025,42.30145799992754],[-72.50666499983407,42.30638799970084],[-72.50074499970377,42.305166000069036],[-72.49911699998235,42.306262999947386],[-72.49358600001449,42.302267999961664],[-72.47969399970998,42.3069020000485],[-72.46419499960042,42.30805300022263],[-72.47228700032358,42.351458000160775],[-72.40941700019935,42.3587619997226],[-72.4054550004017,42.33643699972224],[-72.38036800009205,42.34061400027324],[-72.35398799979674,42.34006800028086],[-72.35292699961467,42.33627699973018],[-72.35104500034835,42.33516600022051],[-72.35276299958315,42.33181500009293],[-72.35112800018902,42.32956299995948],[-72.35359399961143,42.327691999930174],[-72.35117800041773,42.324883999811284],[-72.3542730002021,42.323855999698594],[-72.35300199995774,42.32125199971913],[-72.35520399978952,42.31933099994795],[-72.354526999747,42.3158369998853],[-72.3569279997704,42.31303299974905],[-72.35637999959931,42.31100900032155],[-72.36059400019039,42.3084139998788],[-72.3560180000994,42.3032829998904],[-72.35220000024175,42.306422999879615],[-72.35155800035933,42.304041000083835],[-72.34989399975458,42.30451600024125],[-72.34996499989971,42.30676800003144],[-72.35277799965176,42.30745099979274],[-72.34959599982875,42.3084430000061],[-72.3511690001969,42.31033999969967],[-72.34625900019506,42.30977399999203],[-72.34228700035166,42.314242000318245],[-72.33524599976482,42.31514200021867],[-72.33307300024538,42.319122000117105],[-72.32811700021279,42.31874599993223],[-72.32817999996197,42.326059000179434],[-72.32676200030284,42.32681399981156],[-72.32621400013174,42.32515800011885],[-72.3245350003567,42.32629700008351],[-72.32608500026032,42.32824400014654],[-72.32533399969962,42.33006600008732],[-72.32258399969679,42.33116899970984],[-72.32286099970621,42.33415999981731],[-72.31763100003724,42.339625999849964],[-72.31493299991291,42.339543000005385],[-72.31477800010221,42.34349600001248],[-72.30680400027815,42.344282000192365],[-72.30638199960545,42.346053000073546],[-72.30465199977678,42.345307000085946],[-72.3011269998221,42.34843499975356],[-72.2919810003862,42.351827000103995],[-72.28423099996982,42.35201000023837],[-72.28138200023275,42.33612699978292],[-72.27849099976459,42.33646500017704],[-72.27707899995323,42.3294050000503],[-72.28000300003336,42.32909100001953],[-72.27463899957178,42.30196300001951],[-72.26192200015043,42.30525800027109],[-72.26154499968358,42.30333099985953],[-72.21079500020242,42.3113800000332],[-72.21285399991908,42.30773700025793],[-72.21242100027403,42.301981999897876],[-72.2163050002539,42.29913499982603],[-72.21674499957163,42.294055999717976],[-72.21397299982748,42.29425700001864],[-72.20498999969986,42.30623699971238],[-72.20718300020913,42.31152199970234],[-72.19971599964995,42.31137499983323],[-72.19462599972306,42.30948800014548],[-72.19336600024768,42.30852700018488],[-72.19422599968999,42.30612099970843],[-72.19223100044576,42.304874999830005],[-72.18729399978143,42.3047109997648],[-72.18395999962246,42.30642000032062],[-72.18582900026661,42.30800099989179],[-72.18522099982108,42.310351999844954],[-72.17697900020842,42.316563999960216],[-72.17690399986535,42.31919400020712],[-72.17210900038954,42.322743999703356],[-72.17243400007955,42.32580600022335],[-72.16753300029855,42.33109300020518],[-72.16239300014293,42.33389200002399],[-72.16362699967905,42.336360999942755],[-72.15960799997997,42.33857600015112],[-72.1585119996378,42.34312499976528],[-72.15229399958167,42.34550499971743],[-72.14039499976987,42.3446869998219],[-72.14031500030224,42.3482329999815],[-72.13638799976636,42.34870899970848],[-72.13698600016616,42.353118000218444],[-72.13466999963325,42.35739600016965],[-72.12662700021221,42.35975000011057],[-72.12399400038521,42.36163999996423],[-72.12366700014707,42.363929999777795],[-72.04116799988614,42.30869699983992],[-71.96729100007778,42.31068200028631],[-71.939355999856,42.18923799973227],[-71.89513499987729,42.192424999815834],[-71.87580200001658,42.17011999980041],[-71.85809600005237,42.160705999801856],[-71.83492400041766,42.159829000257915],[-71.83150400004497,42.16425299993043],[-71.82595899983342,42.165820000309154],[-71.82548799965521,42.15991999995121],[-71.83448500002652,42.15725699969486],[-71.83410500008492,42.15499000028297],[-71.82485300034381,42.15533199993501],[-71.82959099991821,42.14486000028782],[-71.83194199971288,42.143775000277856],[-71.82952999981883,42.12939100030965],[-71.81795599969702,42.13326399992452],[-71.79717699968978,42.09917199984794],[-71.8092169999669,42.09536300009627],[-71.81132799956208,42.09887099971569],[-71.88150899971154,42.07589299979715],[-71.87882700037905,42.06615799973275],[-71.88204299963893,42.062620000322696],[-71.88232499967123,42.05876799982846],[-71.87992799984579,42.057834000128],[-71.88013100023538,42.05540099970485],[-71.87437099993865,42.055693000241206],[-71.87310499971719,42.0509750000266],[-71.86616000028813,42.05035700006898],[-71.86786500000244,42.047391999898075],[-71.86146000034857,42.04599199972061],[-71.85587699960385,42.03392599992669],[-71.84571199981868,42.023994000113035],[-71.80067099968231,42.02351400030542],[-71.79918799972585,42.008052999761894],[-71.59109999972756,42.013646000020174],[-71.59274800043879,42.121647999935654],[-71.57000500025114,42.139184000061704],[-71.57159100013978,42.14236700031744],[-71.57140199999388,42.15184500031451],[-71.56095400035149,42.15831500018842],[-71.56444099977298,42.16420399983076],[-71.56283899999084,42.167838999734066],[-71.55980899960551,42.167108000221646],[-71.56326900016116,42.17196999999749],[-71.56201700018337,42.178613999775294],[-71.55252500024275,42.17740799985314],[-71.5520080000338,42.17977500009863],[-71.55573800002789,42.18250300022208],[-71.53949800030172,42.18973399968185],[-71.50689400010252,42.18892700031357],[-71.50262599998308,42.1914159997568],[-71.49737799987243,42.16664300014211],[-71.47802699957006,42.165870999992656],[-71.47852200003771,42.13137799992417],[-71.4426930003578,42.135783999712565],[-71.43457200022064,42.1343270000092],[-71.43022899975814,42.139011999963984],[-71.4192210002491,42.13896800018923],[-71.42053500015116,42.13754099979271],[-71.41884499960715,42.13640199987014],[-71.41509799989463,42.13825899969464],[-71.41583299966346,42.1356340000971],[-71.41295700016222,42.13358699973272],[-71.40881600026441,42.13421300002946],[-71.40245599991806,42.13953899970396],[-71.39710300022543,42.13732299990546],[-71.38209600021048,42.135546999717704],[-71.38334499981521,42.13357200013285],[-71.38110100015065,42.132865999669164],[-71.37921800016109,42.13344099996775],[-71.379583999859,42.13576000025093],[-71.37561799986335,42.13545399982317],[-71.40229500025957,42.178793999818005],[-71.40442699977116,42.18843300014386],[-71.38476500002248,42.19201399976443],[-71.38018200025878,42.2017589996861],[-71.38820600031156,42.20430300006408],[-71.38848900016879,42.208004999726626],[-71.39170600015187,42.20974199971581],[-71.39392300005227,42.207089000123496],[-71.3973409998768,42.207888999875074],[-71.39752900019779,42.21030200017542],[-71.40358200039746,42.214286999791256],[-71.40195299995281,42.21541999988044],[-71.41002200021143,42.21874900002817],[-71.4090489998929,42.22457499971541],[-71.41253799986256,42.228170999701945],[-71.41336200021817,42.23455700016125],[-71.41725899971851,42.237888000145865],[-71.42007499984362,42.23812299998397],[-71.41830300018215,42.24650400018376],[-71.41929800024198,42.25728100013627],[-71.46075599979905,42.27906299967927],[-71.49704599961143,42.28982900002178],[-71.48594799969067,42.311228000285055],[-71.48510900016477,42.32316399968668],[-71.48679700016065,42.33018900010325],[-71.5082160004005,42.32792799994652],[-71.51652699961011,42.33033599985544],[-71.55112599995188,42.32639499982132],[-71.56908499963606,42.32037299975837],[-71.58520999973449,42.310952000206036],[-71.59736299998951,42.32101599989806],[-71.60526599966848,42.3301600000348],[-71.6035910000914,42.33167600007628],[-71.60409900007951,42.33676900023317],[-71.61755000034306,42.34196799995744],[-71.63394200040521,42.358397999786305],[-71.67779400031297,42.365154000236195],[-71.67055100005979,42.386664999958015],[-71.70101700000133,42.395808000167094],[-71.7259789997392,42.390289000017724],[-71.72157800044869,42.40923899974731],[-71.7183620002905,42.41021999998978],[-71.71869899967608,42.473374000035946],[-71.72838499978546,42.47512800016217],[-71.71674000041686,42.51897100031783],[-71.7123840004339,42.52132899985411],[-71.70223600036715,42.53389500013635],[-71.71123100019032,42.53535400002055],[-71.72041699980919,42.552329000140446],[-71.74507200029869,42.57386000015297],[-71.76294999979201,42.56392400031115],[-71.75409600043417,42.5594559999091],[-71.74776899969979,42.54993500009902],[-71.74986900032263,42.549758999905826],[-71.74967900035183,42.54520199982502],[-71.7577660001538,42.548567999943025],[-71.76036200017089,42.54762200031298],[-71.76428700015863,42.555055999945935],[-71.77134200009083,42.55924799995808],[-71.78602299969255,42.55104700013411],[-71.7986990000043,42.55259399986644],[-71.8078999996918,42.54716399995867],[-71.82128099963515,42.54653900019625],[-71.8308799997059,42.54901800022957],[-71.83712299987639,42.548550999806835],[-71.8420039995659,42.51467899968584],[-71.84736999967733,42.51470499974061],[-71.84940400017793,42.51790300013556],[-71.8568370004019,42.519083000169715],[-71.861040000224,42.516373999725275],[-71.86453099984348,42.51693299991152],[-71.87486499968307,42.50952000030627],[-71.88014999960365,42.51458200030271],[-71.89079499978784,42.5179759999084],[-71.89362099995867,42.527641999721325],[-71.89642200001516,42.53175200021672],[-71.90243900022983,42.535679000283],[-71.90849300025442,42.52655699995505],[-71.91430999955423,42.5232819999428],[-71.91855900030541,42.52577200018739],[-71.92046599968609,42.529876000305784],[-71.92625600012005,42.52320599994702],[-71.92908099956765,42.52505199981124],[-71.92969400003606,42.52894799992732],[-71.93280800008701,42.52636399984125],[-71.94847000040316,42.52448499990606],[-71.95131800031533,42.51790399993348],[-71.94979299962775,42.51188600002913],[-72.02701000034115,42.56324099990649],[-72.01499900037635,42.567942999769706],[-72.01945400009352,42.570777999946564],[-72.01599899956075,42.57365499995642],[-72.01702899978068,42.575535000294714],[-72.01936600022997,42.57670599994883],[-72.02341900026423,42.57367300009748],[-72.02669899999653,42.573265999828486],[-72.03121800018612,42.57421100015114],[-72.03111400042904,42.57594800013669],[-72.03292600027348,42.57632400030675],[-72.03172899964898,42.57833600010906],[-72.03459900020074,42.579991999991506],[-72.0379969999338,42.577070000079935],[-72.0378489997958,42.57840799986807],[-72.04202400002882,42.57979399969618],[-72.04229299964231,42.58390900009906],[-72.03880200002283,42.58648099992255],[-72.04220899997674,42.589364000196696],[-72.04181099959347,42.59197799972126],[-72.035983000423,42.59385699990687],[-72.07574899978623,42.62523500010863],[-72.11663099958311,42.62660699974899],[-72.11105899960738,42.717205999959525],[-72.8643190001918,42.737837999861625],[-72.8540339998577,42.68320700013014],[-72.85958400009216,42.683087000072895],[-72.8576869998589,42.67409000010362],[-72.85542499975267,42.664615000067855],[-72.85421499960768,42.66465200006691],[-72.85120600003704,42.64714500012937],[-72.84227300013816,42.64661399999691],[-72.84279299982185,42.63809800024483],[-72.8362009996719,42.637788999955454],[-72.8357069999275,42.63506999969202],[-72.82150599982648,42.63687699989974],[-72.77264699983249,42.65833400029411],[-72.76609200039078,42.62925999984911],[-72.73511400026317,42.6331080001873],[-72.73688900029768,42.627021000301646],[-72.74309499975992,42.62711500004038],[-72.74672099999694,42.624170999925596],[-72.74527999987326,42.61967099973336],[-72.74838399987846,42.61803799978962],[-72.75409899996933,42.620978999997675],[-72.76428200019618,42.619428000196436],[-72.78354100043704,42.621296000138884],[-72.8031100002993,42.616625000114205],[-72.8156500001686,42.61680699991243],[-72.82247999996991,42.618797999771544],[-72.83174799960456,42.616626999853366],[-72.84845400038436,42.55906900015773],[-72.87702599956737,42.55542499999396],[-72.87546099959515,42.52589700011072],[-72.87031999961464,42.52514999983722],[-72.8751550001717,42.50724900014001],[-72.87113599957432,42.48404099978089],[-72.85563300016513,42.48091999970418],[-72.84790500038835,42.436489999821454],[-72.90436400011261,42.430413999872904]]]}},{"type":"Feature","properties":{"GEOID":"2507","NAME":"Congressional District 7","BASENAME":"7","STATE":"25","CD119":"07"},"geometry":{"type":"Polygon","coordinates":[[[-71.17485000011115,42.350336999825494],[-71.16668299994325,42.34010400030232],[-71.16921700003604,42.33806800027942],[-71.16756500002516,42.33344099988507],[-71.16129500009052,42.333782999771394],[-71.15703600019192,42.330389999935655],[-71.12858299993626,42.34983300001188],[-71.1228550003249,42.35186099977746],[-71.1065700003929,42.34991200024714],[-71.10721300010024,42.347049000057645],[-71.10551599988351,42.343811999679566],[-71.11057900004623,42.340442999880736],[-71.11155900003745,42.337381000021665],[-71.11053300001548,42.33532999995024],[-71.11321199987323,42.33245800017173],[-71.11653699981136,42.32393900032137],[-71.11960700037967,42.322613999915205],[-71.11632099990129,42.321012000084835],[-71.10845199965922,42.32238900013247],[-71.10528900010281,42.319364999924694],[-71.10294400015589,42.31929800026549],[-71.11841499977803,42.293409000331856],[-71.12217200043462,42.2945559998278],[-71.12737299979128,42.28709999979271],[-71.15112399955922,42.266666000218464],[-71.1546760001764,42.26929699999342],[-71.15864299999694,42.26956600010641],[-71.16042399987924,42.26682300025484],[-71.1569369995594,42.260825000070284],[-71.1550419998743,42.261847000285506],[-71.15162300022483,42.25905899970951],[-71.15195600031076,42.260807000321414],[-71.15001499969658,42.25945400005348],[-71.15211799979416,42.25824699995161],[-71.14664200007788,42.25575500022503],[-71.14268100010513,42.235998000135524],[-71.13077100042264,42.22792599971239],[-71.11479899958678,42.21265300017697],[-71.04012000006244,42.13719399991517],[-71.03509299988472,42.1356340000971],[-71.02161999987986,42.17016599992791],[-71.019130000168,42.18685099991357],[-71.02959100022919,42.19152999987866],[-71.0472710002541,42.19459199990935],[-71.04948999980434,42.20666900000779],[-71.08272699966511,42.20429000020721],[-71.09318899955123,42.213936000304784],[-71.07664000002856,42.221119999790716],[-71.09331199957487,42.238670000063856],[-71.09350999994159,42.25691999993161],[-71.08434000021623,42.25924999993566],[-71.08120000022603,42.25837000002441],[-71.0732640000368,42.27031700029115],[-71.06813999977473,42.27099999987819],[-71.07207700035636,42.27566599986935],[-71.06650299983248,42.27790400019765],[-71.06430299965052,42.28569900021288],[-71.05534700018542,42.28824199983441],[-71.05691700018053,42.29397999990661],[-71.05917199971574,42.29440099985949],[-71.05645699987299,42.29636999969361],[-71.0590420000194,42.300333000126564],[-71.05595399990774,42.301374000282465],[-71.05350600002868,42.310493000051984],[-71.05560300027847,42.3109730002546],[-71.0560209998549,42.31286400026226],[-71.05888100036093,42.31277100013097],[-71.0593790003033,42.311038999697296],[-71.06348199966797,42.31317399992883],[-71.06001799981267,42.31473800001608],[-71.05883399960693,42.31859999998972],[-71.0616740000215,42.31838000010995],[-71.06271799958681,42.31600600002423],[-71.06874700039536,42.31859400003947],[-71.06665500016844,42.325844999736915],[-71.06100899967453,42.334781999763464],[-71.06026399985996,42.34239899979867],[-71.05814300021903,42.34564700005502],[-71.05446900030145,42.34677799979751],[-71.04959500028463,42.35449699993207],[-71.05800900032473,42.35234999980268],[-71.06423499987847,42.35339399988041],[-71.08374900038746,42.34838000004758],[-71.08751100016858,42.35555699995531],[-71.07733399978952,42.35908399972127],[-71.06947799996624,42.36904599986744],[-71.06299399977134,42.368390999949405],[-71.04909499979412,42.37119700025951],[-71.04259600042892,42.363798000288554],[-71.0458279995823,42.35722699970378],[-71.02979500044368,42.35178899990045],[-71.02836299964252,42.35409900008133],[-71.01099399996224,42.342698000015524],[-70.9750940001372,42.34349899979619],[-70.97289300013036,42.35359700009456],[-70.98559299983324,42.35679699967416],[-70.98659700011389,42.36457199973507],[-71.01036299995047,42.36503100025118],[-71.00612300031845,42.37605199971811],[-70.99669400012702,42.378741000017065],[-70.99423899967694,42.384647000203145],[-70.9866670004341,42.387072000271196],[-70.9874420003859,42.392741999678506],[-70.99381799972744,42.39292400025393],[-70.99830599995491,42.396928999867136],[-71.00586100037762,42.39389200027854],[-71.01192999957253,42.39575199971079],[-71.01127199979658,42.396589000078876],[-71.01339499998562,42.397398000066055],[-71.00939600037805,42.401183000021554],[-71.02623699997875,42.40592500025836],[-71.03318099958287,42.41420600014372],[-71.0282270000984,42.42420200002707],[-71.05047200034367,42.42288699972775],[-71.06044100031028,42.416006999673876],[-71.07329599982386,42.41479599985656],[-71.07187300014185,42.41109899992426],[-71.07374400043584,42.40867900004568],[-71.07129700038169,42.40692199987269],[-71.07598800010041,42.39970600017663],[-71.075995999598,42.39639600028284],[-71.08568699973026,42.400650999766995],[-71.09199299964995,42.39889999988484],[-71.09668900028986,42.400455000142216],[-71.10039400016957,42.396224000002235],[-71.11237400017225,42.40022600024165],[-71.11548900004809,42.40290500020192],[-71.11554099992661,42.405145000076466],[-71.12810099988742,42.41072000009131],[-71.12703999970533,42.41232799970921],[-71.12992199995269,42.41332699997918],[-71.12683899986388,42.41680200007168],[-71.12825599969811,42.41798899996276],[-71.13243500012908,42.41521600026068],[-71.13222300041697,42.40952299986469],[-71.13463500031104,42.40425900026293],[-71.12736100009569,42.39709600018704],[-71.12865400008137,42.39605700001538],[-71.13693199967905,42.39757199990754],[-71.13835899955902,42.39564500010967],[-71.14074500041212,42.395885999890126],[-71.14060700031986,42.39467999991699],[-71.14429700013096,42.39467600014587],[-71.14355700033926,42.39742800002742],[-71.15205699969478,42.40104000014331],[-71.15636199962414,42.395852000158854],[-71.14112100015575,42.39209199985471],[-71.14372399984552,42.38828399973972],[-71.1383719999778,42.38744000017063],[-71.13475800033468,42.38557199987015],[-71.13579400040238,42.384599999842564],[-71.1304099998493,42.38291800023031],[-71.13172999959916,42.38518499967788],[-71.12755799973921,42.387402000273674],[-71.12900600043386,42.39007199970462],[-71.12684899990964,42.39034199983958],[-71.1243680004186,42.39365299972506],[-71.12283799970815,42.39224200025843],[-71.1209739999852,42.393706000023464],[-71.11708499998245,42.389581000296566],[-71.11819300002018,42.388008999962224],[-71.11165600012184,42.38174899995603],[-71.11305899971235,42.380932000013246],[-71.10861400004093,42.37955199982765],[-71.10206200007397,42.37389699991644],[-71.10585900001519,42.3697500001707],[-71.10174999990441,42.36830199973544],[-71.10238699976398,42.367366999725334],[-71.10510400015488,42.36452099991319],[-71.10901599972384,42.36490800002535],[-71.1099840000195,42.36727399986201],[-71.1135120003472,42.368563999698786],[-71.11390099961132,42.364478000122325],[-71.1169209999509,42.364246000264394],[-71.1179339995541,42.36838500010301],[-71.12382699992021,42.369156999747254],[-71.12763399990718,42.37325900016523],[-71.13152499955974,42.373802000211235],[-71.13314999980643,42.37256299974189],[-71.13237300020481,42.3688910001795],[-71.13969199972765,42.364475000012334],[-71.14449200012463,42.36482200028019],[-71.14780799984193,42.361306000071394],[-71.16300800020075,42.358468999704165],[-71.16760799968289,42.36009499993178],[-71.17391600015067,42.35346500014107],[-71.17485000011115,42.350336999825494]]]}}]}