{"type":"FeatureCollection","features":[{"type":"Feature","properties":{"GEOID":"25","NAME":"Massachusetts","STATE":"25"},"geometry":{"type":"Polygon","coordinates":[[[-71.24542600027081,42.74254599973771],[-71.26787300018245,42.72602600000637],[-71.27894900036188,42.711350000114756],[-71.294636999719,42.697041999738616],[-71.69650500038276,42.70572200027061],[-72.80911300027024,42.73658099974878],[-73.26482700002443,42.74585099972671],[-73.50820999977523,42.08613399972491],[-73.49701800014317,42.0496240001605],[-73.42851499994384,42.050476000308045],[-73.03680199991786,42.03929399980414],[-72.8137839998975,42.03674400029586],[-72.81705299975913,41.997685000102855],[-72.7667330004483,42.003266000225935],[-72.76625300004928,42.00787099995701],[-72.76150100023118,42.009302000017016],[-72.76297699961664,42.01346599984035],[-72.75895000041993,42.015469000326206],[-72.76294700037771,42.01968299970212],[-72.76580600016052,42.01956800008805],[-72.76447700018984,42.02087299995016],[-72.76525200014166,42.02236600005444],[-72.76348700015288,42.02118399998345],[-72.76056700027071,42.022650000195206],[-72.75734100006677,42.02097899988133],[-72.752061999994,42.0290250003208],[-72.75255300026367,42.03124900023115],[-72.75730099988381,42.033380999723356],[-72.75589400009532,42.03634900028546],[-72.6993299998908,42.03695699988561],[-72.64019099958557,42.03204800023287],[-72.60797800009692,42.0310830001198],[-72.60716899980993,42.025148000156115],[-72.58216299969114,42.02474099975854],[-72.57277799988063,42.030219000113114],[-72.53154899975411,42.034578000228784],[-72.1431509996205,42.0305220000485],[-72.0718260003466,42.027636999679444],[-71.80067099968231,42.02351400030542],[-71.79918799972585,42.008052999761894],[-71.52770200042205,42.015094999964624],[-71.49825900012945,42.01727199988229],[-71.3814009997263,42.0187979997801],[-71.38146299965057,41.89354600001753],[-71.33878699955261,41.89859300001877],[-71.34088999965017,41.88180400016222],[-71.33403999975737,41.86260399999971],[-71.34255000005695,41.84465599971396],[-71.33541700030695,41.83564500019505],[-71.34519799995256,41.82767600010971],[-71.34754500044761,41.82324600013131],[-71.33933200024896,41.80852700022873],[-71.34048100029456,41.79703300001129],[-71.33464499982988,41.79483500015642],[-71.33274299957375,41.7901599996962],[-71.3294569999937,41.78832700008242],[-71.33039099995415,41.785381000220305],[-71.3284719999796,41.7806940001221],[-71.26106699977227,41.75208200018372],[-71.19547900033056,41.67509000022768],[-71.1757840000716,41.67149300010397],[-71.17611999963228,41.66824799991862],[-71.13255700032782,41.66036300023152],[-71.13530700033067,41.62848800000227],[-71.14018499964716,41.62386899971188],[-71.14195800003183,41.612532999683964],[-71.14030799967081,41.604849999987174],[-71.13161999999431,41.59371599989452],[-71.12243699985015,41.52207500030118],[-71.11987400034337,41.494604000320095],[-71.1211160002754,41.49278700008756],[-71.08857099962744,41.431314999762186],[-71.08503800017516,41.43346700020873],[-71.07240399969619,41.42557000002438],[-71.0534509997771,41.41695899996075],[-71.03360400008047,41.414085000185636],[-71.03991800039607,41.39825899996903],[-71.03270100008216,41.38027300007018],[-71.02610300008445,41.37169299967534],[-71.01479900029936,41.362019999807885],[-70.99074800005745,41.35128900012414],[-70.97052100041924,41.34918699995328],[-70.95575200005568,41.3501609998456],[-70.93866399968445,41.353986000286135],[-70.91839900041141,41.363033000073116],[-70.8960169998988,41.37014800019951],[-70.90186599988398,41.361770000280885],[-70.90373899982777,41.35508000006002],[-70.90381499999575,41.34672699995781],[-70.90100499971844,41.33461300016776],[-70.89772199961311,41.32741100011186],[-70.8844720000893,41.310162000040854],[-70.87002699959082,41.29706799994866],[-70.87818200006316,41.29214699974826],[-70.8856830000592,41.285066000257956],[-70.89033699996801,41.27736199993487],[-70.89359499995899,41.26799400027655],[-70.89420300040452,41.259439000267136],[-70.89245699978402,41.250112000213406],[-70.89054100018252,41.24309100020124],[-70.88497300040473,41.23378400003525],[-70.87732699974542,41.22414399978005],[-70.86634299962749,41.21539700006565],[-70.84774600025885,41.20581400009508],[-70.82364499978821,41.200648999818185],[-70.80594999969468,41.19874199974897],[-70.78358200032407,41.20121899995307],[-70.76783700016722,41.206489999841516],[-70.74947300042709,41.22017299987451],[-70.7443070003322,41.226029999885704],[-70.73475299956898,41.24626000013046],[-70.73366700017088,41.25011599986124],[-70.73484299998067,41.25923099999235],[-70.716499000332,41.26945200010747],[-70.70736200021864,41.28021800011797],[-70.70310599979479,41.28904000026538],[-70.69287400006245,41.28963899985701],[-70.68501999988898,41.29317599979951],[-70.65508700004992,41.29616499994299],[-70.57184799999729,41.300093999733605],[-70.51219900005414,41.2983130000821],[-70.49330800005932,41.279974999726306],[-70.47563499970707,41.27021999973255],[-70.45985100009048,41.26525300015181],[-70.4447579998618,41.26551300021921],[-70.42907499962924,41.268651000012596],[-70.40873300036331,41.277293999821815],[-70.39677699975178,41.273014000033214],[-70.37446600028258,41.26945799982833],[-70.34408300018171,41.27614600004654],[-70.33509000000836,41.27277899972282],[-70.31429799958232,41.26053199987948],[-70.29448400039601,41.246498999838586],[-70.28573600044506,41.242346000054624],[-70.23998200028116,41.22846300020307],[-70.21701700033567,41.21817599966451],[-70.17885100020646,41.204530999762035],[-70.10968400038341,41.18980299994938],[-70.07266599957659,41.191633999784315],[-70.05164700026815,41.19090799973593],[-70.02570200016602,41.1871019999871],[-69.99945699958992,41.188305000331056],[-69.97318199977491,41.193544999824184],[-69.95358600014848,41.19967199996319],[-69.9309529995657,41.21054299979777],[-69.91584199979366,41.22093899978936],[-69.91031900022172,41.22684899980805],[-69.8990100004138,41.245538000241524],[-69.89447199995762,41.25924000030685],[-69.89220900002648,41.27132299977177],[-69.8948850004095,41.29037200026292],[-69.9100930002659,41.31726299968095],[-69.9264400001222,41.3387940000498],[-69.94380100030489,41.36671699974946],[-69.96963400025402,41.40351100013025],[-69.98177499991519,41.41520799966954],[-70.0064670002146,41.43389800016319],[-70.02590200018257,41.44107900006128],[-70.04427199977049,41.44380100009852],[-70.06517399980139,41.442687000053425],[-70.09441200005458,41.43081000025903],[-70.1058189997718,41.419865999691474],[-70.11273399996192,41.408125999900214],[-70.1165409999489,41.39513200027849],[-70.11643999966655,41.38616499976571],[-70.11132799999835,41.370389000087],[-70.09784400012282,41.353583999864654],[-70.11933500033268,41.35263800002488],[-70.13794000009726,41.34637100018911],[-70.14869900008428,41.34521599991978],[-70.15999199999867,41.352242000244246],[-70.17490600012722,41.357290000114446],[-70.19838300025879,41.35902499972874],[-70.20829699997381,41.358024999733075],[-70.21511500007955,41.36027500002971],[-70.22162199984068,41.371769000334154],[-70.23814199994932,41.386204999772616],[-70.24768900014153,41.389890999693996],[-70.26728300011816,41.39342599999152],[-70.28321400004783,41.392885000095184],[-70.30243800012859,41.38962500001188],[-70.32359299987947,41.39160700009978],[-70.3382890004481,41.388550000217755],[-70.35308499967756,41.3814549999708],[-70.37011199994943,41.36876899972821],[-70.38344900041017,41.36993299996047],[-70.38069299966122,41.38536099973349],[-70.38080700036234,41.41199600021507],[-70.38587399982471,41.43372100007348],[-70.39289199994698,41.44548000023978],[-70.40592800010886,41.457013000083855],[-70.42108699956147,41.46441599983755],[-70.43644900030199,41.46891900027624],[-70.4639500001555,41.468000000276376],[-70.48968900039331,41.462976999927726],[-70.49494199962851,41.479632000227596],[-70.49947199968875,41.488232999719585],[-70.50860299995436,41.49896499984115],[-70.49820899984032,41.50256499980461],[-70.48974000044693,41.50185600015254],[-70.4664359996694,41.50615999968139],[-70.4485670003969,41.51309299975788],[-70.42389600001387,41.52873199990041],[-70.39516400009896,41.556722000293554],[-70.36420600006284,41.56219599999248],[-70.34633699989203,41.5684529996758],[-70.33154900016018,41.56789800016135],[-70.3112539998516,41.57106199980687],[-70.28996500020642,41.56163900016183],[-70.27889800024782,41.55931599982745],[-70.267428999708,41.558372999881875],[-70.24946300035113,41.56014599985545],[-70.22555799969908,41.56856099989176],[-70.20804000005585,41.58415000006347],[-70.18149999992697,41.593546999693345],[-70.16035699987165,41.59936999990629],[-70.13849099974307,41.59869200004058],[-70.12695199978138,41.600202999939164],[-70.07793399977872,41.61252800008509],[-70.06856900005971,41.61069699990041],[-70.06804600000298,41.602953999822084],[-70.0633519999112,41.59017299988579],[-70.07358600019165,41.57770800000789],[-70.08031600043387,41.56445400015246],[-70.10202900040157,41.55635200007176],[-70.11671900022414,41.54499300008047],[-70.12255899998848,41.53783300009322],[-70.12855399956352,41.52473200014841],[-70.12667700032009,41.503698000041595],[-70.12259499997349,41.49449899995598],[-70.1143940003687,41.48408299977197],[-70.10150799999467,41.474443999858664],[-70.08490400022043,41.46749300028061],[-70.07374199982728,41.465020000307334],[-70.05543699963837,41.464109999866395],[-70.04031300034586,41.465959999788055],[-70.02367699988625,41.47194799968611],[-70.01386199990543,41.477438999974595],[-69.99945800031315,41.49052699994892],[-69.99816899962713,41.493398999687365],[-69.97128899973963,41.498872000060466],[-69.95817200028523,41.50465999993321],[-69.94661300023205,41.512152000201745],[-69.93640099969288,41.52193600031961],[-69.92899400030647,41.53215199999615],[-69.9246319995774,41.54464599984455],[-69.92134500017242,41.56228199974484],[-69.92151699970157,41.57090000031026],[-69.91539900010287,41.58924300019492],[-69.89856199980181,41.606096000187904],[-69.89166199968031,41.61718600010071],[-69.88901200013487,41.625195999813336],[-69.87445899968135,41.64502600009279],[-69.8681250001726,41.65679099971215],[-69.86287600023704,41.67315300024138],[-69.86053999961264,41.69232599984617],[-69.85895000042437,41.70691599979195],[-69.85913000034942,41.73649999975626],[-69.8600579995638,41.75850299996173],[-69.86559500027775,41.790979999687984],[-69.86652500004027,41.81701099973051],[-69.87237900004833,41.8315860002394],[-69.88001800013662,41.861978000272444],[-69.89530499963574,41.90675300003654],[-69.9091779996737,41.942062000111335],[-69.91770600041495,41.959246999731256],[-69.92910899993421,41.97847599981154],[-69.94820999999133,42.00010599967334],[-69.96948199991806,42.02925400025819],[-69.9962789999649,42.059687000053096],[-70.01159099957839,42.073377999887924],[-70.04030199957688,42.0916340002055],[-70.06709799979882,42.10532699979471],[-70.12069100006754,42.125101000256315],[-70.17254199991375,42.134515000135266],[-70.1953999997291,42.13154900014282],[-70.20622099964041,42.13305400013493],[-70.22917499971526,42.13118899984665],[-70.24947199967366,42.12692599989179],[-70.27743000035997,42.114345000049525],[-70.60838100038221,42.13847900005962],[-70.64294600038878,42.178184999782374],[-70.6363299999494,42.20290300005667],[-70.6363299999494,42.21638599999784],[-70.64011299964693,42.228371999944464],[-70.64862200012159,42.23736000001761],[-70.68406099981416,42.253836000176186],[-70.68870399985231,42.263468000063604],[-70.6903929996731,42.2789989998625],[-70.6062899999802,42.53122000026482],[-70.58270900009155,42.553003999710064],[-70.54537399999066,42.57011900005886],[-70.52179300010201,42.5934590003015],[-70.51196800007546,42.60590700032805],[-70.5021430000489,42.624578999720114],[-70.5021430000489,42.635471000144165],[-70.51393399990567,42.68059400024674],[-70.52965499977309,42.7070479999741],[-70.5493059996511,42.72416400009981],[-70.62594300040637,42.73972399985762],[-70.64166400027376,42.73972300031748],[-70.66131400032687,42.73660999975247],[-70.68293000021019,42.72883000017155],[-70.70258000026332,42.72416199985789],[-70.71432400026443,42.731911000126566],[-70.71927000025129,42.75009499979276],[-70.72584800015751,42.75901999983424],[-70.73183900043291,42.778356999795996],[-70.7372249997375,42.7879559998839],[-70.73365499957698,42.80365900005825],[-70.7348739999428,42.82447699990263],[-70.73903800030517,42.83581800019123],[-70.74552199960175,42.84444299999096],[-70.74882999982145,42.85883099975284],[-70.73500500036238,42.87468500021481],[-70.82023799983433,42.871786999801124],[-70.84771799977145,42.860866999724095],[-70.88560199986836,42.88283399989744],[-70.90353299996345,42.886778000316056],[-70.92959400041653,42.88503199993913],[-70.9670180002059,42.86880000016689],[-71.03120100040726,42.8590869998415],[-71.0449199995611,42.8486669999432],[-71.05400499979596,42.83328199971637],[-71.06441599962844,42.80627499979891],[-71.13280500002493,42.8214759998798],[-71.16664699995823,42.808881000230166],[-71.18613999965251,42.79093500010305],[-71.18178600021767,42.73734100016633],[-71.22382999958064,42.74648399979196],[-71.24542600027081,42.74254599973771]]]}}]}