{"type":"FeatureCollection","features":[{"type":"Feature","properties":{"GEOID":"2403","NAME":"Congressional District 3","BASENAME":"3","STATE":"24","CD119":"03"},"geometry":{"type":"Polygon","coordinates":[[[-77.18711300033358,39.34059500000322],[-77.18148899958098,39.32929400018692],[-77.17327600028064,39.32048100023343],[-77.17034700017763,39.31310900015879],[-77.16636100009052,39.311764999711606],[-77.16459000025397,39.30744400000848],[-77.1623330001706,39.30792199973086],[-77.15977399996345,39.3048959999802],[-77.14912499958129,39.29928799986776],[-77.14359399961342,39.29303200034659],[-77.140058999613,39.29209500002215],[-77.14019500005544,39.28928400029533],[-77.13787500022289,39.288091000269404],[-77.13996900009964,39.28309599996943],[-77.13405900001509,39.27656900006751],[-77.1336509995861,39.270542000119455],[-77.13026500044691,39.26827600014053],[-77.11670100020544,39.26746399967245],[-77.113791000369,39.26453800024828],[-77.10575100042271,39.2643090001457],[-77.10383999994576,39.26599900004756],[-77.0972600003897,39.26475799980313],[-77.07145599985458,39.25500799965965],[-77.06218800021993,39.247325000096794],[-77.06069699986756,39.24296500010206],[-77.06152500042111,39.24127100034171],[-77.05590999988935,39.23832600010036],[-77.04481199996863,39.23766600032061],[-77.03207399973257,39.224405000123284],[-77.03232499980277,39.22031699971926],[-77.01929299983884,39.21292000005231],[-77.01756999968286,39.209750999834746],[-77.00942000013171,39.20673200004773],[-77.01216500011171,39.19518100001285],[-77.00497399973706,39.19331600020302],[-77.00402200023325,39.19110599981464],[-77.00841800039917,39.18156999972718],[-76.9988579997882,39.17772500001535],[-77.00535700005169,39.17628800031681],[-77.00461300006204,39.174522999729554],[-76.99752600034279,39.17446999972944],[-77.00152800032342,39.17038100025953],[-76.99716599959434,39.16639700013483],[-76.98754099958434,39.16638499982923],[-76.97334200003145,39.16207499979347],[-76.9767380001147,39.15401899971077],[-76.97542500003755,39.14958100017305],[-76.96504799964194,39.14859600021434],[-76.96297300003178,39.145840000034234],[-76.95914199975535,39.14512999993657],[-76.95169400036107,39.14620700010201],[-76.95014500028238,39.143505999657414],[-76.95288100004154,39.142762999982025],[-76.95306699981437,39.13897000003569],[-76.95851699959137,39.13402300000064],[-76.94674900019913,39.12940700016245],[-76.94369200004961,39.132105000299724],[-76.93827800025763,39.132779000074976],[-76.93341500011145,39.13660399976503],[-76.92821200020664,39.13825300001457],[-76.92643799999703,39.13530600001717],[-76.91847199967059,39.13171599986303],[-76.91544700020643,39.12679799982306],[-76.90673100004251,39.125403000030204],[-76.89872299988328,39.12650499982317],[-76.88913700023133,39.13114800026173],[-76.88565599975927,39.13129199995621],[-76.88431500009303,39.126884999719124],[-76.87010899996913,39.11271199985394],[-76.8628769995866,39.110327000174216],[-76.8490839999146,39.10909700010699],[-76.84158999959124,39.10586099971668],[-76.84036199990291,39.10314200011771],[-76.82817699986083,39.107984000330525],[-76.8255690001482,39.11585500028248],[-76.82195399978184,39.11905300011737],[-76.8124810001078,39.122655999870496],[-76.79886499998779,39.12232999982406],[-76.79082500004148,39.12528600023051],[-76.78587800022972,39.13049599991538],[-76.78312099965585,39.14289500017651],[-76.77696200004928,39.15088300011457],[-76.76987500033002,39.14654900020995],[-76.76721499984052,39.15029700008917],[-76.76273900020695,39.146124000018744],[-76.76358299975574,39.14284400028904],[-76.75544499990015,39.140055000335906],[-76.75930899978853,39.132563999683214],[-76.75726900033845,39.1309370002599],[-76.75742199960102,39.12669199965224],[-76.75207099955821,39.12703199977999],[-76.7492250001942,39.12977300022076],[-76.744029999787,39.12889300026601],[-76.74543400010076,39.12593199990904],[-76.74003600020228,39.12616199988974],[-76.73828600028213,39.13049499996044],[-76.73574799999136,39.12816300022687],[-76.73263099956739,39.128632000030876],[-76.72857800043143,39.12468999999771],[-76.72641099986144,39.125354000072235],[-76.72070699964121,39.12309300028108],[-76.71711899993734,39.120826999937734],[-76.71916099993557,39.12039200030282],[-76.71500300031931,39.11420599971984],[-76.71959799977857,39.11092199970283],[-76.71196399971313,39.112030000091714],[-76.70760500025543,39.10985400018779],[-76.70831800028296,39.10811100022391],[-76.70469100022103,39.11195199984547],[-76.69970500005121,39.10767499987579],[-76.701209999749,39.10189199990052],[-76.69444400042009,39.10077499987312],[-76.68931299958699,39.09646500022052],[-76.68554099976012,39.101980999901016],[-76.68171899970454,39.0928129996903],[-76.67696299968848,39.08760100006071],[-76.67538600002068,39.07972000019077],[-76.66175200035734,39.07528000002799],[-76.66554000007773,39.07066000002527],[-76.65787500005017,39.07019200021671],[-76.65589599980115,39.06858799990825],[-76.65228899983072,39.06958100025187],[-76.64880200040919,39.067216999725986],[-76.65111700021887,39.06707700015833],[-76.65081000007221,39.064780999853056],[-76.65366300000723,39.06065300007452],[-76.65695699998322,39.06064599973087],[-76.65486599958122,39.05914800019527],[-76.66954200005839,39.04352599994593],[-76.65452699964749,39.03661700006586],[-76.65045699989479,39.027762000016494],[-76.6580750000667,39.02327399996941],[-76.65404200012392,39.023184999789756],[-76.64781300019713,39.01914100017226],[-76.6412710002759,39.010763999828974],[-76.63886100003168,39.00373899999758],[-76.62501599958283,38.98836500023214],[-76.61210400016782,38.98331100012276],[-76.60886399972019,38.98608999968768],[-76.60808000044587,38.9833740002221],[-76.60404900015291,38.98039200015297],[-76.60098100013275,38.970579999859126],[-76.59373100020684,38.96198300003787],[-76.58773300025877,38.962671999764794],[-76.57567600026321,38.95618699978788],[-76.55502299975433,38.9514520001184],[-76.54427299998815,38.94729400005647],[-76.49338100021679,38.91281299969298],[-76.44437800028274,38.886913999654055],[-76.4235780003591,38.87951400028626],[-76.41697799981326,38.908813000033945],[-76.40357900032653,38.94521299981444],[-76.38676700013984,38.97362600017699],[-76.36748799980748,39.00011100006869],[-76.35328900025462,39.04569399985599],[-76.35173000013017,39.05623199975767],[-76.3548430003562,39.125110999833886],[-76.3494789998946,39.15662300005969],[-76.37467900018214,39.15978699980907],[-76.51448400008913,39.20240599968229],[-76.52948600008122,39.21840799973261],[-76.52978499983195,39.20990699999214],[-76.55008599998831,39.197207000187646],[-76.56739600011738,39.20211699973283],[-76.58407699988454,39.20792100008887],[-76.61164899988316,39.23436199995808],[-76.61861199975387,39.23739799991948],[-76.63152700044023,39.22386099983494],[-76.6394040001799,39.2240290001693],[-76.64721899999529,39.22903599966886],[-76.66364299984447,39.23084100010824],[-76.66991500032728,39.228429999840124],[-76.68017700019684,39.22016299986765],[-76.68839299987025,39.221299999948975],[-76.69283300041711,39.219770000224685],[-76.69693199958382,39.21718299982629],[-76.69623000032526,39.2147929998368],[-76.69635699964854,39.21429499976504],[-76.70078600032477,39.21311200009886],[-76.70518400014055,39.21554800034368],[-76.70644600016405,39.2211739997088],[-76.7130950002154,39.221722000144545],[-76.71681799963848,39.225343000245566],[-76.7219650003651,39.226255000040524],[-76.72456700022997,39.22861099975025],[-76.74006999963915,39.23239899990286],[-76.75428300033404,39.246258999715444],[-76.75717599955371,39.24749599965559],[-76.7636000003725,39.246373000272854],[-76.76494500023668,39.24852000004683],[-76.76402100032196,39.2514780001298],[-76.76892999960059,39.252650000209066],[-76.77354099985168,39.256204999965824],[-76.78013700019959,39.25715999989539],[-76.79438799963098,39.26640400009885],[-76.79452900009629,39.270131000002124],[-76.78979399999665,39.27318499985317],[-76.78516600002712,39.28285500014032],[-76.78518199992062,39.29184500007668],[-76.77845400022657,39.295304000070715],[-76.77891600018394,39.29705099975668],[-76.78703399994802,39.29992399984883],[-76.79031500040354,39.3034419999764],[-76.79580000034065,39.30373399979943],[-76.79659700003376,39.30565900021283],[-76.79394599976511,39.30683399988174],[-76.79248399972505,39.31113600005508],[-76.7946000002414,39.31423199982371],[-76.80451800015437,39.316732999953764],[-76.8101300003131,39.31523700025301],[-76.81405399957762,39.31800600032113],[-76.81743399976733,39.313129000117364],[-76.82487000036437,39.31934899967451],[-76.82933299957914,39.317204000307626],[-76.8335680000866,39.3115140003454],[-76.83557900012268,39.31208000027562],[-76.83534200029622,39.31572499986513],[-76.84045599961424,39.3154779998275],[-76.84427699984492,39.31833299994628],[-76.85116799974558,39.315935000328345],[-76.85408000013017,39.31785100017741],[-76.85543900023806,39.32322400002589],[-76.86279600029407,39.3300790002655],[-76.87504099971228,39.33215399994234],[-76.87836999984837,39.33645399991366],[-76.87519700024622,39.33764599985168],[-76.87529699980533,39.34010799997073],[-76.87825299967251,39.342420000306554],[-76.88333400027689,39.35148599976747],[-76.88609699980022,39.352552000103735],[-76.88671399956829,39.35061300016288],[-76.88902900027628,39.353804999869354],[-76.89790100007579,39.35163000007224],[-76.90132300009829,39.3541839997172],[-76.90557100012624,39.35422000016762],[-76.90888000017083,39.35265299997505],[-76.90800099956364,39.349382000061404],[-76.90957700030484,39.34846300016543],[-76.91291499976344,39.35096799994141],[-76.91828800044587,39.35085599998101],[-76.929251999574,39.35392499986579],[-76.93740700004635,39.35884799991098],[-76.94137399986688,39.35747199975835],[-76.94642899963368,39.36103900029481],[-76.95072500024051,39.35961700023318],[-76.9504840002161,39.35779400001328],[-76.95974099998008,39.35659400027146],[-76.96449699999613,39.361433999959104],[-76.96961000038755,39.36402600003912],[-76.97458899998637,39.36120200031443],[-76.98338299996809,39.36285300017491],[-76.99215299966035,39.359806000195015],[-76.99491899955673,39.36584599989639],[-76.98619400007031,39.37679699978681],[-76.98530399959247,39.38197299978177],[-76.97260300006468,39.41083199992027],[-76.98174900039886,39.41482600011253],[-76.97814499990318,39.41709200019913],[-76.97615099958554,39.42148199973719],[-76.98345300028828,39.42272200030374],[-76.99361499970041,39.42754400028647],[-76.99613899974747,39.42286800001675],[-77.01034300022152,39.43381399989555],[-77.04774100007162,39.44372000029495],[-77.07142499989243,39.42494500025809],[-77.07168099998547,39.41822599970747],[-77.07532399994092,39.40514600033039],[-77.09047999991878,39.41235799984578],[-77.09998699992803,39.41485299990397],[-77.10774700039016,39.42032000002787],[-77.1341939997343,39.43169000012663],[-77.14803699963502,39.417755000113644],[-77.14740099960039,39.40913600009563],[-77.15438399956257,39.391297999932426],[-77.15640399981946,39.37797299984489],[-77.15919099963226,39.37409399988144],[-77.15818499970177,39.37345100023437],[-77.16472300032335,39.36767399995936],[-77.16709599985933,39.35859999989489],[-77.16973399970921,39.35510199985226],[-77.16808000004852,39.35395700015418],[-77.18381000013675,39.34545899976478],[-77.18711300033358,39.34059500000322]]]}},{"type":"Feature","properties":{"GEOID":"2401","NAME":"Congressional District 1","BASENAME":"1","STATE":"24","CD119":"01"},"geometry":{"type":"Polygon","coordinates":[[[-76.69876299969482,39.718375000221805],[-76.69014000031565,39.714145999748645],[-76.68930199971635,39.7101630002198],[-76.68314499975958,39.70509200019896],[-76.67627200030057,39.702234999960204],[-76.6776539999747,39.6987849998154],[-76.6671419998599,39.69283600009406],[-76.66770500009957,39.68892999987129],[-76.67115499971118,39.68769400015766],[-76.67116099955896,39.68639700018935],[-76.665826000308,39.68401200028753],[-76.66551099976542,39.68122499998176],[-76.66709199963117,39.675961999810966],[-76.67510499981329,39.67331499992047],[-76.67398099988203,39.66818899996431],[-76.67090500036424,39.66445400012355],[-76.67543200005143,39.66002999972419],[-76.66796000036771,39.657716999891285],[-76.66479699991297,39.66031700005943],[-76.66245799981385,39.654154000233795],[-76.6617720004488,39.646008000186654],[-76.65564999975385,39.6473009996954],[-76.65815000040979,39.64426500015578],[-76.65791699988297,39.64199800020603],[-76.66084099996309,39.64043099986906],[-76.66175599965698,39.63642700023155],[-76.65667499995092,39.61944699967857],[-76.65941300025821,39.614808000170925],[-76.65645999986576,39.61409400018055],[-76.65486599958122,39.61629800005179],[-76.652098000035,39.614259999678126],[-76.65219000009651,39.617894000103966],[-76.64949799981997,39.61782700001193],[-76.64444700025113,39.60839700034572],[-76.64159199976795,39.606102999856446],[-76.63903799958369,39.60600500010325],[-76.63502599955731,39.609132999873],[-76.62777800017957,39.60243399982792],[-76.62138299967313,39.59300699975523],[-76.61111599978068,39.58469099970218],[-76.61423599967941,39.582145000153304],[-76.62001100004473,39.58452299982827],[-76.62137799965025,39.58367299991798],[-76.61648299971702,39.57720099973234],[-76.6239290003598,39.575484000271665],[-76.62307599969188,39.57314900001405],[-76.61119199994867,39.571986999900716],[-76.60977000009159,39.570505000130744],[-76.61106200025233,39.56535199989832],[-76.60819099987565,39.561259999840004],[-76.59923899971018,39.555990999748275],[-76.60333199992743,39.551480999788716],[-76.60985200010735,39.54860000027431],[-76.61585400025339,39.537260000161496],[-76.61659999989288,39.53384000032421],[-76.61374600013295,39.52734799999179],[-76.61809399971999,39.51869199982834],[-76.61515100027161,39.515902000033385],[-76.61592100020054,39.51077599982224],[-76.61321100038066,39.505912999719996],[-76.5959029999014,39.50960000013848],[-76.58957799971516,39.51239200018464],[-76.58797799958282,39.51094899991552],[-76.58155200001256,39.51095499967465],[-76.57381400019005,39.512428000063196],[-76.56899700007465,39.509429000346145],[-76.56968800036086,39.50777399982153],[-76.56846700034522,39.506980999754],[-76.5724729996255,39.50609500006056],[-76.56983700032377,39.49656899967405],[-76.55928400020106,39.49624299974692],[-76.56017700015366,39.49493300024509],[-76.55843599955602,39.49399500020588],[-76.55804999976664,39.49068800009303],[-76.55307100016783,39.487398000169776],[-76.54636199984202,39.48965700022988],[-76.5417489999411,39.48462000002072],[-76.54149100019823,39.48160999987354],[-76.5384059995613,39.480198999692576],[-76.54120400014307,39.47369799979692],[-76.54391899998582,39.471532000223185],[-76.54627300015356,39.46426100015592],[-76.54818899975508,39.46360600011583],[-76.55218999991081,39.45500599990037],[-76.55728999988344,39.44930600017616],[-76.5564620002282,39.44717900017278],[-76.55830900023273,39.44477399980379],[-76.55826800022484,39.43958799986923],[-76.5487190003828,39.436482999877015],[-76.54666399996582,39.43398099981614],[-76.54734100000833,39.432930999964164],[-76.54517500016156,39.43218600028819],[-76.54431599964586,39.4257279998186],[-76.53723200029965,39.421601999995055],[-76.53074899992966,39.423986000228865],[-76.52607699957919,39.42906099988227],[-76.51817999974803,39.431693000303305],[-76.51235099985433,39.42489599978126],[-76.50821800035243,39.423322999903085],[-76.49755300007675,39.42061200018978],[-76.4932489999723,39.42400499974541],[-76.48680999998324,39.420223000162046],[-76.47600499996547,39.420902999840024],[-76.47301999978598,39.419554000116015],[-76.47795599972707,39.41264199993328],[-76.47045100043138,39.4114539997151],[-76.46867300002384,39.415418999987786],[-76.45566899964902,39.40735999976422],[-76.46347000011903,39.40100499993955],[-76.46669499959974,39.39537300032637],[-76.46220600044568,39.39322900032485],[-76.46162999978719,39.39180699974394],[-76.46365300041714,39.39082899977757],[-76.46236799992907,39.386013000192875],[-76.44577500002549,39.38233299978113],[-76.43890099984324,39.38876999992565],[-76.42320300044038,39.376243999900744],[-76.4160949999064,39.37528600010648],[-76.4061669999477,39.36770400009854],[-76.42247199997118,39.36590799980179],[-76.42530399998982,39.36106300032584],[-76.43566999961645,39.353500999696784],[-76.42691300034298,39.34641900026007],[-76.42813199981049,39.343815999770335],[-76.4191570000788,39.343262999936556],[-76.41658899965081,39.341315000307446],[-76.40930100009011,39.34154699999126],[-76.3874829996421,39.348952999904185],[-76.37314799964678,39.3581699998864],[-76.36688399955992,39.35482000008187],[-76.36748299978461,39.35319600002691],[-76.36169300024898,39.350912999927466],[-76.36003100019238,39.353654000200265],[-76.36153500006523,39.35621700003573],[-76.36426800034967,39.356308000111234],[-76.36191400018193,39.35671300013161],[-76.36258500037665,39.35793099987446],[-76.36234500017714,39.35871999999022],[-76.3588350002911,39.35396699985063],[-76.35964299985486,39.35181499969058],[-76.35637300016832,39.35167200004735],[-76.35816099972331,39.35109699976634],[-76.35820699975407,39.34679300021234],[-76.35552200004852,39.34442200031987],[-76.35271400031935,39.345983000222354],[-76.35551100017788,39.33536499998016],[-76.35435000043668,39.3344860001132],[-76.34728000043587,39.33790699985362],[-76.33287900031831,39.33070699995919],[-76.32237899989906,39.32810699991611],[-76.31557900023498,39.33280700032038],[-76.31627899984372,39.32990700014004],[-76.30657900038895,39.31010699965403],[-76.30817899962297,39.3074070002719],[-76.31427899967831,39.304007000281764],[-76.32337899998178,39.30280700026758],[-76.3318790002356,39.2986070001779],[-76.33807899985007,39.292806999831484],[-76.34427900036283,39.282506999991455],[-76.28768900021902,39.254104000241114],[-76.3211129996776,39.21983699985364],[-76.3323589997363,39.204357000336564],[-76.3458400001371,39.17054299988328],[-76.35301999974278,39.14046500025732],[-76.3548430003562,39.125110999833886],[-76.35173000013017,39.05623199975767],[-76.35328900025462,39.04569399985599],[-76.36748799980748,39.00011100006869],[-76.38676700013984,38.97362600017699],[-76.40357900032653,38.94521299981444],[-76.41697799981326,38.908813000033945],[-76.42957700013211,38.85491500025825],[-76.43377699958116,38.814017000316376],[-76.45501300042122,38.750115999818796],[-76.46394600032009,38.70969599975211],[-76.42630400007252,38.50806400016107],[-76.41745700038736,38.491715000196365],[-76.33633099957973,38.387965999696725],[-76.31541400037854,38.29979699983864],[-76.20147699968247,38.07730800023961],[-76.23645799961562,37.886604999729734],[-76.12466099972536,37.92870799990045],[-76.0520209998262,37.953577999979046],[-75.99333799963055,37.95348700006331],[-75.94369299981409,37.946132999695166],[-75.95267199974374,37.90682699975086],[-75.88293900020626,37.91133500000944],[-75.8012400000115,37.912174000344],[-75.76164199997943,37.941365999764386],[-75.70463400025922,37.95469799995367],[-75.6913210000879,37.955496000035744],[-75.66529999981779,37.94951100026231],[-75.65568099965557,37.94543299979535],[-75.64770000015882,37.94696300029594],[-75.64822800023842,37.96677099985753],[-75.63822199956357,37.97939499989824],[-75.63573500022476,37.97953400030592],[-75.63200799970542,37.97601799988599],[-75.62953200023725,37.975962999979146],[-75.62885299964661,37.97779499990651],[-75.63383200014373,37.984517000154504],[-75.63086799988062,37.98781600032202],[-75.62561100044746,37.98979800029144],[-75.62444899998306,37.9941949998984],[-75.24960900024313,38.026715000081225],[-75.1664349995895,38.027834000070314],[-75.13520000044225,38.074469000135615],[-75.12462499967994,38.09390100000776],[-75.08781299963574,38.18935600021897],[-75.04145699977242,38.28700899973378],[-75.03129500036027,38.29473699966347],[-75.02080499998678,38.30975599977982],[-75.01909500024959,38.321424999975875],[-74.99962500012154,38.37166800021313],[-74.99962500012154,38.382970999917596],[-74.99334699979096,38.406447000228184],[-74.98628199981302,38.45163199977536],[-75.41088000024563,38.45229699973865],[-75.69367000023277,38.46007999979123],[-75.78863499984486,39.64956800009284],[-75.7885960003851,39.72219899970666],[-76.69689399994898,39.72110199983774],[-76.69876299969482,39.718375000221805]]]}},{"type":"Feature","properties":{"GEOID":"2408","NAME":"Congressional District 8","BASENAME":"8","STATE":"24","CD119":"08"},"geometry":{"type":"Polygon","coordinates":[[[-77.34377800010783,39.10237099967469],[-77.34184400006467,39.09542400024995],[-77.3361509997151,39.08839600026749],[-77.32917000030106,39.0911099998376],[-77.32945200033336,39.08757400017521],[-77.33419699958046,39.085159000148366],[-77.3362419999517,39.080753000046826],[-77.34146800032104,39.078067000202594],[-77.3421079996553,39.06292599993935],[-77.33424400033442,39.06133000034045],[-77.33355100039839,39.059390000168044],[-77.31973000023896,39.053383999784806],[-77.30466200012464,39.051370000174245],[-77.29190899981998,39.04584899986068],[-77.27503700025714,39.03428400018716],[-77.25474600014653,39.02973299980363],[-77.2463170000378,39.0246809998502],[-77.24537999970428,39.017531000017186],[-77.2532589999921,39.00915799993006],[-77.2557649995975,39.001883000261635],[-77.25294000014988,38.99545099994894],[-77.24861400030413,38.99262399976577],[-77.24502999989993,38.98268400010231],[-77.23995000001877,38.98075399970999],[-77.23519599965253,38.976080000250604],[-77.23232799964889,38.979288000094414],[-77.22995000009003,38.97970900028319],[-77.22374899975235,38.972119999666674],[-77.21152000022765,38.96934399977396],[-77.20813800038812,38.97024700028906],[-77.20069199974535,38.96726099987188],[-77.18125400030264,38.96877900005888],[-77.16980200037959,38.96631500007514],[-77.16435000005443,38.967715999714954],[-77.14730299969109,38.96448599974185],[-77.13532400041167,38.95360100000991],[-77.12840599984848,38.941095999803],[-77.11975900017987,38.934343000278616],[-77.04088199995799,38.99584500030949],[-77.00355500025302,38.96654799986872],[-76.99418299996299,38.975291000010095],[-76.98675099956391,38.977149000273634],[-76.98478700028183,38.98718199971734],[-76.99109800022437,38.992405000133886],[-76.96687100025537,39.02356099995824],[-76.9673320003878,39.02466200010527],[-76.94564000033648,39.054575999704355],[-76.95529899978337,39.06054299987466],[-76.96269600002233,39.06262400028229],[-76.94824700022421,39.082968000211295],[-76.954512000136,39.08628999981051],[-76.9641639999102,39.08816099974475],[-76.96923000044596,39.095218000111224],[-76.96501900022794,39.09798400003676],[-76.96317999972102,39.1012610000666],[-76.96214899967616,39.11608400024694],[-76.98064399983588,39.11815999975147],[-76.98885600020962,39.12114900031666],[-76.98989099955412,39.12629599987764],[-76.98739599981938,39.12792499988069],[-76.99052400011402,39.12738800034379],[-76.99600200037844,39.13962999995321],[-76.99210300032993,39.13969399988636],[-76.99176699987098,39.1373780001016],[-76.98861600001011,39.138713000270066],[-76.98043799997154,39.13763400000943],[-76.97200700021301,39.14195600021949],[-76.966445000283,39.14298199969434],[-76.96297300003178,39.145840000034234],[-76.96504799964194,39.14859600021434],[-76.97560599978752,39.14974699975147],[-76.9767380001147,39.15401899971077],[-76.97347000007798,39.1621569996683],[-76.98754099958434,39.16638499982923],[-76.99716599959434,39.16639700013483],[-77.00126899985734,39.16985799992459],[-76.99752600034279,39.17446999972944],[-77.00434100007546,39.17427599986139],[-77.00552600010612,39.17614100004527],[-76.99887600022984,39.17779999989534],[-77.00846299970672,39.18174299988609],[-77.00432900037991,39.18925700031255],[-77.00416799982311,39.192334999746386],[-77.01216500011171,39.19518100001285],[-77.00942000013171,39.20673200004773],[-77.01756999968286,39.209750999834746],[-77.01929299983884,39.21292000005231],[-77.03232499980277,39.22031699971926],[-77.03207399973257,39.224405000123284],[-77.04481199996863,39.23766600032061],[-77.05590999988935,39.23832600010036],[-77.06152500042111,39.24127100034171],[-77.06069699986756,39.24296500010206],[-77.06218800021993,39.247325000096794],[-77.07145599985458,39.25500799965965],[-77.0972600003897,39.26475799980313],[-77.10383999994576,39.26599900004756],[-77.10575100042271,39.2643090001457],[-77.11080899966424,39.26413799985754],[-77.1150159996843,39.265174000070914],[-77.11699400010839,39.26753500003224],[-77.13058699976385,39.26841200005282],[-77.1342070001531,39.271045999764766],[-77.13405900001509,39.27656900006751],[-77.13996900009964,39.28309599996943],[-77.13788600009356,39.288151999820805],[-77.14019500005544,39.28928400029533],[-77.140058999613,39.29209500002215],[-77.1446690000392,39.29470700014826],[-77.15744699955988,39.28969899979289],[-77.16292499982428,39.289703000288696],[-77.16996700023603,39.28451100008061],[-77.17237800030517,39.284628999714],[-77.17652800042382,39.27487099994832],[-77.17092799996068,39.27181999996086],[-77.17259900023812,39.268908999901285],[-77.16833399959341,39.2662009999621],[-77.16706800027026,39.267368000345094],[-77.16282000024232,39.265575000233895],[-77.16435900027527,39.26213100003279],[-77.16243000025496,39.26004399985145],[-77.16505499968605,39.25722099994786],[-77.16400899957259,39.253501000084555],[-77.17267600023101,39.24449099965784],[-77.17245399957486,39.241081000331455],[-77.17400299965354,39.23918099975467],[-77.18044199964261,39.236526000055605],[-77.18631400009232,39.229305999884815],[-77.1963879996409,39.2270659997207],[-77.19937100017057,39.22306000031736],[-77.20252899970413,39.22332299967078],[-77.20225500006775,39.22111100019989],[-77.20606899972742,39.22017199982309],[-77.20531399986709,39.2176620003307],[-77.21045599967253,39.217018000162795],[-77.20369700001635,39.212638000076204],[-77.20710700034326,39.20874400001549],[-77.20323900025693,39.203520999973556],[-77.20343000005263,39.19963800034219],[-77.1969519997055,39.19651399985674],[-77.19195700021316,39.19061699984044],[-77.19772400018257,39.18743199990562],[-77.19888300027395,39.183336000172766],[-77.1984509995555,39.186828999816164],[-77.19978999957192,39.187248000136954],[-77.2039480000865,39.185119000087234],[-77.21096799985861,39.18432599989212],[-77.21002200020258,39.17630600032892],[-77.20829700039677,39.174094999875145],[-77.20347299971034,39.17451900032223],[-77.20359800028214,39.17259900017178],[-77.1906430003111,39.16944500031136],[-77.19177800011302,39.16590499985538],[-77.19479000005671,39.16472399987599],[-77.19642600017404,39.168268000336255],[-77.19776000016759,39.16750200011717],[-77.1967740003286,39.16050999984811],[-77.18330499962337,39.15897100007403],[-77.1804550000614,39.156596999729445],[-77.1809680000724,39.15396400034121],[-77.17424000037832,39.153789000161424],[-77.17210299994557,39.1518780001058],[-77.17247500038957,39.14999299969917],[-77.1740550004304,39.15060000019322],[-77.17113200017518,39.14803599997556],[-77.17836399965938,39.14674899965787],[-77.17882399996694,39.140437999717385],[-77.18027400031144,39.1391179997868],[-77.17090399967122,39.12808999966745],[-77.17420600004314,39.126225000201835],[-77.17200099983832,39.12514999965328],[-77.1738169998807,39.12308900004083],[-77.17600199999406,39.12432500005],[-77.18233800005096,39.119486000131],[-77.1879600002554,39.11016399969742],[-77.18975899968105,39.111827999866094],[-77.19175700019663,39.110987999701855],[-77.19522799972464,39.107044000223546],[-77.20351600026636,39.110038000263586],[-77.20316300008895,39.1069330002517],[-77.20831699958994,39.105945999766405],[-77.20636199963036,39.103371000264275],[-77.21442300039139,39.100645999947595],[-77.22965899983689,39.104344000174486],[-77.24532600017594,39.11529999975547],[-77.25067999969346,39.11729499972478],[-77.25120000027546,39.11609300028816],[-77.25316000025789,39.11658300002347],[-77.25252500004818,39.11822599994106],[-77.25540399992248,39.12101200002579],[-77.25827100010119,39.120689000320404],[-77.25722499998774,39.118349999813354],[-77.26386900001621,39.1162340003194],[-77.30700500042171,39.14570999996318],[-77.31438400021904,39.14696800020588],[-77.3248290003867,39.14049900017418],[-77.32918500036968,39.135700000234564],[-77.33453300003943,39.13424300032422],[-77.3358760002538,39.128569999763414],[-77.33207500011461,39.11049300029375],[-77.33438400007651,39.11001899978173],[-77.33642699989963,39.1057359998674],[-77.34277399982717,39.10482100007631],[-77.34377800010783,39.10237099967469]]]}},{"type":"Feature","properties":{"GEOID":"2405","NAME":"Congressional District 5","BASENAME":"5","STATE":"24","CD119":"05"},"geometry":{"type":"Polygon","coordinates":[[[-77.32300900014634,38.43345399987089],[-77.31878600023275,38.417671000274936],[-77.31044499998758,38.400101000262346],[-77.31083599979982,38.39688200027709],[-77.30493800030916,38.37527100022615],[-77.29679200005765,38.37050000004807],[-77.28819499971944,38.359384999930434],[-77.28726400013201,38.35309199969392],[-77.28840700032985,38.351401000255265],[-77.28379600007875,38.342855000262475],[-77.27658100031297,38.33788100031221],[-77.26529500007126,38.333163999740115],[-77.2400710003926,38.331597000207736],[-77.20469399972598,38.34109599982758],[-77.17933899962773,38.34191400004789],[-77.16321899955217,38.34582299982208],[-77.15519100019975,38.35104600011605],[-77.13773399975759,38.368022999984014],[-77.12469900031896,38.36675999982932],[-77.10487400036365,38.36974599977286],[-77.09353399969527,38.367297000294826],[-77.08667799995469,38.36792799978596],[-77.07688999973806,38.37276300028068],[-77.07055000038152,38.37815099968128],[-77.05342000017748,38.39881300012781],[-77.04150499957385,38.400691999771816],[-77.01801900011975,38.38160100030223],[-77.01146399977974,38.37442499965466],[-77.0159109999993,38.37102399981751],[-77.01464800015087,38.354043000192284],[-77.01680700032495,38.341687999987116],[-77.0143479996769,38.337723000171486],[-77.01452699977706,38.332633999875824],[-77.03068299983762,38.31162200019015],[-77.02876499968798,38.31138200006059],[-77.0281310002015,38.305316999818544],[-77.02350800025482,38.30145500027764],[-77.01644900012465,38.2988370001844],[-77.00090200033453,38.28000400033383],[-76.99086899989553,38.273638999972995],[-76.98134599999274,38.27454199968295],[-76.96208599992697,38.25696400011916],[-76.95692300020515,38.23747200029578],[-76.95809900001495,38.23405800026823],[-76.96225099978344,38.229888000156826],[-76.9490199996279,38.20841799971564],[-76.93683799995885,38.202384999922124],[-76.91617699995238,38.19973500003349],[-76.9111299996832,38.197357000269605],[-76.87674399977678,38.17301900024704],[-76.85883600014623,38.17099899974659],[-76.85426099988013,38.16730199971191],[-76.83936799966799,38.163608999821626],[-76.82428399966014,38.16364600004163],[-76.79988699981179,38.16893299970028],[-76.76397299974307,38.16779099984873],[-76.75141699998024,38.16468900002581],[-76.69026599981403,38.16054899982673],[-76.63597200011165,38.1525599998867],[-76.62916300022673,38.15348300024442],[-76.62132999996967,38.15063800010422],[-76.60543000000213,38.148933000097145],[-76.60497200024273,38.14798999975017],[-76.61038400038491,38.148516000256066],[-76.60172099992445,38.12512900023025],[-76.60046700029685,38.113087999779154],[-76.59615599962139,38.106676000249685],[-76.5880799996901,38.102208000180696],[-76.58156799990608,38.095908999895265],[-76.55662899973446,38.085873000076546],[-76.53645700034784,38.07490300014254],[-76.53419100004363,38.0635389999172],[-76.52635799978658,38.05310799974666],[-76.51616000038943,38.044919999813416],[-76.516608999928,38.026782999900526],[-76.49197600007813,38.017714000125636],[-76.48089400005091,38.01527699966723],[-76.47339700025283,38.0162319999187],[-76.46500800032709,38.01322000030328],[-76.4338999996048,37.98184700007821],[-76.42545999962542,37.97687099982065],[-76.4129339999998,37.96633199995898],[-76.39067700005897,37.9588029999835],[-76.35932499983755,37.95227300021153],[-76.33861699997541,37.945285999925474],[-76.26584900002972,37.911043999772104],[-76.2575270000511,37.90573800001159],[-76.24790600023906,37.89486899984037],[-76.2407769997887,37.890625999936994],[-76.23657200031677,37.8901460001092],[-76.23614100032154,37.88846800014155],[-76.20147699968247,38.07730800023961],[-76.31541400037854,38.29979699983864],[-76.33633099957973,38.387965999696725],[-76.41745700038736,38.491715000196365],[-76.42630400007252,38.50806400016107],[-76.4486770003643,38.62511899993368],[-76.46394600032009,38.70969599975211],[-76.45501300042122,38.750115999818796],[-76.43377699958116,38.814017000316376],[-76.42957700013211,38.85491500025825],[-76.4235780003591,38.87951400028626],[-76.44437800028274,38.886913999654055],[-76.49338100021679,38.91281299969298],[-76.54427299998815,38.94729400005647],[-76.55502299975433,38.9514520001184],[-76.57567600026321,38.95618699978788],[-76.58773300025877,38.962671999764794],[-76.59373100020684,38.96198300003787],[-76.60098100013275,38.970579999859126],[-76.60404900015291,38.98039200015297],[-76.60808000044587,38.9833740002221],[-76.60886399972019,38.98608999968768],[-76.61210400016782,38.98331100012276],[-76.62501599958283,38.98836500023214],[-76.63886100003168,39.00373899999758],[-76.6412710002759,39.010763999828974],[-76.64781300019713,39.01914100017226],[-76.65404200012392,39.023184999789756],[-76.6580750000667,39.02327399996941],[-76.65045699989479,39.027762000016494],[-76.65452699964749,39.03661700006586],[-76.66954200005839,39.04352599994593],[-76.65486599958122,39.05914800019527],[-76.65695699998322,39.06064599973087],[-76.65366300000723,39.06065300007452],[-76.65081000007221,39.064780999853056],[-76.65111700021887,39.06707700015833],[-76.64880200040919,39.067216999725986],[-76.65228899983072,39.06958100025187],[-76.65589599980115,39.06858799990825],[-76.65787500005017,39.07019200021671],[-76.66554000007773,39.07066000002527],[-76.66175200035734,39.07528000002799],[-76.67538600002068,39.07972000019077],[-76.67696299968848,39.08760100006071],[-76.68171899970454,39.0928129996903],[-76.68554099976012,39.101980999901016],[-76.68931299958699,39.09646500022052],[-76.69444400042009,39.10077499987312],[-76.701209999749,39.10189199990052],[-76.69970500005121,39.10767499987579],[-76.70469100022103,39.11195199984547],[-76.70831800028296,39.10811100022391],[-76.70760500025543,39.10985400018779],[-76.71196399971313,39.112030000091714],[-76.71959799977857,39.11092199970283],[-76.71500300031931,39.11420599971984],[-76.71916099993557,39.12039200030282],[-76.71711899993734,39.120826999937734],[-76.72070699964121,39.12309300028108],[-76.72641099986144,39.125354000072235],[-76.72857800043143,39.12468999999771],[-76.73263099956739,39.128632000030876],[-76.73574799999136,39.12816300022687],[-76.73828600028213,39.13049499996044],[-76.74003600020228,39.12616199988974],[-76.74543400010076,39.12593199990904],[-76.744029999787,39.12889300026601],[-76.7492250001942,39.12977300022076],[-76.75207099955821,39.12703199977999],[-76.75742199960102,39.12669199965224],[-76.75726900033845,39.1309370002599],[-76.75930899978853,39.132563999683214],[-76.75544499990015,39.140055000335906],[-76.76358299975574,39.14284400028904],[-76.76273900020695,39.146124000018744],[-76.76721499984052,39.15029700008917],[-76.76987500033002,39.14654900020995],[-76.77696200004928,39.15088300011457],[-76.78312099965585,39.14289500017651],[-76.78587800022972,39.13049599991538],[-76.79082500004148,39.12528600023051],[-76.79886499998779,39.12232999982406],[-76.8124810001078,39.122655999870496],[-76.82195399978184,39.11905300011737],[-76.8255690001482,39.11585500028248],[-76.82817699986083,39.107984000330525],[-76.84036199990291,39.10314200011771],[-76.83764899970997,39.100724999838114],[-76.8376860004182,39.09693300005359],[-76.82932699973136,39.09564200030313],[-76.82739199986328,39.093268999836],[-76.82724899974815,39.089628000036996],[-76.83490799992794,39.082870999756224],[-76.83234000039826,39.07630099971581],[-76.83808300007823,39.07358600006646],[-76.83645799983157,39.06843700014727],[-76.8315539996775,39.06917499983171],[-76.82917699994353,39.064529999879355],[-76.82665899974427,39.065795000250816],[-76.81787399998339,39.06175800008832],[-76.81599099999384,39.06264200006243],[-76.81005300032021,39.06093300000021],[-76.80422899955107,39.06263199995265],[-76.80139300023278,39.05588499981776],[-76.79450599963177,39.05324800000875],[-76.79235499985361,39.04599500030569],[-76.78759299998977,39.04463100006257],[-76.7839330003159,39.046251000061275],[-76.77487499984522,39.0448700002293],[-76.77405300003775,39.04099999981148],[-76.77029000043171,39.04086899976407],[-76.7690019995706,39.038948999813165],[-76.76539100030053,39.04043499997548],[-76.76221500032533,39.035165000340434],[-76.7558290000397,39.03771899976891],[-76.75125799997157,39.03471399970792],[-76.76215000002799,39.02115500010058],[-76.76610199977992,39.01853500032835],[-76.76851799987192,39.01971599986804],[-76.77112899995761,39.02577999991201],[-76.77381100018843,39.02720399987689],[-76.78480700000192,39.01949299980919],[-76.78101300043372,39.01246300032167],[-76.78188499957159,39.01070900034463],[-76.78433300034898,39.00914600006565],[-76.7838629999957,39.010639999991916],[-76.78946299956051,39.010359000085835],[-76.78938999976559,39.00862299986693],[-76.79509399998582,39.008143999667595],[-76.7965929998358,39.006430000251],[-76.79362199990001,39.00132800020513],[-76.80145500015708,38.99692400034626],[-76.7939020002825,38.98413600014246],[-76.7919590000185,38.982212999962776],[-76.78834600020028,38.98267299989312],[-76.79112700016528,38.980218999952186],[-76.79020999992325,38.977198999842415],[-76.78361500029858,38.97417800005387],[-76.78748599985967,38.973911999701436],[-76.78684099960418,38.972938000228496],[-76.78526800013435,38.97165900020863],[-76.78082400028784,38.973039999873386],[-76.77352800033121,38.972262999820515],[-76.7733309997894,38.96316399992469],[-76.77037400009729,38.95685500025737],[-76.7713459996926,38.9487870001131],[-76.77020199966985,38.9454049996536],[-76.7933969997691,38.94370699965596],[-76.81247400043509,38.9464170000079],[-76.83907599958994,38.94686400006917],[-76.83972699969317,38.9442890002587],[-76.8304699999292,38.93360700005287],[-76.83746299993713,38.92670499966327],[-76.84091699974668,38.91935400032627],[-76.84489699998602,38.916244999982],[-76.83613499979137,38.910248000020275],[-76.8316669996554,38.89845299991825],[-76.84734400004018,38.89216400010024],[-76.84419999985204,38.88373799981396],[-76.84443900022663,38.869338999677424],[-76.85071500000906,38.8594339999054],[-76.85905999955389,38.851777999958365],[-76.86700099976599,38.839749999691726],[-76.87422899995056,38.8409649996859],[-76.87559999975403,38.83897099994345],[-76.87614299990224,38.831202000044],[-76.8738659997274,38.829901999785534],[-76.87762800040684,38.82681199993852],[-76.87233599991526,38.82860300030783],[-76.89019300039051,38.81856000006493],[-76.89771699995278,38.8087649997575],[-76.90578899968614,38.80496099985479],[-76.89974399988238,38.79578800015236],[-76.89639700020294,38.78505699968526],[-76.88806199980553,38.77664799993756],[-76.8793570004106,38.758173999800874],[-76.87867500034523,38.74111600009077],[-76.88154599982359,38.73538100018957],[-76.88151099966348,38.73124899966714],[-76.89117699968138,38.730449999879774],[-76.89401299989795,38.72728699988229],[-76.8977040004323,38.72887400001176],[-76.90079800039176,38.72796700034429],[-76.91009399961548,38.720914000150245],[-76.91769500006895,38.72021399970093],[-76.92086500019637,38.71517099989958],[-76.92634099991265,38.71519599974501],[-76.94147299960109,38.70825999996749],[-76.94776600000027,38.70799399980429],[-76.95000899983992,38.70580200012603],[-76.95390600023859,38.708205000146656],[-76.96114100009586,38.70768399987274],[-76.96551899982015,38.70550199983515],[-76.97153900040786,38.70672600012343],[-76.97094299965788,38.70437400009597],[-76.97591499958399,38.70300200033884],[-76.97823600013979,38.698737000140376],[-76.9865599997682,38.69865600024553],[-76.98925299986966,38.69147899986505],[-76.99549299966709,38.685318999937444],[-77.00206300007572,38.68621099991118],[-77.00276600005749,38.692907999891396],[-76.99489000014273,38.69660799992909],[-76.99265700034881,38.696186000290766],[-76.99371599998275,38.697990999804254],[-76.99564099980509,38.69661499976922],[-77.00389099981368,38.69612599997717],[-77.029096999949,38.69811400002511],[-77.04339799960913,38.70361399996327],[-77.03399699990511,38.7255669997954],[-77.03352699955182,38.7465380001926],[-77.04202199978279,38.746721000189105],[-77.04347799997508,38.73924099977358],[-77.04158999996267,38.73681700022977],[-77.04146899958883,38.72584700000716],[-77.04334400008078,38.71844000018867],[-77.04619600019089,38.71443099995305],[-77.05354499985097,38.709802000089724],[-77.07143300028835,38.709980999813745],[-77.07430399976673,38.71290199988928],[-77.07923200021024,38.713052000087686],[-77.08079999965719,38.711125000313],[-77.08003700029926,38.70892399994597],[-77.09827200016798,38.69905300016018],[-77.10376499960267,38.69785999989506],[-77.12263200020638,38.685255999818416],[-77.13243899979128,38.674142999824205],[-77.13635299990837,38.64754899995513],[-77.13293199971078,38.644714999840104],[-77.13350699964604,38.64252499976241],[-77.12968200011572,38.634703999859774],[-77.16636500028848,38.62510599967789],[-77.18027199976329,38.62324599979031],[-77.1914869998599,38.619174999853236],[-77.20369600019141,38.61817200014346],[-77.24636200024364,38.59344100015755],[-77.25645400023389,38.56058699979966],[-77.2607480002926,38.55966399990228],[-77.26219799973876,38.55616999976938],[-77.27403299997648,38.55015200024178],[-77.27655399965049,38.54626299967027],[-77.27633899956534,38.53944500033749],[-77.27897399994048,38.536509999775845],[-77.28291399999682,38.525558000268866],[-77.28729400026924,38.52146300003598],[-77.28530900017245,38.51969499973143],[-77.28712100001688,38.5204009998522],[-77.28973799995035,38.518055999853296],[-77.29577600008142,38.50738400022582],[-77.30308399973362,38.49918800032105],[-77.31055799996548,38.49399300031637],[-77.31531599963137,38.47854900029292],[-77.31854199983529,38.474437000131466],[-77.32039999971047,38.43522099998837],[-77.32300900014634,38.43345399987089]]]}},{"type":"Feature","properties":{"GEOID":"2406","NAME":"Congressional District 6","BASENAME":"6","STATE":"24","CD119":"06"},"geometry":{"type":"Polygon","coordinates":[[[-79.48607200002265,39.34429999990489],[-79.4872739997717,39.265204999809775],[-79.48587399965591,39.2649050003253],[-79.48687499956353,39.20589600010885],[-79.47299700040102,39.20212399995044],[-79.4697929999384,39.20373400013469],[-79.46960399979251,39.207216000043665],[-79.46738699989214,39.208765000076916],[-79.460555000441,39.211555999921835],[-79.4533039997919,39.21046999965472],[-79.44742399984457,39.21568199994024],[-79.44064699974672,39.21650600021052],[-79.43298400026728,39.22388700034381],[-79.42571300042502,39.22531400027896],[-79.42405399984312,39.227398000076604],[-79.42522100033041,39.2344770002367],[-79.4206800003995,39.23542400011994],[-79.42026100009986,39.23888299984404],[-79.41221699995559,39.240193000256546],[-79.40833499962555,39.24506999989593],[-79.40945199988413,39.246199000263054],[-79.39966500039073,39.25150499977041],[-79.39838800029857,39.253407999906884],[-79.39955999991042,39.255041999838184],[-79.39500399991091,39.257074000005],[-79.39328499995287,39.26162700026279],[-79.39025799994059,39.2613639998134],[-79.38737599969326,39.263548999767586],[-79.3873380000584,39.267820000145136],[-79.38185700031926,39.26686500008244],[-79.37880900039058,39.27181799989773],[-79.37601400018187,39.27321700023267],[-79.35752499986997,39.27630500008953],[-79.35229600002589,39.28020200031566],[-79.35130799963875,39.28507100029776],[-79.34491499968044,39.28496900030365],[-79.34365600002997,39.287117999661],[-79.34738900039709,39.291102000131694],[-79.3460110000226,39.29395999973075],[-79.34037499957445,39.29367100000817],[-79.33264699979767,39.30012999986733],[-79.32624600034177,39.30107700002257],[-79.32126500019481,39.30000499975293],[-79.3170470003041,39.30403800021571],[-79.31394400012383,39.304706000031686],[-79.30343100018409,39.29962299993313],[-79.29039500002223,39.299452000328316],[-79.2901609996705,39.30351600014677],[-79.28388400006315,39.30984399978222],[-79.28422600036993,39.31548200024023],[-79.28213199959487,39.323273000335035],[-79.270425000302,39.32888200030712],[-79.2686800004047,39.33616300026961],[-79.26017400030308,39.334296999753505],[-79.25384999994176,39.337143999743866],[-79.25735399998001,39.34190699998841],[-79.2534800000459,39.34789599977202],[-79.25686799973322,39.35539299983333],[-79.25630799986655,39.357227000321664],[-79.2506010001716,39.35547199966193],[-79.24260999973079,39.35941500033703],[-79.23496300014489,39.35867699990448],[-79.23291899959855,39.35962199967646],[-79.23095500031646,39.36490499996295],[-79.21428000039711,39.36348200001514],[-79.21258499983021,39.37024800015205],[-79.20244400033448,39.37880199976095],[-79.19769099979317,39.38837299986582],[-79.19330300002315,39.38863199971678],[-79.1855690003986,39.38520799988976],[-79.17695899964158,39.389027999946336],[-79.18112800002682,39.39439399999931],[-79.17918399993789,39.396494999897826],[-79.17456900038715,39.39537900033493],[-79.16606499993534,39.387442999662106],[-79.16227100036716,39.38812900028754],[-79.1614779999737,39.39090200008875],[-79.16544800016729,39.395472000054774],[-79.16670500016794,39.400942999967164],[-79.16451199965867,39.40567899971551],[-79.159415999884,39.409543000061944],[-79.15946600011272,39.417036000182364],[-79.15535000032926,39.41829899980025],[-79.1512410002185,39.4169679996554],[-79.1495590000704,39.41372700034351],[-79.14997900019496,39.40607700005725],[-79.14673399972447,39.404539999801415],[-79.1437510000931,39.405202000179884],[-79.14113800035759,39.408682000074144],[-79.1418429999892,39.417097999727346],[-79.13649899961908,39.41888699991754],[-79.1298260001766,39.41730300006884],[-79.12744199987165,39.41817700005865],[-79.12904700002686,39.42954200006776],[-79.12403599974266,39.43320400024074],[-79.11273199995762,39.43085399975298],[-79.11082100037898,39.43185400011195],[-79.11212000021243,39.435510999935154],[-79.11686000033494,39.438857999958486],[-79.11388799967592,39.4435209999922],[-79.10777799957484,39.445896000124385],[-79.10281599969446,39.450482000043586],[-79.101805999566,39.4571650002247],[-79.10832999994388,39.45712400007732],[-79.10787899985716,39.4612209997106],[-79.10517400006016,39.463011999688625],[-79.09631200030637,39.46242099998015],[-79.09454200029475,39.46484900005493],[-79.0972780000539,39.4684560000428],[-79.10442000002476,39.47076499967135],[-79.10549200007748,39.47394399998477],[-79.1023830000494,39.47639400030024],[-79.0999600002847,39.476948999698386],[-79.09113000031797,39.47251999977989],[-79.08301699967843,39.47147299973415],[-79.069315000243,39.47396700009317],[-79.068033000128,39.47900800018692],[-79.06634199975908,39.47997099980588],[-79.0609770003709,39.47187699983639],[-79.05690400024514,39.47067199985062],[-79.05496500017908,39.47228799993443],[-79.0527480002787,39.48167799970223],[-79.04702499979189,39.483346000296066],[-79.04443200014786,39.47979500007563],[-79.03702300021334,39.47665299973836],[-79.03541999970795,39.46949299993627],[-79.03087600030231,39.46525399982047],[-79.01803099993619,39.46765600010618],[-79.01092400012543,39.461121000314655],[-78.9777349999452,39.44833299992476],[-78.969433999883,39.44325899965726],[-78.96568100032269,39.43847000021851],[-78.95657299962332,39.44033100007154],[-78.95595300038052,39.44783900015992],[-78.96054500036504,39.45103599986191],[-78.95429299997375,39.454703000279984],[-78.95896199995114,39.45975800015395],[-78.9589100000726,39.46283800020067],[-78.95241699965688,39.46358300005004],[-78.94249200007121,39.46894999983648],[-78.9385200002278,39.4745720002742],[-78.94253899992687,39.48062999968994],[-78.93429800013912,39.486283999742994],[-78.91672000022145,39.48631999997363],[-78.91324399977228,39.49459399969821],[-78.90776700023108,39.4978390000781],[-78.90408099971962,39.50407199970839],[-78.90551299962245,39.51154500002729],[-78.89239100014518,39.51327900001862],[-78.89113699961926,39.51821700008365],[-78.89310199962458,39.523995999687614],[-78.88891600041923,39.524912000155695],[-78.88705199979793,39.5229639999366],[-78.87874400006304,39.52127400011548],[-78.87514899978817,39.52266500005218],[-78.8693569997044,39.53179299990101],[-78.87137899961112,39.5356839997518],[-78.87068700039829,39.538766999727194],[-78.86143099956092,39.540964999888104],[-78.85205499997124,39.55097199965374],[-78.85097600024581,39.56010999996077],[-78.84722699998515,39.5625079998301],[-78.84326000016462,39.562784000058315],[-78.83924200029045,39.56700799997734],[-78.82945900009669,39.564993999715604],[-78.82193299998629,39.56062100033161],[-78.81584600034974,39.56288099999057],[-78.81322199984525,39.56720800010034],[-78.81485299993972,39.57128700018469],[-78.81990500023178,39.57633299970162],[-78.82620500030367,39.577335000229894],[-78.82572200042992,39.58917700016022],[-78.81933199994634,39.589889000303984],[-78.81786499988341,39.59185999985306],[-78.81839899981078,39.59405900009549],[-78.81187100013328,39.59799399996704],[-78.809028000244,39.60818199985541],[-78.80157499992853,39.60676299980787],[-78.79982300035854,39.605035000136425],[-78.79646200043541,39.60590199975409],[-78.7957850003929,39.61340200007086],[-78.80140199967616,39.62838499986833],[-78.79748300043451,39.629312000163644],[-78.79409700039702,39.63455899977083],[-78.79488300021946,39.63711499984878],[-78.79077099973564,39.63827499997215],[-78.78119500012944,39.63684599986402],[-78.77527900019712,39.64565699973579],[-78.76899300036892,39.64630700026695],[-78.76610799974854,39.64845400002024],[-78.76465800030235,39.64589199997858],[-78.76849200005351,39.63931500002602],[-78.77263499960114,39.636884999821184],[-78.77815800007141,39.625343999786736],[-78.7776219995959,39.62200000010254],[-78.76343700028671,39.61882699990259],[-78.74676700039024,39.62672199980037],[-78.7367959998755,39.62218699976634],[-78.73318700025524,39.61529499973999],[-78.73857900030592,39.60986000026506],[-78.74257999956335,39.60924499995773],[-78.74683299961416,39.605661000125906],[-78.74894400010766,39.60597400007474],[-78.75121700008454,39.609961000197295],[-78.76076400027674,39.610085000008525],[-78.76776300013248,39.608791999667424],[-78.77680499981129,39.60413199999344],[-78.77814600037584,39.601450999726715],[-78.77030999974573,39.595001000084444],[-78.76706099997558,39.58751099993428],[-78.75698599970377,39.58084900023126],[-78.75105300005302,39.581804999742985],[-78.74633200019706,39.57977800019539],[-78.7430979995972,39.58099699999292],[-78.74024100036254,39.586406000181164],[-78.73338999974652,39.58645800017369],[-78.73159399979562,39.57460999971544],[-78.72458900009211,39.56391899984586],[-78.71457800029272,39.5628170000648],[-78.70745999971301,39.55583900013833],[-78.69502399960078,39.55383499978318],[-78.69170700005857,39.55104899982812],[-78.68955799993023,39.54582399987814],[-78.68118999992087,39.54381299980333],[-78.67545100043887,39.54016500013616],[-78.66790900043493,39.54020100016726],[-78.66415000012853,39.53698700001569],[-78.65469699964764,39.53460499982107],[-78.63029800014951,39.53712999999502],[-78.62865100016151,39.53939000013436],[-78.62310099992708,39.539695000095094],[-78.6068750004446,39.535205999964546],[-78.60256999961693,39.53202899982299],[-78.59599300043394,39.536061000281315],[-78.59093799976884,39.53674799982372],[-78.59005800023503,39.535431000339656],[-78.59219800014253,39.531696999926346],[-78.587606000158,39.52772100003079],[-78.57859899974096,39.52673100007819],[-78.56611499994816,39.51937099974889],[-78.52308599967274,39.52485399979448],[-78.50327900015913,39.518582000242105],[-78.49000299979775,39.5176499997814],[-78.48363900015175,39.51954100006576],[-78.47194200000631,39.51593800017208],[-78.46623000028848,39.517796000019366],[-78.46178800009179,39.52225399974402],[-78.4607269999097,39.528578000021646],[-78.46296899992446,39.533397999713124],[-78.46236700022502,39.53636200009785],[-78.45800399967102,39.53834899997121],[-78.45045699964423,39.53793400022262],[-78.44864200032505,39.53995999994948],[-78.4499190004172,39.54338499971758],[-78.46053399956585,39.546188999699],[-78.46194600027553,39.548950000191056],[-78.46111699989704,39.55083299987809],[-78.45035999955984,39.549829999880174],[-78.43785800022368,39.538515999824334],[-78.43462500034705,39.542188999915034],[-78.43655400036737,39.54824899974647],[-78.43911400039943,39.550791000040626],[-78.43771699975836,39.5533659996695],[-78.43151200012105,39.55228399982665],[-78.42452900015886,39.545180000188495],[-78.41948000023984,39.5456020000578],[-78.41701899994199,39.54856000023078],[-78.4263200000869,39.559221999884215],[-78.43739700009124,39.56313699979568],[-78.45427899969982,39.57408200027977],[-78.45803999965604,39.579707999892904],[-78.45677199978473,39.58760799988636],[-78.45040800013875,39.59055100033523],[-78.44349799997148,39.59133099999927],[-78.4260880002833,39.58613699970306],[-78.41829900040717,39.580931999720164],[-78.40738300006132,39.578607000205736],[-78.39971300001086,39.58070199991651],[-78.3948440000169,39.58515200015276],[-78.39620300012481,39.589279999769325],[-78.39888399963239,39.59159200007993],[-78.41161699984553,39.59744199982016],[-78.42548599968553,39.60767199994947],[-78.43354700044655,39.61820700010848],[-78.43329899985112,39.62069899978538],[-78.43013899976943,39.623415999691424],[-78.42050700008673,39.62407299978256],[-78.3964550000199,39.616436000120515],[-78.38394100008983,39.60898099981428],[-78.37561099971532,39.60830700014121],[-78.37204200027804,39.61186899992307],[-78.38335500028393,39.62291300022504],[-78.38236299969883,39.6277929998477],[-78.37378100032753,39.63037300010179],[-78.36050999998902,39.625433999982555],[-78.35550600027584,39.62611099974077],[-78.35345699970664,39.630568999662216],[-78.35925399981329,39.637208000253395],[-78.35801299970615,39.639783000032715],[-78.35532299997774,39.64066299973503],[-78.33523699990656,39.637359000257156],[-78.31085699977665,39.6306090001256],[-78.286029999758,39.621192000031684],[-78.26608799962685,39.61905499996139],[-78.26286300014614,39.6224790000735],[-78.26233800043958,39.63049499985107],[-78.25406699961631,39.64018399974972],[-78.2381070002726,39.652151999938475],[-78.22721100001826,39.65708500022011],[-78.22382499998075,39.66053899965787],[-78.22425299960292,39.663513999873196],[-78.23299999972897,39.67066199977609],[-78.23256799990882,39.67358299995763],[-78.22707899977377,39.6762470001244],[-78.20311299992065,39.67651000034557],[-78.19618100001207,39.682488000281566],[-78.19100800024452,39.69029999986772],[-78.18275800023594,39.69510999969192],[-78.17174800017875,39.695665000196605],[-78.15430099978232,39.6906230002654],[-78.14345899995463,39.69049300022498],[-78.10443300038311,39.68144000024531],[-78.09704399964173,39.67821599972462],[-78.08952000007949,39.67144499998517],[-78.08055600021845,39.670501999873274],[-78.05421100008326,39.650986000091756],[-78.04814899966273,39.64350499978162],[-78.03732100007875,39.636983000131],[-78.02349900009442,39.621698999697216],[-78.01010899993022,39.603043999751975],[-78.00261200013213,39.600554000236286],[-77.97761199986114,39.59960800028142],[-77.97317899988526,39.6013170001806],[-77.96715800037094,39.607108999995425],[-77.96095799985817,39.608877999739626],[-77.95504000027603,39.60807799991626],[-77.95056899976701,39.603836000012215],[-77.95227600002946,39.59567499982474],[-77.9510330002725,39.58952799985338],[-77.94610200035427,39.58479200034106],[-77.94235599956836,39.584853000258086],[-77.93911400036922,39.58700100010778],[-77.93603700012821,39.59674700011921],[-77.9358610004011,39.60936500019348],[-77.93873500025252,39.61288799990029],[-77.94478900027711,39.61556599969028],[-77.9410850002223,39.61903499985276],[-77.93275999987065,39.61760899997629],[-77.92835399965895,39.61363000000706],[-77.92271999975895,39.60471100028535],[-77.89197299961,39.59775599974852],[-77.8853610002669,39.59767699979473],[-77.8811509998738,39.60097900003948],[-77.88117599998814,39.606369000069364],[-77.88699700038424,39.61359999991271],[-77.88491600002797,39.61583300017158],[-77.87426499999599,39.614078999889465],[-77.86448199980222,39.60893100021374],[-77.84151100000895,39.60696999994384],[-77.83414499973213,39.603371000173375],[-77.83188699982387,39.60077599996049],[-77.82976899965766,39.58775700010492],[-77.83335200023699,39.57115199986669],[-77.83608700017122,39.566662000313634],[-77.84322099974615,39.56446399976557],[-77.87854800018403,39.563408000228826],[-77.88691799984322,39.55996999973341],[-77.88873600043374,39.555409999993906],[-77.88602300024081,39.551688000245115],[-77.87164600041271,39.54428099978273],[-77.8652750001957,39.53841199992982],[-77.86613800001105,39.51839900007209],[-77.86475399978879,39.5158699998944],[-77.86117600013068,39.514292999731055],[-77.84943700015243,39.515595000171515],[-77.84194500037722,39.51842799983581],[-77.84056000033004,39.52914199966457],[-77.83696099985721,39.53211200024192],[-77.8322700001385,39.532340000247665],[-77.82473900000524,39.52848400009766],[-77.8234979998981,39.52378500022029],[-77.82579299961628,39.51671000004293],[-77.84660000011093,39.50455899975573],[-77.84784600024093,39.50182000022906],[-77.8453780002704,39.49810900015331],[-77.82756500017607,39.49308599993149],[-77.81936100019824,39.493548000185804],[-77.8028910003183,39.48946000029831],[-77.79156999991649,39.49095800021271],[-77.78215300031893,39.499036000193236],[-77.77090899991002,39.498935000140705],[-77.76634000039003,39.49623799969786],[-77.76554100014877,39.493427000168325],[-77.76727799965013,39.491271000158626],[-77.78780999978518,39.48546300001722],[-77.79719600031889,39.48013899979483],[-77.79800399988268,39.47523199989229],[-77.79538399957616,39.47124700027752],[-77.77760499981703,39.46225300020315],[-77.78060099986719,39.459843999870685],[-77.79267399975627,39.462064000316],[-77.7980060004308,39.46076900004981],[-77.79826900019654,39.45613100024798],[-77.7861209999644,39.447440000032564],[-77.78526499982173,39.44540300004472],[-77.78823900013059,39.44295000017471],[-77.80091100024438,39.440674000243625],[-77.80326899971176,39.43798999965949],[-77.80156999984523,39.43494299970688],[-77.79431599972138,39.430925000125505],[-77.77439899970459,39.427796999717586],[-77.7636830002736,39.42834799995412],[-77.75418799995991,39.424242999824834],[-77.74640300028175,39.40936900023232],[-77.73840699981807,39.39897599970949],[-77.73586900042561,39.391171999910384],[-77.73660900021733,39.38714800013626],[-77.74917599985083,39.38435299970621],[-77.75297699999001,39.38167899989774],[-77.75230900016834,39.37739800010635],[-77.74383999987663,39.36510200021087],[-77.74338399976703,39.36113900025396],[-77.74759599980997,39.35132699975191],[-77.7598269998828,39.34445600016983],[-77.76093300027073,39.34031200029743],[-77.75819400013853,39.33552999977613],[-77.73469199989259,39.32706599971633],[-77.72484000010185,39.32143200028042],[-77.70767399991283,39.32172800014626],[-77.69300800037972,39.318437000103884],[-77.68649999989537,39.320198999761935],[-77.681722000138,39.32388800021799],[-77.67546700027195,39.32436000032254],[-77.66507999983061,39.316804999801526],[-77.6508989998211,39.31084600017651],[-77.64408400008838,39.30875000012064],[-77.63092499990287,39.307718999654334],[-77.61591000039031,39.30254799983351],[-77.60626600011372,39.30375999989125],[-77.5926199998565,39.30120100000081],[-77.57864600043453,39.30516700029476],[-77.56833599998608,39.30648100026827],[-77.5649800000858,39.30517399996323],[-77.56171500042213,39.30106299986543],[-77.56277499988097,39.29446899977193],[-77.56069000022507,39.28595999989432],[-77.55415599980145,39.28143100020659],[-77.54308600036812,39.266915999716296],[-77.51066799994175,39.25325600022603],[-77.49726699990691,39.251327999695704],[-77.48664600001214,39.24728100001269],[-77.47110500006978,39.23430299994164],[-77.46072600002438,39.228799000231476],[-77.45770999988274,39.22497899979613],[-77.45985900001105,39.21888700023078],[-77.47415600037154,39.20776299989428],[-77.47599499998016,39.2018269996531],[-77.47508799978387,39.19543300026213],[-77.47867200018808,39.18967100033515],[-77.48579499989236,39.186025000236796],[-77.5075310003246,39.18140200017561],[-77.51762199959161,39.16941700034421],[-77.52474000017135,39.14913100026144],[-77.527680000145,39.144657999976864],[-77.52517500036451,39.12926600001517],[-77.52066799987048,39.12143499970913],[-77.515887999565,39.118651999994384],[-77.48540099970704,39.10930999982106],[-77.47895000002242,39.103410000266855],[-77.47349000019969,39.09404399991523],[-77.46865999966546,39.089389000071385],[-77.46895699976638,39.08562200023506],[-77.46250000023397,39.076404000289465],[-77.45697099991594,39.07339900020049],[-77.43483799982366,39.07020199995296],[-77.42073399980703,39.06632899987529],[-77.39835399984254,39.06465699991646],[-77.38579399988174,39.06213200032837],[-77.3421079996553,39.06292599993935],[-77.34146800032104,39.078067000202594],[-77.3362419999517,39.080753000046826],[-77.33419699958046,39.085159000148366],[-77.32937600016537,39.08775299981692],[-77.32954600004469,39.09141499974658],[-77.3361509997151,39.08839600026749],[-77.34081999969251,39.09377599971952],[-77.34352399966464,39.099999000186706],[-77.34277399982717,39.10482100007631],[-77.33642699989963,39.1057359998674],[-77.33438400007651,39.11001899978173],[-77.33207500011461,39.11049300029375],[-77.3358760002538,39.128569999763414],[-77.33453300003943,39.13424300032422],[-77.32918500036968,39.135700000234564],[-77.3248290003867,39.14049900017418],[-77.31438400021904,39.14696800020588],[-77.30700500042171,39.14570999996318],[-77.26386900001621,39.1162340003194],[-77.25722499998774,39.118349999813354],[-77.25827100010119,39.120689000320404],[-77.25540399992248,39.12101200002579],[-77.25252500004818,39.11822599994106],[-77.25316000025789,39.11658300002347],[-77.25120000027546,39.11609300028816],[-77.25067999969346,39.11729499972478],[-77.24532600017594,39.11529999975547],[-77.22965899983689,39.104344000174486],[-77.21442300039139,39.100645999947595],[-77.20636199963036,39.103371000264275],[-77.20831699958994,39.105945999766405],[-77.20316300008895,39.1069330002517],[-77.20351600026636,39.110038000263586],[-77.19522799972464,39.107044000223546],[-77.19175700019663,39.110987999701855],[-77.18975899968105,39.111827999866094],[-77.1879600002554,39.11016399969742],[-77.18233800005096,39.119486000131],[-77.17600199999406,39.12432500005],[-77.1738169998807,39.12308900004083],[-77.17200099983832,39.12514999965328],[-77.17420600004314,39.126225000201835],[-77.17090399967122,39.12808999966745],[-77.18028900038004,39.138405999789406],[-77.17836399965938,39.14674899965787],[-77.17113200017518,39.14803599997556],[-77.1740550004304,39.15060000019322],[-77.17247500038957,39.14999299969917],[-77.17210299994557,39.1518780001058],[-77.17424000037832,39.153789000161424],[-77.1809680000724,39.15396400034121],[-77.1804550000614,39.156596999729445],[-77.18330499962337,39.15897100007403],[-77.1967740003286,39.16050999984811],[-77.19776000016759,39.16750200011717],[-77.19642600017404,39.168268000336255],[-77.19479000005671,39.16472399987599],[-77.19177800011302,39.16590499985538],[-77.1906430003111,39.16944500031136],[-77.20359800028214,39.17259900017178],[-77.20347299971034,39.17451900032223],[-77.20829700039677,39.174094999875145],[-77.21002200020258,39.17630600032892],[-77.21096799985861,39.18432599989212],[-77.2039480000865,39.185119000087234],[-77.19978999957192,39.187248000136954],[-77.1984509995555,39.186828999816164],[-77.19892299955862,39.18555400015246],[-77.19888300027395,39.183336000172766],[-77.19772400018257,39.18743199990562],[-77.19195700021316,39.19061699984044],[-77.1969519997055,39.19651399985674],[-77.20343000005263,39.19963800034219],[-77.20323900025693,39.203520999973556],[-77.20710700034326,39.20874400001549],[-77.20369700001635,39.212638000076204],[-77.21045599967253,39.217018000162795],[-77.20531399986709,39.2176620003307],[-77.20606899972742,39.22017199982309],[-77.20225500006775,39.22111100019989],[-77.20252899970413,39.22332299967078],[-77.19937100017057,39.22306000031736],[-77.1963879996409,39.2270659997207],[-77.18631400009232,39.229305999884815],[-77.18044199964261,39.236526000055605],[-77.17400299965354,39.23918099975467],[-77.17245399957486,39.241081000331455],[-77.17267600023101,39.24449099965784],[-77.16400899957259,39.253501000084555],[-77.16505499968605,39.25722099994786],[-77.16243000025496,39.26004399985145],[-77.16435900027527,39.26213100003279],[-77.16282000024232,39.265575000233895],[-77.16706800027026,39.267368000345094],[-77.16833399959341,39.2662009999621],[-77.17259900023812,39.268908999901285],[-77.17092799996068,39.27181999996086],[-77.17652800042382,39.27487099994832],[-77.17237800030517,39.284628999714],[-77.16996700023603,39.28451100008061],[-77.16292499982428,39.289703000288696],[-77.15744699955988,39.28969899979289],[-77.1446690000392,39.29470700014826],[-77.1623330001706,39.30792199973086],[-77.16459000025397,39.30744400000848],[-77.1667770000171,39.312135999717725],[-77.17034700017763,39.31310900015879],[-77.17327600028064,39.32048100023343],[-77.18148899958098,39.32929400018692],[-77.18711300033358,39.34059500000322],[-77.18381000013675,39.34545899976478],[-77.16808000004852,39.35395700015418],[-77.16973399970921,39.35510199985226],[-77.16709599985933,39.35859999989489],[-77.16472300032335,39.36767399995936],[-77.15818499970177,39.37345100023437],[-77.15919099963226,39.37409399988144],[-77.15640399981946,39.37797299984489],[-77.15438399956257,39.391297999932426],[-77.14740099960039,39.40913600009563],[-77.14803699963502,39.417755000113644],[-77.13344800009482,39.43240100022081],[-77.12395799980402,39.45130499966884],[-77.11602199961479,39.45984499998776],[-77.1199719997169,39.46525599989904],[-77.11891100043313,39.473037000260184],[-77.11707299975112,39.47547200015516],[-77.11768600021952,39.478618999682936],[-77.1103550001028,39.48579799965894],[-77.10672399984291,39.49200999987977],[-77.10999799972743,39.49748000000206],[-77.11326800031227,39.49776300006805],[-77.12772899980597,39.50854899995157],[-77.13360499955533,39.50859600025203],[-77.13782400016926,39.51515899993448],[-77.13695100030817,39.51740299969106],[-77.13840199957927,39.520489999741855],[-77.15002699975469,39.52198800029156],[-77.15233999991455,39.53249800004337],[-77.15596299977852,39.533690000181494],[-77.16321100005456,39.53253800033804],[-77.16545700026728,39.53416599984007],[-77.17058300017918,39.53439600019687],[-77.17146199988805,39.53923299975928],[-77.16899999976529,39.54229099975108],[-77.17160300035337,39.54382299998094],[-77.17175099959306,39.546645000001966],[-77.16961599970844,39.549851000092985],[-77.16944500000422,39.55411800022596],[-77.1714939996751,39.55463899972542],[-77.1752379999129,39.559981999783744],[-77.17800999965708,39.560894999661556],[-77.18272700021336,39.55934200020327],[-77.18700500037853,39.56248199985739],[-77.18697000021844,39.56667499986388],[-77.1993650003228,39.57640299995066],[-77.19993299968705,39.5784730000901],[-77.21004399994386,39.57909700031391],[-77.21563900038416,39.574510999867954],[-77.22023700021647,39.57543199966116],[-77.22292000027217,39.57745699998224],[-77.21917500020948,39.579692999769414],[-77.22026200033082,39.58210799998998],[-77.23252000016784,39.58463199974752],[-77.2321179995866,39.58614900007093],[-77.2274779999215,39.58710800024951],[-77.22772099959575,39.58828299990342],[-77.23394399967475,39.58823899989957],[-77.23884299980594,39.58451700019612],[-77.23869999969081,39.588880999954085],[-77.24768199999349,39.594224000295846],[-77.25165600038505,39.602100000186866],[-77.25697100044285,39.603810000313516],[-77.25995999992199,39.6026619998928],[-77.26203500043046,39.59936499983445],[-77.25956200043704,39.59446700008927],[-77.26275900032864,39.594059999665774],[-77.26597700013664,39.59839599981096],[-77.27035999988381,39.600316999988564],[-77.27098099984983,39.606022000246924],[-77.28568099971812,39.60776000015799],[-77.28745400010281,39.604743000295365],[-77.28999900006626,39.60421999985607],[-77.29030399966477,39.60663999966473],[-77.29400600006979,39.61032800021119],[-77.30026199976072,39.612555000159965],[-77.3074120001275,39.619031000245506],[-77.30167600012022,39.621261000065296],[-77.29951899959597,39.623859999899246],[-77.30791199971969,39.62832599977094],[-77.31129000025958,39.63964099968246],[-77.30684600041306,39.641113000208186],[-77.29998099955334,39.63928899981749],[-77.2946549996249,39.6318830002933],[-77.29150399976405,39.63058199967697],[-77.27597299986743,39.63192799995826],[-77.27917300013209,39.63641900026013],[-77.27673000027589,39.63928600029837],[-77.27137500003514,39.64165500021122],[-77.27560700016953,39.647196000250545],[-77.27241399957758,39.65160100018514],[-77.26547099979835,39.65592400019714],[-77.26624300027544,39.662268999901755],[-77.26201100014103,39.665190000183586],[-77.25583900011564,39.66321099970912],[-77.25460600040445,39.66760199990339],[-77.24928299995074,39.66747700024414],[-77.24306200041987,39.669978000104116],[-77.2345379998766,39.67743399996019],[-77.23634899989612,39.68089600028907],[-77.23615100042771,39.68564799997764],[-77.2443379997888,39.69136800016256],[-77.2432680002842,39.69473100000752],[-77.24003100020963,39.69570299997076],[-77.22596800020088,39.69383899985321],[-77.21626100017508,39.69741299995112],[-77.21516900003088,39.6993569998138],[-77.21615900006785,39.7013539996736],[-77.22431899966475,39.70452600033537],[-77.22676599971889,39.70730599986143],[-77.22497099959291,39.71036499999016],[-77.21559599982812,39.712710000274264],[-77.21460999998914,39.71721800023403],[-77.21702400043134,39.71986100019117],[-78.31513900013978,39.722877000200135],[-79.04554799968321,39.72288300027257],[-79.47666200009778,39.72107800030686],[-79.47656099981543,39.64273799967418],[-79.47776400028775,39.64228199992867],[-79.47886599957937,39.53168900032661],[-79.482366000318,39.53168900032661],[-79.48435300006462,39.345044000229834],[-79.48607200002265,39.34429999990489]]]}},{"type":"Feature","properties":{"GEOID":"2404","NAME":"Congressional District 4","BASENAME":"4","STATE":"24","CD119":"04"},"geometry":{"type":"Polygon","coordinates":[[[-77.03399699990511,38.7255669997954],[-77.04339799960913,38.70361399996327],[-77.029096999949,38.69811400002511],[-77.00389099981368,38.69612599997717],[-76.99564099980509,38.69661499976922],[-76.99371599998275,38.697990999804254],[-76.99265700034881,38.696186000290766],[-76.99489000014273,38.69660799992909],[-77.00276600005749,38.692907999891396],[-77.00206300007572,38.68621099991118],[-76.99513199999207,38.68529699996895],[-76.989057999876,38.691779000085816],[-76.9865599997682,38.69865600024553],[-76.97823600013979,38.698737000140376],[-76.97591499958399,38.70300200033884],[-76.97094299965788,38.70437400009597],[-76.97153900040786,38.70672600012343],[-76.96551899982015,38.70550199983515],[-76.96114100009586,38.70768399987274],[-76.95390600023859,38.708205000146656],[-76.95000899983992,38.70580200012603],[-76.94776600000027,38.70799399980429],[-76.94147299960109,38.70825999996749],[-76.92634099991265,38.71519599974501],[-76.92086500019637,38.71517099989958],[-76.91769500006895,38.72021399970093],[-76.91009399961548,38.720914000150245],[-76.90079800039176,38.72796700034429],[-76.8977040004323,38.72887400001176],[-76.89401299989795,38.72728699988229],[-76.89117699968138,38.730449999879774],[-76.88151099966348,38.73124899966714],[-76.88154599982359,38.73538100018957],[-76.87867500034523,38.74111600009077],[-76.8793570004106,38.758173999800874],[-76.88806199980553,38.77664799993756],[-76.89639700020294,38.78505699968526],[-76.89974399988238,38.79578800015236],[-76.90578899968614,38.80496099985479],[-76.89771699995278,38.8087649997575],[-76.89019300039051,38.81856000006493],[-76.87233599991526,38.82860300030783],[-76.87762800040684,38.82681199993852],[-76.8738659997274,38.829901999785534],[-76.87614299990224,38.831202000044],[-76.87559999975403,38.83897099994345],[-76.87422899995056,38.8409649996859],[-76.86700099976599,38.839749999691726],[-76.85905999955389,38.851777999958365],[-76.85071500000906,38.8594339999054],[-76.84443900022663,38.869338999677424],[-76.84419999985204,38.88373799981396],[-76.84734400004018,38.89216400010024],[-76.8316669996554,38.89845299991825],[-76.83613499979137,38.910248000020275],[-76.84489699998602,38.916244999982],[-76.84091699974668,38.91935400032627],[-76.83746299993713,38.92670499966327],[-76.8304699999292,38.93360700005287],[-76.83588100024647,38.93870699994114],[-76.83960899969242,38.946059000115866],[-76.81292999964636,38.94644400004935],[-76.7933969997691,38.94370699965596],[-76.77020199966985,38.9454049996536],[-76.7713459996926,38.9487870001131],[-76.77037400009729,38.95685500025737],[-76.7733309997894,38.96316399992469],[-76.77352800033121,38.972262999820515],[-76.78082400028784,38.973039999873386],[-76.78526800013435,38.97165900020863],[-76.78684099960418,38.972938000228496],[-76.78748599985967,38.973911999701436],[-76.78361500029858,38.97417800005387],[-76.79020999992325,38.977198999842415],[-76.79112700016528,38.980218999952186],[-76.78834600020028,38.98267299989312],[-76.7919590000185,38.982212999962776],[-76.7939020002825,38.98413600014246],[-76.80145500015708,38.99692400034626],[-76.79362199990001,39.00132800020513],[-76.7965929998358,39.006430000251],[-76.79509399998582,39.008143999667595],[-76.78938999976559,39.00862299986693],[-76.78946299956051,39.010359000085835],[-76.7838629999957,39.010639999991916],[-76.78433300034898,39.00914600006565],[-76.78188499957159,39.01070900034463],[-76.78101300043372,39.01246300032167],[-76.78480700000192,39.01949299980919],[-76.77381100018843,39.02720399987689],[-76.77112899995761,39.02577999991201],[-76.76851799987192,39.01971599986804],[-76.76610199977992,39.01853500032835],[-76.76215000002799,39.02115500010058],[-76.75125799997157,39.03471399970792],[-76.7558290000397,39.03771899976891],[-76.76221500032533,39.035165000340434],[-76.76539100030053,39.04043499997548],[-76.7690019995706,39.038948999813165],[-76.77029000043171,39.04086899976407],[-76.77405300003775,39.04099999981148],[-76.77487499984522,39.0448700002293],[-76.7839330003159,39.046251000061275],[-76.78759299998977,39.04463100006257],[-76.79235499985361,39.04599500030569],[-76.79450599963177,39.05324800000875],[-76.80139300023278,39.05588499981776],[-76.80422899955107,39.06263199995265],[-76.81005300032021,39.06093300000021],[-76.81599099999384,39.06264200006243],[-76.81768300018769,39.06172399984143],[-76.82665899974427,39.065795000250816],[-76.82917699994353,39.064529999879355],[-76.8315539996775,39.06917499983171],[-76.83584100006351,39.06796599981046],[-76.83808300007823,39.07358600006646],[-76.83239999977441,39.07614899969147],[-76.83490799992794,39.082870999756224],[-76.82711700040198,39.089831000267225],[-76.82783799992711,39.0946259997878],[-76.8376860004182,39.09693300005359],[-76.83764899970997,39.100724999838114],[-76.84414299995062,39.107288000325894],[-76.87022899961973,39.112788000240435],[-76.88431500009303,39.126884999719124],[-76.88565599975927,39.13129199995621],[-76.90283299981895,39.12556200000036],[-76.9150019999675,39.12669699969676],[-76.91847199967059,39.13171599986303],[-76.92643799999703,39.13530600001717],[-76.92910199978617,39.138391999901245],[-76.93827800025763,39.132779000074976],[-76.94275300006628,39.13249100020146],[-76.94598599994289,39.12958300030602],[-76.94857899958693,39.129596999855146],[-76.95873300039976,39.134315000179505],[-76.95306699981437,39.13897000003569],[-76.95288100004154,39.142762999982025],[-76.95014500028238,39.143505999657414],[-76.95211500031056,39.1462900000874],[-76.95610300004749,39.14479999971012],[-76.96297300003178,39.145840000034234],[-76.966445000283,39.14298199969434],[-76.97200700021301,39.14195600021949],[-76.98043799997154,39.13763400000943],[-76.98861600001011,39.138713000270066],[-76.99176699987098,39.1373780001016],[-76.99210300032993,39.13969399988636],[-76.99600200037844,39.13962999995321],[-76.99052400011402,39.12738800034379],[-76.98739599981938,39.12792499988069],[-76.98989099955412,39.12629599987764],[-76.98885600020962,39.12114900031666],[-76.98064399983588,39.11815999975147],[-76.96214899967616,39.11608400024694],[-76.96317999972102,39.1012610000666],[-76.96501900022794,39.09798400003676],[-76.96923000044596,39.095218000111224],[-76.9641639999102,39.08816099974475],[-76.954512000136,39.08628999981051],[-76.94824700022421,39.082968000211295],[-76.96269600002233,39.06262400028229],[-76.95529899978337,39.06054299987466],[-76.94564000033648,39.054575999704355],[-76.9673320003878,39.02466200010527],[-76.96687100025537,39.02356099995824],[-76.99109800022437,38.992405000133886],[-76.98478700028183,38.98718199971734],[-76.98675099956391,38.977149000273634],[-76.99418299996299,38.975291000010095],[-77.00355500025302,38.96654799986872],[-76.90939300018182,38.89285200026212],[-77.04046500020648,38.79040499975551],[-77.04202199978279,38.746721000189105],[-77.03352699955182,38.7465380001926],[-77.03399699990511,38.7255669997954]]]}},{"type":"Feature","properties":{"GEOID":"2402","NAME":"Congressional District 2","BASENAME":"2","STATE":"24","CD119":"02"},"geometry":{"type":"Polygon","coordinates":[[[-77.31156200024614,39.63874899987551],[-77.30791199971969,39.62832599977094],[-77.29951899959597,39.623859999899246],[-77.30167600012022,39.621261000065296],[-77.3073769999674,39.61896499977299],[-77.30026199976072,39.612555000159965],[-77.29400600006979,39.61032800021119],[-77.29030399966477,39.60663999966473],[-77.29042199966555,39.60443699972377],[-77.28774700000578,39.60451600027225],[-77.28568099971812,39.60776000015799],[-77.27130499971493,39.606163000300725],[-77.26978999997141,39.603873000338595],[-77.27035999988381,39.600316999988564],[-77.26597700013664,39.59839599981096],[-77.2631500001409,39.59424299969795],[-77.2605940003068,39.593960000340445],[-77.25954999984316,39.594810000041804],[-77.26165899978851,39.60048000017011],[-77.258461000072,39.603635000250684],[-77.25467900019937,39.60327699983998],[-77.25084700009806,39.6015890003209],[-77.24716300013473,39.59371400004279],[-77.23877800040692,39.588974999749645],[-77.23870800008672,39.58441200031862],[-77.23331199983807,39.58845299965565],[-77.22743699991362,39.588073999982484],[-77.2321179995866,39.58614900007093],[-77.23252000016784,39.58463199974752],[-77.22026200033082,39.58210799998998],[-77.21917500020948,39.579692999769414],[-77.22292000027217,39.57745699998224],[-77.22071300041753,39.57562400033662],[-77.21586600016488,39.57443400011958],[-77.21004399994386,39.57909700031391],[-77.20012500020599,39.57858799997776],[-77.1993650003228,39.57640299995066],[-77.18697000021844,39.56667499986388],[-77.18700500037853,39.56248199985739],[-77.18272700021336,39.55934200020327],[-77.17800999965708,39.560894999661556],[-77.1752379999129,39.559981999783744],[-77.1714939996751,39.55463899972542],[-77.16944500000422,39.55411800022596],[-77.16961599970844,39.549851000092985],[-77.17175099959306,39.546645000001966],[-77.17160300035337,39.54382299998094],[-77.16899999976529,39.54229099975108],[-77.17146199988805,39.53923299975928],[-77.17058300017918,39.53439600019687],[-77.16545700026728,39.53416599984007],[-77.16321100005456,39.53253800033804],[-77.15596299977852,39.533690000181494],[-77.15233999991455,39.53249800004337],[-77.15002699975469,39.52198800029156],[-77.13840199957927,39.520489999741855],[-77.13695100030817,39.51740299969106],[-77.13782400016926,39.51515899993448],[-77.13354099998124,39.50854099976457],[-77.12947899972615,39.50944499982172],[-77.11326800031227,39.49776300006805],[-77.10999799972743,39.49748000000206],[-77.10674700030745,39.491858999859524],[-77.1103550001028,39.48579799965894],[-77.11768600021952,39.478618999682936],[-77.11707299975112,39.47547200015516],[-77.11916099978008,39.471776999802984],[-77.1199719997169,39.46525599989904],[-77.1159670002615,39.45995500029155],[-77.12395799980402,39.45130499966884],[-77.12673700011919,39.44375000034357],[-77.1341939997343,39.43169000012663],[-77.10774700039016,39.42032000002787],[-77.09998699992803,39.41485299990397],[-77.09047999991878,39.41235799984578],[-77.07532399994092,39.40514600033039],[-77.07168099998547,39.41822599970747],[-77.07142499989243,39.42494500025809],[-77.04774100007162,39.44372000029495],[-77.01034300022152,39.43381399989555],[-76.99613899974747,39.42286800001675],[-76.99361499970041,39.42754400028647],[-76.98345300028828,39.42272200030374],[-76.97615099958554,39.42148199973719],[-76.97814499990318,39.41709200019913],[-76.98174900039886,39.41482600011253],[-76.97260300006468,39.41083199992027],[-76.98530399959247,39.38197299978177],[-76.98619400007031,39.37679699978681],[-76.99491899955673,39.36584599989639],[-76.99215299966035,39.359806000195015],[-76.98338299996809,39.36285300017491],[-76.97458899998637,39.36120200031443],[-76.96961000038755,39.36402600003912],[-76.96449699999613,39.361433999959104],[-76.95974099998008,39.35659400027146],[-76.9504840002161,39.35779400001328],[-76.95072500024051,39.35961700023318],[-76.94642899963368,39.36103900029481],[-76.94137399986688,39.35747199975835],[-76.93740700004635,39.35884799991098],[-76.929251999574,39.35392499986579],[-76.91828800044587,39.35085599998101],[-76.91291499976344,39.35096799994141],[-76.90957700030484,39.34846300016543],[-76.90800099956364,39.349382000061404],[-76.90888000017083,39.35265299997505],[-76.90557100012624,39.35422000016762],[-76.90132300009829,39.3541839997172],[-76.89790100007579,39.35163000007224],[-76.88902900027628,39.353804999869354],[-76.88671399956829,39.35061300016288],[-76.88609699980022,39.352552000103735],[-76.88333400027689,39.35148599976747],[-76.87825299967251,39.342420000306554],[-76.87529699980533,39.34010799997073],[-76.87519700024622,39.33764599985168],[-76.87836999984837,39.33645399991366],[-76.87504099971228,39.33215399994234],[-76.86279600029407,39.3300790002655],[-76.85543900023806,39.32322400002589],[-76.85408000013017,39.31785100017741],[-76.85116799974558,39.315935000328345],[-76.84427699984492,39.31833299994628],[-76.84045599961424,39.3154779998275],[-76.83534200029622,39.31572499986513],[-76.83557900012268,39.31208000027562],[-76.8335680000866,39.3115140003454],[-76.82933299957914,39.317204000307626],[-76.82487000036437,39.31934899967451],[-76.81743399976733,39.313129000117364],[-76.81405399957762,39.31800600032113],[-76.8101300003131,39.31523700025301],[-76.80451800015437,39.316732999953764],[-76.7946000002414,39.31423199982371],[-76.79248399972505,39.31113600005508],[-76.79394599976511,39.30683399988174],[-76.79659700003376,39.30565900021283],[-76.79580000034065,39.30373399979943],[-76.79031500040354,39.3034419999764],[-76.78703399994802,39.29992399984883],[-76.77891600018394,39.29705099975668],[-76.77845400022657,39.295304000070715],[-76.78518199992062,39.29184500007668],[-76.78516600002712,39.28285500014032],[-76.78979399999665,39.27318499985317],[-76.79452900009629,39.270131000002124],[-76.79438799963098,39.26640400009885],[-76.78013700019959,39.25715999989539],[-76.77354099985168,39.256204999965824],[-76.76892999960059,39.252650000209066],[-76.76402100032196,39.2514780001298],[-76.76494500023668,39.24852000004683],[-76.7636000003725,39.246373000272854],[-76.75717599955371,39.24749599965559],[-76.75428300033404,39.246258999715444],[-76.73952800021416,39.23216299989538],[-76.72839099993537,39.22939500024895],[-76.7255620002898,39.23489100023572],[-76.72970599966234,39.23712999988612],[-76.72699400019263,39.23984499975642],[-76.7287230001964,39.24522499976982],[-76.72337100032867,39.24977800007392],[-76.73649700000391,39.26193700020256],[-76.73137299974184,39.265226999795665],[-76.73395399969027,39.27151300002827],[-76.73739300032953,39.27152199965582],[-76.74540300013862,39.28077999987575],[-76.7443109999944,39.28499399987287],[-76.73884600014877,39.28633499970489],[-76.74209099972096,39.291071000030996],[-76.74475100021044,39.312537000035654],[-76.75237500023016,39.31300400028245],[-76.75245899989574,39.31496700012437],[-76.74947000041658,39.32241600004752],[-76.7452960000085,39.32198599977296],[-76.74543800029872,39.32492399993333],[-76.75007499959077,39.32947299975276],[-76.75190200040213,39.329369999926584],[-76.75270400011811,39.33317399981061],[-76.75975400002746,39.333747999715435],[-76.76276299959808,39.3414760003345],[-76.79535900029968,39.35496999977632],[-76.7904829997347,39.35851700009618],[-76.78015200026817,39.36051299991685],[-76.77455500017808,39.365825999735954],[-76.75255799962993,39.367518000139235],[-76.74832499967061,39.36949900001561],[-76.74456200006456,39.37708599982026],[-76.72775499990072,39.36843600005557],[-76.72152599997396,39.36312400027171],[-76.71912400012565,39.357141999876866],[-76.71118600028659,39.35438300012274],[-76.7113129996099,39.371932999732365],[-76.67819100027513,39.371993999799805],[-76.67296699955561,39.36408000004519],[-76.66814000029277,39.362479000062294],[-76.66596400040027,39.35761300033738],[-76.6622079995686,39.35503299984366],[-76.65488200037305,39.35746199986904],[-76.6511609997015,39.360395999895076],[-76.64677299993147,39.350298000170035],[-76.64814899975781,39.33851499976865],[-76.64381600023935,39.331845999912815],[-76.64079699972467,39.332076000022504],[-76.64009999959067,39.32991500000981],[-76.62442800012708,39.331880000321064],[-76.62521599959938,39.345122000270194],[-76.61480099956894,39.3457889999462],[-76.61638800018078,39.35612100014816],[-76.60997699978081,39.35682000008961],[-76.60980500025168,39.37220000006619],[-76.52979300022788,39.3720579997791],[-76.52968500027285,39.33028000030427],[-76.52600799998223,39.33179799992137],[-76.52160699979339,39.32997199966354],[-76.5229790003201,39.32844599997655],[-76.5223180001711,39.32288799966176],[-76.51592400038788,39.31703999974451],[-76.51657399976791,39.31385300018985],[-76.51467300023502,39.30891500015593],[-76.4892779999538,39.301947000021634],[-76.45588299990926,39.28190599988697],[-76.44348199995711,39.280806000148054],[-76.4458820001556,39.274806000001114],[-76.44618199973128,39.26400599987447],[-76.44228199985785,39.25280600032831],[-76.43448200011107,39.244107000248675],[-76.42888199964793,39.24250700014174],[-76.40728099983322,39.24180699975021],[-76.39378100006417,39.24670699980163],[-76.39542999970197,39.23945000009983],[-76.37482700032014,39.23158899983103],[-76.35347300037763,39.23916699974981],[-76.2915799998716,39.250102000146846],[-76.28768900021902,39.254104000241114],[-76.34427900036283,39.282506999991455],[-76.33807899985007,39.292806999831484],[-76.3318790002356,39.2986070001779],[-76.32337899998178,39.30280700026758],[-76.31427899967831,39.304007000281764],[-76.30817899962297,39.3074070002719],[-76.30657900038895,39.31010699965403],[-76.31627899984372,39.32990700014004],[-76.31557900023498,39.33280700032038],[-76.32237899989906,39.32810699991611],[-76.33287900031831,39.33070699995919],[-76.34728000043587,39.33790699985362],[-76.35435000043668,39.3344860001132],[-76.35551100017788,39.33536499998016],[-76.35271400031935,39.345983000222354],[-76.35552200004852,39.34442200031987],[-76.35820699975407,39.34679300021234],[-76.35816099972331,39.35109699976634],[-76.35637300016832,39.35167200004735],[-76.35964299985486,39.35181499969058],[-76.3588350002911,39.35396699985063],[-76.36234500017714,39.35871999999022],[-76.36191400018193,39.35671300013161],[-76.36426800034967,39.356308000111234],[-76.36153500006523,39.35621700003573],[-76.36003100019238,39.353654000200265],[-76.36169300024898,39.350912999927466],[-76.36748299978461,39.35319600002691],[-76.36688399955992,39.35482000008187],[-76.37314799964678,39.3581699998864],[-76.3874829996421,39.348952999904185],[-76.40930100009011,39.34154699999126],[-76.41658899965081,39.341315000307446],[-76.4191570000788,39.343262999936556],[-76.42813199981049,39.343815999770335],[-76.42691300034298,39.34641900026007],[-76.43566999961645,39.353500999696784],[-76.42530399998982,39.36106300032584],[-76.42247199997118,39.36590799980179],[-76.4061669999477,39.36770400009854],[-76.4160949999064,39.37528600010648],[-76.42320300044038,39.376243999900744],[-76.43890099984324,39.38876999992565],[-76.44577500002549,39.38233299978113],[-76.46236799992907,39.386013000192875],[-76.46365300041714,39.39082899977757],[-76.46162999978719,39.39180699974394],[-76.46220600044568,39.39322900032485],[-76.46669499959974,39.39537300032637],[-76.46347000011903,39.40100499993955],[-76.45566899964902,39.40735999976422],[-76.46867300002384,39.415418999987786],[-76.47045100043138,39.4114539997151],[-76.47795599972707,39.41264199993328],[-76.47301999978598,39.419554000116015],[-76.47600499996547,39.420902999840024],[-76.48680999998324,39.420223000162046],[-76.4932489999723,39.42400499974541],[-76.49755300007675,39.42061200018978],[-76.50821800035243,39.423322999903085],[-76.51235099985433,39.42489599978126],[-76.51817999974803,39.431693000303305],[-76.52607699957919,39.42906099988227],[-76.53074899992966,39.423986000228865],[-76.53723200029965,39.421601999995055],[-76.54431599964586,39.4257279998186],[-76.54517500016156,39.43218600028819],[-76.54734100000833,39.432930999964164],[-76.54666399996582,39.43398099981614],[-76.5487190003828,39.436482999877015],[-76.55826800022484,39.43958799986923],[-76.55830900023273,39.44477399980379],[-76.5564620002282,39.44717900017278],[-76.55728999988344,39.44930600017616],[-76.55218999991081,39.45500599990037],[-76.54818899975508,39.46360600011583],[-76.54627300015356,39.46426100015592],[-76.54391899998582,39.471532000223185],[-76.54120400014307,39.47369799979692],[-76.5384059995613,39.480198999692576],[-76.54149100019823,39.48160999987354],[-76.5417489999411,39.48462000002072],[-76.54636199984202,39.48965700022988],[-76.55307100016783,39.487398000169776],[-76.55804999976664,39.49068800009303],[-76.55843599955602,39.49399500020588],[-76.56017700015366,39.49493300024509],[-76.55928400020106,39.49624299974692],[-76.56983700032377,39.49656899967405],[-76.5724729996255,39.50609500006056],[-76.56846700034522,39.506980999754],[-76.56968800036086,39.50777399982153],[-76.56899700007465,39.509429000346145],[-76.57381400019005,39.512428000063196],[-76.58155200001256,39.51095499967465],[-76.58797799958282,39.51094899991552],[-76.58957799971516,39.51239200018464],[-76.5959029999014,39.50960000013848],[-76.61321100038066,39.505912999719996],[-76.61592100020054,39.51077599982224],[-76.61515100027161,39.515902000033385],[-76.61809399971999,39.51869199982834],[-76.61374600013295,39.52734799999179],[-76.61659999989288,39.53384000032421],[-76.61585400025339,39.537260000161496],[-76.60985200010735,39.54860000027431],[-76.60333199992743,39.551480999788716],[-76.59923899971018,39.555990999748275],[-76.60819099987565,39.561259999840004],[-76.61106200025233,39.56535199989832],[-76.60977000009159,39.570505000130744],[-76.61119199994867,39.571986999900716],[-76.62307599969188,39.57314900001405],[-76.6239290003598,39.575484000271665],[-76.61648299971702,39.57720099973234],[-76.62137799965025,39.58367299991798],[-76.62001100004473,39.58452299982827],[-76.61423599967941,39.582145000153304],[-76.61111599978068,39.58469099970218],[-76.62138299967313,39.59300699975523],[-76.62777800017957,39.60243399982792],[-76.63502599955731,39.609132999873],[-76.63903799958369,39.60600500010325],[-76.64159199976795,39.606102999856446],[-76.64444700025113,39.60839700034572],[-76.64949799981997,39.61782700001193],[-76.65219000009651,39.617894000103966],[-76.652098000035,39.614259999678126],[-76.65486599958122,39.61629800005179],[-76.65645999986576,39.61409400018055],[-76.65941300025821,39.614808000170925],[-76.65667499995092,39.61944699967857],[-76.66175599965698,39.63642700023155],[-76.66084099996309,39.64043099986906],[-76.65791699988297,39.64199800020603],[-76.65815000040979,39.64426500015578],[-76.65564999975385,39.6473009996954],[-76.6617720004488,39.646008000186654],[-76.66245799981385,39.654154000233795],[-76.66479699991297,39.66031700005943],[-76.66796000036771,39.657716999891285],[-76.67543200005143,39.66002999972419],[-76.67090500036424,39.66445400012355],[-76.67398099988203,39.66818899996431],[-76.67510499981329,39.67331499992047],[-76.66709199963117,39.675961999810966],[-76.66551099976542,39.68122499998176],[-76.665826000308,39.68401200028753],[-76.67116099955896,39.68639700018935],[-76.67115499971118,39.68769400015766],[-76.66770500009957,39.68892999987129],[-76.66704700032365,39.692578999779876],[-76.6776539999747,39.6987849998154],[-76.67627200030057,39.702234999960204],[-76.68314499975958,39.70509200019896],[-76.68930199971635,39.7101630002198],[-76.69014000031565,39.714145999748645],[-76.69867999985415,39.7181700001726],[-76.69765800003015,39.72108799976693],[-77.21702400043134,39.71986100019117],[-77.21460999998914,39.71721800023403],[-77.21559599982812,39.712710000274264],[-77.22497099959291,39.71036499999016],[-77.22676599971889,39.70730599986143],[-77.22431899966475,39.70452600033537],[-77.21615900006785,39.7013539996736],[-77.21516900003088,39.6993569998138],[-77.21626100017508,39.69741299995112],[-77.22596800020088,39.69383899985321],[-77.24003100020963,39.69570299997076],[-77.2432680002842,39.69473100000752],[-77.2443379997888,39.69136800016256],[-77.23615100042771,39.68564799997764],[-77.23634899989612,39.68089600028907],[-77.2345379998766,39.67743399996019],[-77.24306200041987,39.669978000104116],[-77.24928299995074,39.66747700024414],[-77.25460600040445,39.66760199990339],[-77.25583900011564,39.66321099970912],[-77.26201100014103,39.665190000183586],[-77.26624300027544,39.662268999901755],[-77.26547099979835,39.65592400019714],[-77.27241399957758,39.65160100018514],[-77.27560700016953,39.647196000250545],[-77.27137500003514,39.64165500021122],[-77.27673000027589,39.63928600029837],[-77.27917300013209,39.63641900026013],[-77.27597299986743,39.63192799995826],[-77.29150399976405,39.63058199967697],[-77.2946549996249,39.6318830002933],[-77.3000619997442,39.63932599987183],[-77.30717399957781,39.641113999790896],[-77.31156200024614,39.63874899987551]]]}},{"type":"Feature","properties":{"GEOID":"2407","NAME":"Congressional District 7","BASENAME":"7","STATE":"24","CD119":"07"},"geometry":{"type":"Polygon","coordinates":[[[-76.78953500042887,39.35883199984689],[-76.79535900029968,39.35496999977632],[-76.76276299959808,39.3414760003345],[-76.75975400002746,39.333747999715435],[-76.75270400011811,39.33317399981061],[-76.75190200040213,39.329369999926584],[-76.75014200043623,39.32951399993818],[-76.74597100040118,39.32593799991832],[-76.7452960000085,39.32198599977296],[-76.74947000041658,39.32241600004752],[-76.75237500023016,39.31300400028245],[-76.74475100021044,39.312537000035654],[-76.74209099972096,39.291071000030996],[-76.73884600014877,39.28633499970489],[-76.7443109999944,39.28499399987287],[-76.74536799997851,39.28070099979134],[-76.73739300032953,39.27152199965582],[-76.73395399969027,39.27151300002827],[-76.73137299974184,39.265226999795665],[-76.73649700000391,39.26193700020256],[-76.72337100032867,39.24977800007392],[-76.7287230001964,39.24522499976982],[-76.72699400019263,39.23984499975642],[-76.72970599966234,39.23712999988612],[-76.7255620002898,39.23489100023572],[-76.72839099993537,39.22939500024895],[-76.71681799963848,39.225343000245566],[-76.7130950002154,39.221722000144545],[-76.70644600016405,39.2211739997088],[-76.70518400014055,39.21554800034368],[-76.70042499975143,39.21301499996692],[-76.69635699964854,39.21429499976504],[-76.69693199958382,39.21718299982629],[-76.69283300041711,39.219770000224685],[-76.68839299987025,39.221299999948975],[-76.68017700019684,39.22016299986765],[-76.66991500032728,39.228429999840124],[-76.66364299984447,39.23084100010824],[-76.64721899999529,39.22903599966886],[-76.6394040001799,39.2240290001693],[-76.63152700044023,39.22386099983494],[-76.61861199975387,39.23739799991948],[-76.61164899988316,39.23436199995808],[-76.58407699988454,39.20792100008887],[-76.56739600011738,39.20211699973283],[-76.55008599998831,39.197207000187646],[-76.52978499983195,39.20990699999214],[-76.52948600008122,39.21840799973261],[-76.51448400008913,39.20240599968229],[-76.37467900018214,39.15978699980907],[-76.3494789998946,39.15662300005969],[-76.33985100040985,39.1880980003311],[-76.3323589997363,39.204357000336564],[-76.3211129996776,39.21983699985364],[-76.2915799998716,39.250102000146846],[-76.35347300037763,39.23916699974981],[-76.37482700032014,39.23158899983103],[-76.39542999970197,39.23945000009983],[-76.39378100006417,39.24670699980163],[-76.40728099983322,39.24180699975021],[-76.42888199964793,39.24250700014174],[-76.43448200011107,39.244107000248675],[-76.44228199985785,39.25280600032831],[-76.44618199973128,39.26400599987447],[-76.4458820001556,39.274806000001114],[-76.44348199995711,39.280806000148054],[-76.45588299990926,39.28190599988697],[-76.4892779999538,39.301947000021634],[-76.51467300023502,39.30891500015593],[-76.51657399976791,39.31385300018985],[-76.51592400038788,39.31703999974451],[-76.5223180001711,39.32288799966176],[-76.5229790003201,39.32844599997655],[-76.52160699979339,39.32997199966354],[-76.52600799998223,39.33179799992137],[-76.52968500027285,39.33028000030427],[-76.52979300022788,39.3720579997791],[-76.60980500025168,39.37220000006619],[-76.60997699978081,39.35682000008961],[-76.61638800018078,39.35612100014816],[-76.61480099956894,39.3457889999462],[-76.62521599959938,39.345122000270194],[-76.62442800012708,39.331880000321064],[-76.64009999959067,39.32991500000981],[-76.64079699972467,39.332076000022504],[-76.64381600023935,39.331845999912815],[-76.64814899975781,39.33851499976865],[-76.64677299993147,39.350298000170035],[-76.6511609997015,39.360395999895076],[-76.65862700043574,39.355889000222554],[-76.6634889998587,39.355404000245606],[-76.66814000029277,39.362479000062294],[-76.67296699955561,39.36408000004519],[-76.6787729998831,39.37215000003717],[-76.7113129996099,39.371932999732365],[-76.71118600028659,39.35438300012274],[-76.71912400012565,39.357141999876866],[-76.72152599997396,39.36312400027171],[-76.72775499990072,39.36843600005557],[-76.74456200006456,39.37708599982026],[-76.74832499967061,39.36949900001561],[-76.75255799962993,39.367518000139235],[-76.77455500017808,39.365825999735954],[-76.78190100036343,39.35965900026888],[-76.78953500042887,39.35883199984689]]]}}]}