{"type":"FeatureCollection","features":[{"type":"Feature","properties":{"GEOID":"24","NAME":"Maryland","STATE":"24"},"geometry":{"type":"Polygon","coordinates":[[[-75.69367000023277,38.46007999979123],[-75.78870199979201,39.65048600022364],[-75.7885960003851,39.72219899970666],[-76.99090300023069,39.71979899992485],[-77.50680999990114,39.71987000000226],[-78.31513900013978,39.722877000200135],[-79.04554799968321,39.72288300027257],[-79.47666200009778,39.72107800030686],[-79.47656099981543,39.64273799967418],[-79.47776400028775,39.64228199992867],[-79.47886599957937,39.53168900032661],[-79.482366000318,39.53168900032661],[-79.48435300006462,39.345044000229834],[-79.48607200002265,39.34429999990489],[-79.48765100023856,39.27993299984695],[-79.4872739997717,39.265204999809775],[-79.48587399965591,39.2649050003253],[-79.48687499956353,39.20589600010885],[-79.47321499996092,39.20210699991805],[-79.4697929999384,39.20373400013469],[-79.46960399979251,39.207216000043665],[-79.46738699989214,39.208765000076916],[-79.460555000441,39.211555999921835],[-79.4533039997919,39.21046999965472],[-79.44742399984457,39.21568199994024],[-79.44064699974672,39.21650600021052],[-79.43298400026728,39.22388700034381],[-79.42571300042502,39.22531400027896],[-79.42405399984312,39.227398000076604],[-79.42522100033041,39.2344770002367],[-79.4206800003995,39.23542400011994],[-79.42026100009986,39.23888299984404],[-79.41221699995559,39.240193000256546],[-79.40833499962555,39.24506999989593],[-79.40945199988413,39.246199000263054],[-79.39966500039073,39.25150499977041],[-79.39838800029857,39.253407999906884],[-79.39955999991042,39.255041999838184],[-79.39500399991091,39.257074000005],[-79.39328499995287,39.26162700026279],[-79.39025799994059,39.2613639998134],[-79.38737599969326,39.263548999767586],[-79.3873380000584,39.267820000145136],[-79.38185700031926,39.26686500008244],[-79.37880900039058,39.27181799989773],[-79.37601400018187,39.27321700023267],[-79.35752499986997,39.27630500008953],[-79.35229600002589,39.28020200031566],[-79.35130799963875,39.28507100029776],[-79.34491499968044,39.28496900030365],[-79.34365600002997,39.287117999661],[-79.34738900039709,39.291102000131694],[-79.3460110000226,39.29395999973075],[-79.34037499957445,39.29367100000817],[-79.33264699979767,39.30012999986733],[-79.32624600034177,39.30107700002257],[-79.32126500019481,39.30000499975293],[-79.3170470003041,39.30403800021571],[-79.31394400012383,39.304706000031686],[-79.30343100018409,39.29962299993313],[-79.29039500002223,39.299452000328316],[-79.2901609996705,39.30351600014677],[-79.28388400006315,39.30984399978222],[-79.28422600036993,39.31548200024023],[-79.28213199959487,39.323273000335035],[-79.270425000302,39.32888200030712],[-79.2686800004047,39.33616300026961],[-79.26017400030308,39.334296999753505],[-79.25384999994176,39.337143999743866],[-79.25735399998001,39.34190699998841],[-79.2534800000459,39.34789599977202],[-79.25686799973322,39.35539299983333],[-79.25630799986655,39.357227000321664],[-79.2506010001716,39.35547199966193],[-79.24260999973079,39.35941500033703],[-79.23496300014489,39.35867699990448],[-79.23291899959855,39.35962199967646],[-79.23095500031646,39.36490499996295],[-79.21428000039711,39.36348200001514],[-79.21258499983021,39.37024800015205],[-79.20244400033448,39.37880199976095],[-79.19769099979317,39.38837299986582],[-79.19330300002315,39.38863199971678],[-79.1855690003986,39.38520799988976],[-79.17695899964158,39.389027999946336],[-79.18112800002682,39.39439399999931],[-79.17918399993789,39.396494999897826],[-79.17456900038715,39.39537900033493],[-79.16606499993534,39.387442999662106],[-79.16227100036716,39.38812900028754],[-79.1614779999737,39.39090200008875],[-79.16544800016729,39.395472000054774],[-79.16670500016794,39.400942999967164],[-79.16451199965867,39.40567899971551],[-79.159415999884,39.409543000061944],[-79.15946600011272,39.417036000182364],[-79.15535000032926,39.41829899980025],[-79.1512410002185,39.4169679996554],[-79.1495590000704,39.41372700034351],[-79.14997900019496,39.40607700005725],[-79.14673399972447,39.404539999801415],[-79.1437510000931,39.405202000179884],[-79.14113800035759,39.408682000074144],[-79.1418429999892,39.417097999727346],[-79.13649899961908,39.41888699991754],[-79.1298260001766,39.41730300006884],[-79.12744199987165,39.41817700005865],[-79.12904700002686,39.42954200006776],[-79.12403599974266,39.43320400024074],[-79.11273199995762,39.43085399975298],[-79.11082100037898,39.43185400011195],[-79.11212000021243,39.435510999935154],[-79.11686000033494,39.438857999958486],[-79.11388799967592,39.4435209999922],[-79.10777799957484,39.445896000124385],[-79.10281599969446,39.450482000043586],[-79.101805999566,39.4571650002247],[-79.10832999994388,39.45712400007732],[-79.10787899985716,39.4612209997106],[-79.10517400006016,39.463011999688625],[-79.09631200030637,39.46242099998015],[-79.09454200029475,39.46484900005493],[-79.0972780000539,39.4684560000428],[-79.10442000002476,39.47076499967135],[-79.10549200007748,39.47394399998477],[-79.1023830000494,39.47639400030024],[-79.0999600002847,39.476948999698386],[-79.09113000031797,39.47251999977989],[-79.08301699967843,39.47147299973415],[-79.069315000243,39.47396700009317],[-79.068033000128,39.47900800018692],[-79.06634199975908,39.47997099980588],[-79.0609770003709,39.47187699983639],[-79.05690400024514,39.47067199985062],[-79.05496500017908,39.47228799993443],[-79.0527480002787,39.48167799970223],[-79.04702499979189,39.483346000296066],[-79.04443200014786,39.47979500007563],[-79.03702300021334,39.47665299973836],[-79.03541999970795,39.46949299993627],[-79.03087600030231,39.46525399982047],[-79.01803099993619,39.46765600010618],[-79.01092400012543,39.461121000314655],[-78.9777349999452,39.44833299992476],[-78.969433999883,39.44325899965726],[-78.96568100032269,39.43847000021851],[-78.95657299962332,39.44033100007154],[-78.95595300038052,39.44783900015992],[-78.96054500036504,39.45103599986191],[-78.95429299997375,39.454703000279984],[-78.95896199995114,39.45975800015395],[-78.9589100000726,39.46283800020067],[-78.95241699965688,39.46358300005004],[-78.94249200007121,39.46894999983648],[-78.9385200002278,39.4745720002742],[-78.94253899992687,39.48062999968994],[-78.93429800013912,39.486283999742994],[-78.91672000022145,39.48631999997363],[-78.91324399977228,39.49459399969821],[-78.90776700023108,39.4978390000781],[-78.90408099971962,39.50407199970839],[-78.90551299962245,39.51154500002729],[-78.89239100014518,39.51327900001862],[-78.89113699961926,39.51821700008365],[-78.89310199962458,39.523995999687614],[-78.88891600041923,39.524912000155695],[-78.88705199979793,39.5229639999366],[-78.87874400006304,39.52127400011548],[-78.87514899978817,39.52266500005218],[-78.8693569997044,39.53179299990101],[-78.87137899961112,39.5356839997518],[-78.87068700039829,39.538766999727194],[-78.86143099956092,39.540964999888104],[-78.85205499997124,39.55097199965374],[-78.85097600024581,39.56010999996077],[-78.84722699998515,39.5625079998301],[-78.84326000016462,39.562784000058315],[-78.83924200029045,39.56700799997734],[-78.82945900009669,39.564993999715604],[-78.82193299998629,39.56062100033161],[-78.81584600034974,39.56288099999057],[-78.81322199984525,39.56720800010034],[-78.81485299993972,39.57128700018469],[-78.81990500023178,39.57633299970162],[-78.82620500030367,39.577335000229894],[-78.82572200042992,39.58917700016022],[-78.81933199994634,39.589889000303984],[-78.81786499988341,39.59185999985306],[-78.81839899981078,39.59405900009549],[-78.81187100013328,39.59799399996704],[-78.809028000244,39.60818199985541],[-78.80157499992853,39.60676299980787],[-78.79982300035854,39.605035000136425],[-78.79646200043541,39.60590199975409],[-78.7957850003929,39.61340200007086],[-78.8016440004238,39.62767700022256],[-78.79748300043451,39.629312000163644],[-78.79409700039702,39.63455899977083],[-78.79528200042763,39.63676599990071],[-78.79077099973564,39.63827499997215],[-78.78119500012944,39.63684599986402],[-78.7760030000953,39.64526199983883],[-78.76899300036892,39.64630700026695],[-78.7664070003976,39.64843199977227],[-78.76475299983859,39.64470700031266],[-78.76849200005351,39.63931500002602],[-78.77263499960114,39.636884999821184],[-78.77815800007141,39.625343999786736],[-78.77797700032144,39.62231900003881],[-78.76343700028671,39.61882699990259],[-78.74676700039024,39.62672199980037],[-78.7367959998755,39.62218699976634],[-78.73313399965348,39.614715000103736],[-78.73857900030592,39.60986000026506],[-78.74257999956335,39.60924499995773],[-78.74703099998088,39.60561200029991],[-78.74894400010766,39.60597400007474],[-78.75121700008454,39.609961000197295],[-78.76076400027674,39.610085000008525],[-78.76776300013248,39.608791999667424],[-78.77708400036886,39.603895000223986],[-78.77802199962896,39.60128499997172],[-78.77030999974573,39.595001000084444],[-78.7673360003352,39.58783899996774],[-78.76076699975148,39.582701999701065],[-78.75698599970377,39.58084900023126],[-78.75105300005302,39.581804999742985],[-78.74633200019706,39.57977800019539],[-78.7430979995972,39.58099699999292],[-78.74024100036254,39.586406000181164],[-78.73353399968657,39.586529999939195],[-78.73159399979562,39.57460999971544],[-78.72458900009211,39.56391899984586],[-78.71457800029272,39.5628170000648],[-78.70745999971301,39.55583900013833],[-78.69502399960078,39.55383499978318],[-78.69170700005857,39.55104899982812],[-78.68980300015261,39.54595600022098],[-78.68118999992087,39.54381299980333],[-78.67558100013521,39.54020700017062],[-78.66790900043493,39.54020100016726],[-78.66382299989039,39.53685200013305],[-78.65348599967777,39.53457099982229],[-78.63029800014951,39.53712999999502],[-78.62865100016151,39.53939000013436],[-78.62310099992708,39.539695000095094],[-78.6068750004446,39.535205999964546],[-78.60342099973674,39.53200699998745],[-78.591633000253,39.53689100029546],[-78.59000200015855,39.535815000265295],[-78.59219800014253,39.531696999926346],[-78.587606000158,39.52772100003079],[-78.57859899974096,39.52673100007819],[-78.56539199987488,39.51932699967246],[-78.55837399975259,39.52135299982936],[-78.54692000017971,39.52084099998241],[-78.52308599967274,39.52485399979448],[-78.50327900015913,39.518582000242105],[-78.49000299979775,39.5176499997814],[-78.48389400041988,39.5195520002268],[-78.4740119995936,39.516041999775005],[-78.46724999956434,39.517220999864925],[-78.46117200014862,39.52391200007175],[-78.46236700022502,39.53636200009785],[-78.45800399967102,39.53834899997121],[-78.4501880000307,39.538011000316736],[-78.44852199977615,39.54036599972452],[-78.4499190004172,39.54338499971758],[-78.46053399956585,39.546188999699],[-78.46194600027553,39.548950000191056],[-78.46111699989704,39.55083299987809],[-78.45035999955984,39.549829999880174],[-78.43785800022368,39.538515999824334],[-78.43462500034705,39.542188999915034],[-78.43655400036737,39.54824899974647],[-78.43911400039943,39.550791000040626],[-78.43771699975836,39.5533659996695],[-78.43151200012105,39.55228399982665],[-78.42452900015886,39.545180000188495],[-78.41948000023984,39.5456020000578],[-78.41701899994199,39.54856000023078],[-78.4263200000869,39.559221999884215],[-78.43739700009124,39.56313699979568],[-78.45427899969982,39.57408200027977],[-78.45803999965604,39.579707999892904],[-78.45677199978473,39.58760799988636],[-78.45040800013875,39.59055100033523],[-78.44349799997148,39.59133099999927],[-78.4260880002833,39.58613699970306],[-78.41829900040717,39.580931999720164],[-78.40738300006132,39.578607000205736],[-78.39971300001086,39.58070199991651],[-78.3948440000169,39.58515200015276],[-78.39620300012481,39.589279999769325],[-78.39888399963239,39.59159200007993],[-78.41161699984553,39.59744199982016],[-78.42548599968553,39.60767199994947],[-78.43354700044655,39.61820700010848],[-78.43329899985112,39.62069899978538],[-78.43013899976943,39.623415999691424],[-78.42050700008673,39.62407299978256],[-78.3964550000199,39.616436000120515],[-78.38394100008983,39.60898099981428],[-78.37561099971532,39.60830700014121],[-78.37204200027804,39.61186899992307],[-78.38335500028393,39.62291300022504],[-78.38236299969883,39.6277929998477],[-78.37378100032753,39.63037300010179],[-78.36050999998902,39.625433999982555],[-78.35550600027584,39.62611099974077],[-78.35345699970664,39.630568999662216],[-78.35925399981329,39.637208000253395],[-78.35801299970615,39.639783000032715],[-78.35532299997774,39.64066299973503],[-78.33523699990656,39.637359000257156],[-78.31085699977665,39.6306090001256],[-78.286029999758,39.621192000031684],[-78.26608799962685,39.61905499996139],[-78.26286300014614,39.6224790000735],[-78.26233800043958,39.63049499985107],[-78.25406699961631,39.64018399974972],[-78.2381070002726,39.652151999938475],[-78.22721100001826,39.65708500022011],[-78.22382499998075,39.66053899965787],[-78.22425299960292,39.663513999873196],[-78.23299999972897,39.67066199977609],[-78.23256799990882,39.67358299995763],[-78.22707899977377,39.6762470001244],[-78.20220400007454,39.67685600021533],[-78.1960250003765,39.682669000128456],[-78.19100800024452,39.69029999986772],[-78.18275800023594,39.69510999969192],[-78.17654199982964,39.695979000213],[-78.16265399972308,39.69391799992222],[-78.15430099978232,39.6906230002654],[-78.13981500017427,39.68981599967879],[-78.13151999995983,39.68678800020646],[-78.10531399974181,39.68168199970271],[-78.09704399964173,39.67821599972462],[-78.08952000007949,39.67144499998517],[-78.08055600021845,39.670501999873274],[-78.05421100008326,39.650986000091756],[-78.04814899966273,39.64350499978162],[-78.03732100007875,39.636983000131],[-78.02349900009442,39.621698999697216],[-78.01010899993022,39.603043999751975],[-78.00261200013213,39.600554000236286],[-77.97761199986114,39.59960800028142],[-77.97317899988526,39.6013170001806],[-77.96715800037094,39.607108999995425],[-77.96095799985817,39.608877999739626],[-77.95504000027603,39.60807799991626],[-77.95056899976701,39.603836000012215],[-77.95227600002946,39.59567499982474],[-77.9510330002725,39.58952799985338],[-77.94610200035427,39.58479200034106],[-77.94235599956836,39.584853000258086],[-77.93911400036922,39.58700100010778],[-77.93603700012821,39.59674700011921],[-77.9358610004011,39.60936500019348],[-77.93873500025252,39.61288799990029],[-77.94478900027711,39.61556599969028],[-77.9410850002223,39.61903499985276],[-77.93275999987065,39.61760899997629],[-77.92835399965895,39.61363000000706],[-77.92271999975895,39.60471100028535],[-77.89197299961,39.59775599974852],[-77.8853610002669,39.59767699979473],[-77.8811509998738,39.60097900003948],[-77.88117599998814,39.606369000069364],[-77.88699700038424,39.61359999991271],[-77.88491600002797,39.61583300017158],[-77.87426499999599,39.614078999889465],[-77.86392899960828,39.60879900001524],[-77.83740199989818,39.60568699982175],[-77.8322070003893,39.60144500017612],[-77.82968499999207,39.591083000138845],[-77.83335200023699,39.57115199986669],[-77.83608700017122,39.566662000313634],[-77.84322099974615,39.56446399976557],[-77.87854800018403,39.563408000228826],[-77.88691799984322,39.55996999973341],[-77.88873600043374,39.555409999993906],[-77.88602300024081,39.551688000245115],[-77.87164600041271,39.54428099978273],[-77.8652750001957,39.53841199992982],[-77.86613800001105,39.51839900007209],[-77.86475399978879,39.5158699998944],[-77.86117600013068,39.514292999731055],[-77.84943700015243,39.515595000171515],[-77.84194500037722,39.51842799983581],[-77.84056000033004,39.52914199966457],[-77.83696099985721,39.53211200024192],[-77.8322700001385,39.532340000247665],[-77.82473900000524,39.52848400009766],[-77.8234979998981,39.52378500022029],[-77.82579299961628,39.51671000004293],[-77.84660000011093,39.50455899975573],[-77.84784600024093,39.50182000022906],[-77.8453780002704,39.49810900015331],[-77.82756500017607,39.49308599993149],[-77.81936100019824,39.493548000185804],[-77.8028910003183,39.48946000029831],[-77.79156999991649,39.49095800021271],[-77.78215300031893,39.499036000193236],[-77.77090899991002,39.498935000140705],[-77.76634000039003,39.49623799969786],[-77.76554100014877,39.493427000168325],[-77.76727799965013,39.491271000158626],[-77.78780999978518,39.48546300001722],[-77.79719600031889,39.48013899979483],[-77.79800399988268,39.47523199989229],[-77.79538399957616,39.47124700027752],[-77.77760499981703,39.46225300020315],[-77.78060099986719,39.459843999870685],[-77.79267399975627,39.462064000316],[-77.7980060004308,39.46076900004981],[-77.79826900019654,39.45613100024798],[-77.7861209999644,39.447440000032564],[-77.78526499982173,39.44540300004472],[-77.78823900013059,39.44295000017471],[-77.80091100024438,39.440674000243625],[-77.80326899971176,39.43798999965949],[-77.80156999984523,39.43494299970688],[-77.79431599972138,39.430925000125505],[-77.77439899970459,39.427796999717586],[-77.7636830002736,39.42834799995412],[-77.75418799995991,39.424242999824834],[-77.74640300028175,39.40936900023232],[-77.73840699981807,39.39897599970949],[-77.73586900042561,39.391171999910384],[-77.73660900021733,39.38714800013626],[-77.74917599985083,39.38435299970621],[-77.75297699999001,39.38167899989774],[-77.75230900016834,39.37739800010635],[-77.743640999685,39.36466299979329],[-77.74351000016374,39.36003499982746],[-77.74759599980997,39.35132699975191],[-77.7596290004144,39.34477500022436],[-77.76100299969261,39.3409819999336],[-77.75923900042707,39.3369360000187],[-77.75572799981778,39.333938000008835],[-77.73469199989259,39.32706599971633],[-77.72484000010185,39.32143200028042],[-77.70767399991283,39.32172800014626],[-77.69300800037972,39.318437000103884],[-77.68649999989537,39.320198999761935],[-77.681722000138,39.32388800021799],[-77.67546700027195,39.32436000032254],[-77.66507999983061,39.316804999801526],[-77.6508989998211,39.31084600017651],[-77.64408400008838,39.30875000012064],[-77.63092499990287,39.307718999654334],[-77.61591000039031,39.30254799983351],[-77.60626600011372,39.30375999989125],[-77.5926199998565,39.30120100000081],[-77.57922499966944,39.30507999998754],[-77.56709300022912,39.306234000267615],[-77.56182800040004,39.3014689998089],[-77.56277499988097,39.29446899977193],[-77.56069000022507,39.28595999989432],[-77.55415599980145,39.28143100020659],[-77.55083199968823,39.2756880000047],[-77.54084000015541,39.26526900019202],[-77.52062400038785,39.258413000309275],[-77.51066799994175,39.25325600022603],[-77.49053800038793,39.24911200016985],[-77.48473100023554,39.24605200017031],[-77.47110500006978,39.23430299994164],[-77.45949699961281,39.227723999769786],[-77.45763899973764,39.224595000059466],[-77.45889800028642,39.22013399984879],[-77.46987800020636,39.212216999751945],[-77.47494300001891,39.20625399973221],[-77.47599499998016,39.2018269996531],[-77.47491500042982,39.196318000126475],[-77.47691600042015,39.191491999857234],[-77.4850790003901,39.18625600007805],[-77.504919000414,39.18228699987774],[-77.51030600044182,39.17927399988747],[-77.51860400013098,39.16773999969477],[-77.52464100043714,39.149382000099486],[-77.527680000145,39.144657999976864],[-77.52517500036451,39.12926600001517],[-77.52066799987048,39.12143499970913],[-77.515887999565,39.118651999994384],[-77.48540099970704,39.10930999982106],[-77.47895000002242,39.103410000266855],[-77.47349000019969,39.09404399991523],[-77.46865999966546,39.089389000071385],[-77.468823999697,39.085346000225464],[-77.46147300038709,39.07542600029567],[-77.45472899990119,39.07280700015795],[-77.43483799982366,39.07020199995296],[-77.42073399980703,39.06632899987529],[-77.39835399984254,39.06465699991646],[-77.38579399988174,39.06213200032837],[-77.34014400037324,39.06290899975049],[-77.33424400033442,39.06133000034045],[-77.33355100039839,39.059390000168044],[-77.31973000023896,39.053383999784806],[-77.30466200012464,39.051370000174245],[-77.29190899981998,39.04584899986068],[-77.27503700025714,39.03428400018716],[-77.25474600014653,39.02973299980363],[-77.24656800010797,39.02495999996067],[-77.24493899966333,39.02151599972633],[-77.24537999970428,39.017531000017186],[-77.2532589999921,39.00915799993006],[-77.2557510002521,39.00174899986305],[-77.25294000014988,38.99545099994894],[-77.24861400030413,38.99262399976577],[-77.24502999989993,38.98268400010231],[-77.23995000001877,38.98075399970999],[-77.23519599965253,38.976080000250604],[-77.23232799964889,38.979288000094414],[-77.22995000009003,38.97970900028319],[-77.22374899975235,38.972119999666674],[-77.21152000022765,38.96934399977396],[-77.20813800038812,38.97024700028906],[-77.19777400041131,38.96673999988405],[-77.19409399974762,38.968228000168274],[-77.18144699974818,38.96878800002789],[-77.16980200037959,38.96631500007514],[-77.16469499983594,38.96774800015725],[-77.1487730001271,38.96503599989751],[-77.13599999973096,38.95436499965201],[-77.12865400044392,38.9413980002227],[-77.11975900017987,38.934343000278616],[-77.04088199995799,38.99584500030949],[-76.90939300018182,38.89285200026212],[-77.04046500020648,38.79040499975551],[-77.04226799983007,38.741155000035505],[-77.04347799997508,38.73924099977358],[-77.04158999996267,38.73681700022977],[-77.04146899958883,38.72584700000716],[-77.04334400008078,38.71844000018867],[-77.04619600019089,38.71443099995305],[-77.05352200028474,38.709803999975556],[-77.07143300028835,38.709980999813745],[-77.07430399976673,38.71290199988928],[-77.07923200021024,38.713052000087686],[-77.08079999965719,38.711125000313],[-77.08003700029926,38.70892399994597],[-77.09827200016798,38.69905300016018],[-77.10376499960267,38.69785999989506],[-77.12263200020638,38.685255999818416],[-77.13243899979128,38.674142999824205],[-77.13642300022856,38.65022600034473],[-77.13629299963391,38.647231000283796],[-77.13293199971078,38.644714999840104],[-77.13350699964604,38.64252499976241],[-77.12968200011572,38.634703999859774],[-77.16636500028848,38.62510599967789],[-77.18027199976329,38.62324599979031],[-77.1914869998599,38.619174999853236],[-77.20369600019141,38.61817200014346],[-77.24636200024364,38.59344100015755],[-77.25645400023389,38.56058699979966],[-77.2612489997097,38.55935799965508],[-77.26197299960788,38.556333999931674],[-77.27294800040329,38.55124399977225],[-77.27612199983035,38.54741999996227],[-77.27633899956534,38.53944500033749],[-77.27897399994048,38.536509999775845],[-77.28291399999682,38.525558000268866],[-77.28729400026924,38.52146300003598],[-77.28530900017245,38.51969499973143],[-77.28712100001688,38.5204009998522],[-77.28973799995035,38.518055999853296],[-77.29577600008142,38.50738400022582],[-77.30308399973362,38.49918800032105],[-77.30963800024871,38.49563600002913],[-77.31531599963137,38.47854900029292],[-77.31854199983529,38.474437000131466],[-77.32039999971047,38.43522099998837],[-77.32300900014634,38.43345399987089],[-77.32210600014801,38.42894400008198],[-77.31878600023275,38.417671000274936],[-77.31044499998758,38.400101000262346],[-77.31083599979982,38.39688200027709],[-77.30493800030916,38.37527100022615],[-77.29679200005765,38.37050000004807],[-77.28819499971944,38.359384999930434],[-77.28726400013201,38.35309199969392],[-77.28840700032985,38.351401000255265],[-77.28379600007875,38.342855000262475],[-77.27658100031297,38.33788100031221],[-77.26529500007126,38.333163999740115],[-77.24714899989101,38.33152300001071],[-77.23520800024642,38.33253600001077],[-77.20469399972598,38.34109599982758],[-77.17933899962773,38.34191400004789],[-77.16321899955217,38.34582299982208],[-77.15836700017496,38.34850200027274],[-77.13822400020236,38.36791599964826],[-77.12469900031896,38.36675999982932],[-77.10487400036365,38.36974599977286],[-77.09008900010654,38.36727500008384],[-77.08423799957323,38.368738999667144],[-77.07055000038152,38.37815099968128],[-77.05342000017748,38.39881300012781],[-77.04150499957385,38.400691999771816],[-77.01801900011975,38.38160100030223],[-77.01146399977974,38.37442499965466],[-77.0159109999993,38.37102399981751],[-77.01464800015087,38.354043000192284],[-77.01680700032495,38.341687999987116],[-77.0143479996769,38.337723000171486],[-77.01452699977706,38.332633999875824],[-77.03068299983762,38.31162200019015],[-77.02876499968798,38.31138200006059],[-77.0281310002015,38.305316999818544],[-77.02350800025482,38.30145500027764],[-77.01644900012465,38.2988370001844],[-77.00090200033453,38.28000400033383],[-76.99086899989553,38.273638999972995],[-76.98134599999274,38.27454199968295],[-76.96208599992697,38.25696400011916],[-76.95692300020515,38.23747200029578],[-76.95809900001495,38.23405800026823],[-76.96225099978344,38.229888000156826],[-76.9490199996279,38.20841799971564],[-76.93683799995885,38.202384999922124],[-76.91617699995238,38.19973500003349],[-76.9111299996832,38.197357000269605],[-76.87674399977678,38.17301900024704],[-76.85883600014623,38.17099899974659],[-76.85426099988013,38.16730199971191],[-76.83936799966799,38.163608999821626],[-76.82428399966014,38.16364600004163],[-76.79988699981179,38.16893299970028],[-76.76397299974307,38.16779099984873],[-76.75141699998024,38.16468900002581],[-76.69026599981403,38.16054899982673],[-76.63597200011165,38.1525599998867],[-76.62916300022673,38.15348300024442],[-76.62132999996967,38.15063800010422],[-76.60543000000213,38.148933000097145],[-76.60497200024273,38.14798999975017],[-76.61038400038491,38.148516000256066],[-76.60172099992445,38.12512900023025],[-76.60046700029685,38.113087999779154],[-76.59615599962139,38.106676000249685],[-76.5880799996901,38.102208000180696],[-76.58156799990608,38.095908999895265],[-76.55662899973446,38.085873000076546],[-76.53645700034784,38.07490300014254],[-76.53419100004363,38.0635389999172],[-76.52635799978658,38.05310799974666],[-76.51616000038943,38.044919999813416],[-76.516608999928,38.026782999900526],[-76.49197600007813,38.017714000125636],[-76.48089400005091,38.01527699966723],[-76.47339700025283,38.0162319999187],[-76.46500800032709,38.01322000030328],[-76.4338999996048,37.98184700007821],[-76.42545999962542,37.97687099982065],[-76.4129339999998,37.96633199995898],[-76.38901199962932,37.958349999964064],[-76.35932499983755,37.95227300021153],[-76.33337200023783,37.94295599993091],[-76.26181199988898,37.90878599984167],[-76.24790600023906,37.89486899984037],[-76.2407769997887,37.890625999936994],[-76.23657200031677,37.8901460001092],[-76.23645799961562,37.886604999729734],[-76.12466099972536,37.92870799990045],[-76.0520209998262,37.953577999979046],[-75.99333799963055,37.95348700006331],[-75.94369299981409,37.946132999695166],[-75.95267199974374,37.90682699975086],[-75.88293900020626,37.91133500000944],[-75.8012400000115,37.912174000344],[-75.76164199997943,37.941365999764386],[-75.70463400025922,37.95469799995367],[-75.6913210000879,37.955496000035744],[-75.66529999981779,37.94951100026231],[-75.65568099965557,37.94543299979535],[-75.64770000015882,37.94696300029594],[-75.64822800023842,37.96677099985753],[-75.63822199956357,37.97939499989824],[-75.63573500022476,37.97953400030592],[-75.63200799970542,37.97601799988599],[-75.62953200023725,37.975962999979146],[-75.62885299964661,37.97779499990651],[-75.63383200014373,37.984517000154504],[-75.63086799988062,37.98781600032202],[-75.62561100044746,37.98979800029144],[-75.62444899998306,37.9941949998984],[-75.24960900024313,38.026715000081225],[-75.1664349995895,38.027834000070314],[-75.13520000044225,38.074469000135615],[-75.12462499967994,38.09390100000776],[-75.08781299963574,38.18935600021897],[-75.04145699977242,38.28700899973378],[-75.03129500036027,38.29473699966347],[-75.02080499998678,38.30975599977982],[-75.01909500024959,38.321424999975875],[-74.99962500012154,38.37166800021313],[-74.99962500012154,38.382970999917596],[-74.99334699979096,38.406447000228184],[-74.98628199981302,38.45163199977536],[-75.41088000024563,38.45229699973865],[-75.69367000023277,38.46007999979123]]]}}]}