{"type":"FeatureCollection","features":[{"type":"Feature","properties":{"GEOID":"2301","NAME":"Congressional District 1","BASENAME":"1","STATE":"23","CD119":"01"},"geometry":{"type":"Polygon","coordinates":[[[-70.98912199998587,43.79208100006989],[-70.98346100032167,43.73417699992527],[-70.97275900023605,43.57038300029661],[-70.96989600025528,43.568554000272286],[-70.96671199988415,43.569437000161685],[-70.9628299995541,43.56339399987109],[-70.95725299955548,43.561338000097656],[-70.9549029995857,43.55404500008487],[-70.95063199999154,43.55131299981352],[-70.95363300006457,43.544166999988775],[-70.95350400019313,43.54060300006902],[-70.95591299971416,43.54209400003746],[-70.95879699961131,43.54059899989156],[-70.9621540002348,43.5410870000492],[-70.9614210001158,43.54019399992115],[-70.96380200004772,43.53937099993218],[-70.96247399990195,43.5342049998297],[-70.95775899989377,43.53149699985443],[-70.95679800016913,43.5241040001286],[-70.9539440004092,43.52227299998951],[-70.95679800016913,43.51278200001593],[-70.95466099973636,43.50930299996599],[-70.95797300015401,43.50803700024834],[-70.95884299964206,43.499369999678485],[-70.96433599997509,43.49714200017848],[-70.9644280000366,43.49347999985918],[-70.96828899955194,43.489451999747736],[-70.96941800040439,43.48563000024086],[-70.96752600019401,43.4809449998056],[-70.97214800031577,43.47832799985667],[-70.97603999979324,43.47842799988767],[-70.97033300009828,43.47313299976507],[-70.96458000037258,43.47331600023992],[-70.96111599961895,43.46918800031713],[-70.96033800019241,43.466182999997635],[-70.96662599967043,43.45127399987264],[-70.96589599992446,43.4477939996915],[-70.96153599974352,43.44318099981598],[-70.96097900024992,43.438389000179924],[-70.96879200041549,43.4345970003084],[-70.96970700010938,43.42690699968266],[-70.97561200017107,43.42188699970336],[-70.98127299983528,43.42087199990225],[-70.98708699966033,43.41307500022995],[-70.98591300039868,43.410480999834725],[-70.98650800042545,43.403980999789184],[-70.98229700020744,43.398281999967125],[-70.98266299990532,43.39457400009588],[-70.98717899972186,43.393536000002904],[-70.98788099987873,43.38993499970597],[-70.98546999980957,43.38634899989319],[-70.9856680001763,43.37917800002264],[-70.98270999976098,43.377806000037744],[-70.9835490001852,43.376332999820356],[-70.98101400026749,43.37336399987097],[-70.98104500022963,43.37072500018801],[-70.97648199965911,43.36720700014114],[-70.97459000034705,43.36357599981801],[-70.9781000002331,43.358379999845845],[-70.9760239998997,43.35836499980061],[-70.97202699994193,43.354633999918505],[-70.97304899976595,43.34881299975149],[-70.97141400037185,43.34876899981348],[-70.97094300019364,43.35049899983566],[-70.96744900020111,43.34923999986897],[-70.96650299964676,43.34780600030744],[-70.96879200041549,43.34641000026726],[-70.96795299999127,43.34457900015087],[-70.96430599983786,43.3432209998401],[-70.96339000031907,43.340909000163236],[-70.95949899976819,43.34097800019616],[-70.9562330002796,43.33411100023212],[-70.95250999995822,43.33335600006695],[-70.95014499991983,43.33570600010954],[-70.94675700023251,43.334714000182814],[-70.94618899996993,43.3360259999592],[-70.94199700001847,43.33521000021167],[-70.93749500044565,43.337536999953535],[-70.93282599956993,43.337223999768554],[-70.9307960001656,43.336163999937526],[-70.93395500042239,43.33536299993781],[-70.93123899985638,43.333326000017976],[-70.9308880002271,43.32954900007638],[-70.92420400001566,43.32729899982191],[-70.92621900024969,43.32597100031858],[-70.92281599959546,43.3260320003183],[-70.92483000000456,43.32501699992686],[-70.92438700031376,43.323849999849244],[-70.91915400027173,43.324445000157745],[-70.91825399974815,43.323056999920254],[-70.92035900039386,43.321210000078004],[-70.91680400030197,43.32207199988398],[-70.91636099971285,43.31969200012259],[-70.91141700027414,43.31972300031292],[-70.91355399980858,43.318189000321524],[-70.91179800004065,43.315733000160115],[-70.9153999999882,43.3154119999162],[-70.9112950000754,43.310438000057204],[-70.91375200017531,43.30889700014518],[-70.90703700000172,43.30466199998576],[-70.90372600030729,43.30628700014138],[-70.90143700043689,43.30284699981121],[-70.90204800035715,43.30135900023172],[-70.89631099962668,43.29843699983955],[-70.89776000014625,43.29672000032397],[-70.90393999966922,43.29678100026806],[-70.9074789998676,43.293329000218016],[-70.90435200029619,43.291211999754005],[-70.89731800028038,43.2927219998638],[-70.89632599969526,43.29210400020001],[-70.89931699972257,43.28788699993447],[-70.89673800032223,43.28534500030967],[-70.88720000035086,43.28271999981071],[-70.88361500012174,43.28343799976437],[-70.88584299989279,43.280813000033525],[-70.88265400039708,43.27891299971629],[-70.88381299959013,43.277159000090684],[-70.88309600026297,43.27303100030803],[-70.87429100041061,43.27185600019855],[-70.87006500012397,43.2661340002131],[-70.8628930000159,43.26479899998781],[-70.85745999995733,43.25581200001898],[-70.85510999998755,43.25505699999312],[-70.85208899982304,43.25672700029826],[-70.84282700003617,43.25422499979249],[-70.83957599971791,43.251341000315506],[-70.84108700016176,43.24812900027326],[-70.83840999995385,43.247208999925824],[-70.83792899972991,43.24243799996329],[-70.82743099985879,43.24338400013125],[-70.81782599994025,43.23815600031212],[-70.81548199981827,43.23351899998976],[-70.81720699962406,43.229345999984076],[-70.81226300018535,43.22867400026298],[-70.80952499987806,43.22488199983137],[-70.81354500030037,43.21996900000723],[-70.81287300028072,43.21735300004372],[-70.81691700009416,43.21452999968347],[-70.81656599956656,43.211318000258935],[-70.82067100037767,43.199491999914585],[-70.81928200013255,43.19299199994475],[-70.82825500021441,43.187788999851485],[-70.82356899962022,43.1742390000186],[-70.82778200038639,43.17043200020373],[-70.82865400042259,43.15983000001684],[-70.83360999955686,43.14610599980147],[-70.82708000022953,43.127395000108145],[-70.78386400035639,43.100959000153836],[-70.77968800029846,43.096248000190016],[-70.76589200025339,43.09249500014174],[-70.75641200000834,43.08017700027311],[-70.7430329997148,43.07797300024438],[-70.73796899972717,43.073728000179635],[-70.7063100002574,43.075338999831914],[-70.70119699986597,43.045240000071075],[-70.63071399959273,42.98528599991779],[-70.61115200030146,42.97899000013694],[-70.58759300015413,42.94918800024181],[-70.58185499959872,42.938318999854495],[-70.5750940002927,42.91712599993515],[-70.56594100028579,42.92089399998234],[-70.55298299994173,42.929253000249346],[-70.54023100036031,42.944031999989036],[-70.53598800035523,42.95617100021632],[-70.53474899989793,42.98847899969516],[-70.53148300040937,42.9941629998398],[-70.52888200036939,43.00576900001179],[-70.53254200004329,43.019993999679535],[-70.54217999957378,43.03403899981869],[-70.55213299964684,43.043044000085835],[-70.55835300025112,43.04726399992255],[-70.57306999983784,43.05289100031014],[-70.5996579996473,43.05693900001907],[-70.5906260000142,43.0673600002339],[-70.5821629995703,43.09548699976931],[-70.57316000024952,43.100530999882054],[-70.56196199987136,43.10990100024235],[-70.55742000011554,43.11465699969932],[-70.5557620002569,43.12150499976309],[-70.54012699970492,43.13054699985861],[-70.54040500043757,43.11963799989764],[-70.53742299973281,43.10585199988985],[-70.53434499966689,43.09905499973052],[-70.5250800004053,43.08927800019756],[-70.51043400006537,43.08011799988002],[-70.49301400033144,43.07304299985457],[-70.47724200041041,43.0710190003277],[-70.45907199994072,43.07147800004246],[-70.43977199969197,43.076541999672365],[-70.43057100000449,43.08021799974552],[-70.42107700041404,43.086653000121785],[-70.40624299975312,43.10209199979451],[-70.40412799995998,43.1093560001511],[-70.40339599966589,43.12509000015075],[-70.4072269999423,43.138438999807185],[-70.41964399978798,43.15255099997954],[-70.44093800035434,43.16663999979414],[-70.46494100001738,43.17080199990076],[-70.48636199990703,43.17026399967931],[-70.49949400032837,43.16685099989515],[-70.52167500010123,43.154882999858785],[-70.52085400011867,43.17456999985162],[-70.52291799985818,43.17889399974058],[-70.51994000024969,43.1829440003213],[-70.51966599971499,43.191014999697714],[-70.51347699997119,43.196075999811825],[-70.51118499972773,43.20120700009617],[-70.50632400012968,43.218829999852424],[-70.50627800009893,43.224908000260804],[-70.51238300017715,43.24271100021156],[-70.52083099965412,43.25210399989033],[-70.5148150001627,43.255565000037315],[-70.50218800025473,43.268125000004986],[-70.49728800029864,43.274361999713285],[-70.49323000024151,43.28682900010524],[-70.47327200021681,43.29100100012995],[-70.46547400011985,43.2894779999563],[-70.45531400035755,43.290346999693995],[-70.42180799998492,43.297494999736884],[-70.40093199989329,43.30829099975312],[-70.3967070003299,43.31246500020211],[-70.38537800043048,43.31528099995661],[-70.36739700010666,43.32331700024472],[-70.3516369998812,43.339100999920696],[-70.34678700015381,43.34962300027647],[-70.34618499955606,43.35818299969638],[-70.32177400036234,43.384957000060105],[-70.3189480001915,43.39013799975766],[-70.30287099977365,43.39589700018232],[-70.2803970000978,43.4087380002192],[-70.27399200044394,43.41515300029624],[-70.26843299998868,43.42635100019967],[-70.25966400012132,43.432013000002144],[-70.24359599992428,43.448373999713255],[-70.19974700038956,43.48422800008538],[-70.16414600031527,43.518563000298634],[-70.15598599982006,43.524443999803204],[-70.13660600010371,43.53346800020253],[-69.85521200003438,43.6469469999507],[-69.84167399973217,43.64493599973317],[-69.82752299985987,43.64495899974806],[-69.8088260000338,43.64733999968676],[-69.79358999968998,43.65313999980618],[-69.78657599976566,43.65813100015902],[-69.77579699968716,43.65558600028865],[-69.74948800043526,43.65398500010971],[-69.73039599970068,43.65727300010279],[-69.70833700012656,43.66822200031679],[-69.69922000010466,43.67586000017911],[-69.6933929998608,43.683380999827385],[-69.68632899970775,43.698200000210086],[-69.67326800032984,43.70418200010768],[-69.66474499961147,43.71174800021835],[-69.64404799962,43.703575000081315],[-69.61728800028139,43.69981400002582],[-69.60775600015779,43.700399999913984],[-69.59670300044291,43.70329000030019],[-69.584573999579,43.70199599998493],[-69.5666180002679,43.70282999973212],[-69.55093800040837,43.70714400015835],[-69.53530799987925,43.71453400015581],[-69.52449299981572,43.723973999720435],[-69.51908999989439,43.7321219999],[-69.5141620003492,43.75008500029285],[-69.51582600005563,43.76097499970061],[-69.50749099965823,43.77235700022677],[-69.505785000119,43.778456000311294],[-69.48038399999001,43.78815899979567],[-69.46986799967723,43.7939009997096],[-69.409269999705,43.81081700018335],[-69.40057899965545,43.80452900029391],[-69.38727899990295,43.799015999850674],[-69.39531300000147,43.780257000165896],[-69.39721000023472,43.763371000034326],[-69.38758799969942,43.73610499980603],[-69.36886099973613,43.71852799994472],[-69.35637799976821,43.71088000007238],[-69.335093000321,43.70448499972335],[-69.32348999988687,43.70366900004469],[-69.3089530002252,43.705012000323215],[-69.28294799984862,43.713766000038206],[-69.26202699955115,43.7254260002583],[-69.24493599970519,43.74077600020309],[-69.23809699968305,43.750084000323035],[-69.23338000002506,43.76231599989834],[-69.23327600026799,43.78096199994724],[-69.2425349996818,43.799761000094136],[-69.26234000044391,43.81537399996813],[-69.24949000005489,43.81914599998718],[-69.23655400035044,43.82562599981439],[-69.22656299974422,43.81220300016526],[-69.20682400000265,43.79995899990095],[-69.19719899999265,43.79599200009592],[-69.17104200017842,43.793193999691795],[-69.14982499960493,43.79573500025454],[-69.13101499980097,43.80313399970058],[-69.11890000007908,43.810968000303916],[-69.10562100024298,43.81409300027971],[-69.09421199997762,43.81889899979234],[-69.08300500027693,43.82564699987392],[-69.06493500026465,43.841908000087436],[-69.0580109998537,43.852458000124194],[-69.05589400041075,43.85891099967904],[-69.03427199978132,43.84638200015771],[-69.02278399987324,43.84250700004715],[-69.02474399985569,43.834210999941675],[-69.02429500031712,43.819841999684726],[-69.01790900003151,43.80785400024309],[-69.00992199978866,43.79843600004459],[-68.99667899993756,43.79005700025611],[-68.98115999973652,43.78378599982394],[-68.94983600000249,43.78016999990095],[-68.94443599955589,43.76787000019308],[-68.93816899999428,43.760337999754825],[-68.9255179997969,43.750088000202176],[-68.90490299982116,43.741939000299915],[-68.89030699970994,43.73943699980945],[-68.87064599978618,43.73356499998985],[-68.84910100004795,43.73238399992752],[-68.82691600007713,43.73571100017722],[-68.80536100029316,43.74598299985628],[-68.79777800028137,43.752881999702645],[-68.78613899986225,43.768363999897005],[-68.7822440000117,43.77753700011576],[-68.78121899981464,43.78514400022055],[-68.78180999964344,43.79272399987871],[-68.78532399972744,43.80433899970803],[-68.76449299984168,43.81901299990954],[-68.74947300030624,43.83253099967772],[-68.72431499985149,43.834592000153584],[-68.71275400014848,43.83839900000393],[-68.68465999991803,43.85464700004972],[-68.66943299979505,43.86957599969762],[-68.6649870002987,43.88050200011036],[-68.66378899984926,43.89392599998406],[-68.66872099959241,43.90882600022624],[-68.67925799982159,43.92345500005914],[-68.6869460003137,43.929808999931],[-68.70699800004972,43.939182000269476],[-68.7261950003663,43.94337599973756],[-68.7426490003527,43.943146999981046],[-68.72147799980999,43.961937999741515],[-68.70719100039358,43.96382699975587],[-68.68968000042305,43.954198999687875],[-68.65958600002718,43.94799099985244],[-68.64100899985169,43.9493619997111],[-68.6187259999716,43.955894000043436],[-68.59416400026682,43.953730000225065],[-68.5683880002191,43.9579699997961],[-68.54727699995082,43.96861999972827],[-68.53814999988319,43.97696000017782],[-68.53071500000938,43.98662099972413],[-68.49310600027209,44.01055799975133],[-68.48741499957234,44.01778300021118],[-68.48463500033057,44.02832600027126],[-68.49948099978873,44.07384100012684],[-68.51535800019006,44.078600000219765],[-68.5416630001423,44.098327000191944],[-68.5496269999206,44.11035100008018],[-68.54875499988442,44.129885000050905],[-68.56306499976537,44.13095800028572],[-68.57934800004757,44.128749999910525],[-68.59601299992119,44.11756500011693],[-68.61113200008913,44.11291299989676],[-68.62832800041541,44.11378500010063],[-68.65380599963898,44.12025299988084],[-68.6784989997633,44.11742600010328],[-68.70024299969316,44.12001100001701],[-68.71802999984821,44.11523500009103],[-68.72991600013955,44.116712999889856],[-68.7413250004049,44.12240700011233],[-68.75348699998246,44.133998999950016],[-68.7572000002581,44.14041699991258],[-68.76495499979903,44.16377000029633],[-68.77587199996981,44.17847599990139],[-68.7960280003612,44.188576000285664],[-68.81249300021827,44.20084700024829],[-68.82115199958245,44.20272500009676],[-68.83047000034414,44.20996400031587],[-68.83559700008094,44.20945400001898],[-68.85303600008143,44.20216699995706],[-68.8709989999636,44.19881699985147],[-68.89638400019906,44.20993500021289],[-68.91663799960143,44.16666699968107],[-68.99999999967773,44.166739000277666],[-69.0048419999075,44.20316200013273],[-69.01321400011483,44.21055800026097],[-69.02836800044288,44.2490069999027],[-69.04310500012109,44.259549999868],[-69.12162199959454,44.25564400026301],[-69.26888200036514,44.364653000170534],[-69.34661600038918,44.30833699972754],[-69.39436099959934,44.34293400010704],[-69.3967730003917,44.34056700004555],[-69.40226900019945,44.343058999680935],[-69.40908300010726,44.33639999986106],[-69.40456899994054,44.3329410002212],[-69.40963499957799,44.32799800003064],[-69.5063819997956,44.34287000010381],[-69.44549799959307,44.46383899968265],[-69.39598699967094,44.457077999734835],[-69.37241900020108,44.54458500009571],[-69.41684000019633,44.55107999997714],[-69.39312299986526,44.64037500013058],[-69.46125100014584,44.64739799990964],[-69.45964000014287,44.65121699995402],[-69.46084600008989,44.654971000037655],[-69.45707799956266,44.658600999912196],[-69.45594799978362,44.66222000004235],[-69.4479489998452,44.66217500022259],[-69.4429359999112,44.67238100009903],[-69.47559899966164,44.676678000176295],[-69.47731799961966,44.6920610002664],[-69.47171200020703,44.69289900004343],[-69.46753100012624,44.70798600001449],[-69.47319900036145,44.70874199983598],[-69.47038200041145,44.71816100026843],[-69.48379400031695,44.72023799993564],[-69.63311799992874,44.70037300002936],[-69.63269799980417,44.69066199988631],[-69.6299610002201,44.68453799997754],[-69.62878600023522,44.672678999778626],[-69.62215599955213,44.665521999792],[-69.61755000022222,44.656985999716156],[-69.61428100036059,44.654186000210316],[-69.60556799967141,44.65104499995201],[-69.57909399966478,44.626970999897466],[-69.58055400005502,44.62040000022543],[-69.59274499994488,44.603430999815515],[-69.59258900030927,44.59787700031372],[-69.58927400041688,44.58976500019304],[-69.59090999963591,44.584570999831094],[-69.59310499979499,44.582191999802454],[-69.60574599994665,44.57726399987839],[-69.66764100010252,44.58570999997992],[-69.67017600002022,44.580010000271464],[-69.66706699999216,44.578226999901624],[-69.67115699983636,44.566244999950015],[-69.66700099986991,44.56579999986786],[-69.6695409998105,44.55796199984384],[-69.71842699956866,44.51336600019581],[-69.71988199993604,44.50750300028401],[-69.67656599960549,44.50046999999768],[-69.68367099976639,44.48114000025718],[-69.68326700043367,44.47561000022726],[-69.687015999796,44.457950999819104],[-69.69620700033606,44.442145000102165],[-69.70158699979288,44.42688800003034],[-69.71339600009132,44.41188800017938],[-69.72092999969932,44.40784400004751],[-69.72670199969161,44.40005100018578],[-69.72959200033486,44.39090799970536],[-69.72700600036355,44.38058500016229],[-69.72904199961565,44.37774999984244],[-69.62569999977337,44.36180199971879],[-69.66544099992055,44.227575999926344],[-69.67458600042988,44.22903500007224],[-69.67380499973197,44.231352999966546],[-69.68016099988034,44.23230199979895],[-69.68147200030766,44.23395499994045],[-69.68819499997886,44.23490499985238],[-69.68942000019246,44.231260000027824],[-69.72361399957995,44.236787999708476],[-69.72513900026753,44.231134000208684],[-69.73570499991071,44.22731600027178],[-69.74405600020161,44.22543000009395],[-69.7541509996666,44.22792099993562],[-69.7589810002008,44.22423299981664],[-69.76255999968383,44.22379499993302],[-69.76031299964622,44.21824699982596],[-69.76270000032424,44.20336199979004],[-69.75447500043,44.192904999746546],[-69.75221400014868,44.18406599994155],[-69.75611800022004,44.17000399968892],[-69.76339999993299,44.16404499997179],[-69.76356599961431,44.153217000029464],[-69.85498299970553,44.167862000257195],[-69.84831899958556,44.17011699998326],[-69.83270800022133,44.191100999730196],[-69.82400200010316,44.193612999711036],[-69.80693299999852,44.20538100006655],[-69.80591299982433,44.21112800029929],[-69.80153900029802,44.213288000164425],[-69.80582599978568,44.22111900015456],[-69.8073050004425,44.22102600014036],[-69.80004700012071,44.24246400010247],[-69.84718999963142,44.238595000273776],[-69.84565499979644,44.24339099969661],[-69.85554199974725,44.24645899978439],[-69.84817200017078,44.251600999752974],[-69.87741600027178,44.25634100000214],[-69.87618600003529,44.25800699978409],[-69.89023499980034,44.26036500007706],[-69.88871900023192,44.26383899981005],[-69.9020950001524,44.26589899977227],[-69.9013970001935,44.26725999997043],[-69.92324200040568,44.27093399982635],[-69.93741800039233,44.267676000021645],[-69.96837300005541,44.17618000005441],[-69.99379199972776,44.18059399982694],[-69.99879600033924,44.166833999793774],[-70.01032899955484,44.168651000003265],[-70.01395399996694,44.157580999932996],[-70.01850099974563,44.15785100028464],[-70.02738599996394,44.13057699976152],[-70.01173200004368,44.128011000110995],[-70.01243500002546,44.12543399980265],[-70.00547100032986,44.12451899973268],[-70.02724600022185,44.0433580001621],[-70.02512700023075,44.036364000247175],[-70.0291500001278,44.03048400023121],[-70.03302700043497,44.030431000139345],[-70.03222399999575,44.02978600031662],[-70.03426299962092,44.02966399997433],[-70.0365349997729,44.02680299983625],[-70.03526199987871,44.02310500024332],[-70.03279899993102,44.02126400009528],[-70.03831599965518,44.01821100030286],[-70.03624500024297,44.01650999981702],[-70.03717800037853,44.01515999974953],[-70.03413899977237,44.00958299982913],[-70.0350440003188,44.00908400015184],[-70.03329500022357,44.00863600006839],[-70.03553499969017,44.006316000007196],[-70.03177100025921,44.002917999689856],[-70.03526400042685,44.00269900006934],[-70.03304800035137,44.00104399968593],[-70.03756199961977,43.99961700011647],[-70.03857900031923,44.002592000294165],[-70.04134799969036,44.00138700015492],[-70.04323099967989,44.002468999939815],[-70.04333699998512,43.99831700006127],[-70.04612899982077,43.99544600013745],[-70.05075000011762,43.994085000171886],[-70.05182399982016,43.99098200003338],[-70.04795800028195,43.98913600002907],[-70.04658599975524,43.98564199975212],[-70.03705899965453,43.979389999880425],[-70.03423800040488,43.9756609997102],[-70.08083899959226,43.92645799993361],[-70.09232900004848,43.93195299988674],[-70.11585999970842,43.90670999990303],[-70.19699200036382,43.94595000009124],[-70.20364700026296,43.94792800020993],[-70.20028399979168,43.95199299988393],[-70.31537399983301,44.037806999684456],[-70.36387399980181,43.986444999888356],[-70.39532399993254,44.00309100030849],[-70.39747300006087,43.99854500011246],[-70.39674900016269,43.997131000004984],[-70.39931199966948,43.994750000171116],[-70.3982990000663,43.992093000087635],[-70.40195399971729,43.99010799980285],[-70.44502999984836,44.01280400025101],[-70.44858699959008,44.00942800015743],[-70.47940700043226,44.0260859997699],[-70.48121500007872,44.02962300008347],[-70.48007799972868,44.03207800004014],[-70.50237099965453,44.04256799980379],[-70.50523899965818,44.0395909999343],[-70.50899700013966,44.041454000229756],[-70.54409400042378,44.00564700019888],[-70.56385099970869,44.02499200004006],[-70.57395699994264,44.01564800014721],[-70.5811850001272,44.01790699982511],[-70.58483300010555,44.021083999842936],[-70.58164500043476,44.02231200007008],[-70.58833299994583,44.02559499974277],[-70.58981199970434,44.02837499969738],[-70.59096599977283,44.02771099990312],[-70.59088200010724,44.03024199982789],[-70.59249200028532,44.02945799977925],[-70.59467599967543,44.03086800001763],[-70.59285799998322,44.031078000261296],[-70.59354900026943,44.03194199989385],[-70.5962719996098,44.03260199975647],[-70.5927430003555,44.03528000006763],[-70.59564899999395,44.03583400005247],[-70.59861800027993,44.03858299987246],[-70.59754000037941,44.03939099981992],[-70.60378400037482,44.04153599975675],[-70.60218400024249,44.04352299986335],[-70.60454900028087,44.0444560000588],[-70.60367499969657,44.05023899995146],[-70.60794899966376,44.051863000149766],[-70.60701300005347,44.05360900007999],[-70.60929799972592,44.054949999705336],[-70.61047600008386,44.060965000035566],[-70.61410200032086,44.06196299973112],[-70.61176999989443,44.06507099969417],[-70.61346000043845,44.06659999986222],[-70.60887099992866,44.06772699974969],[-70.60894000042396,44.069445999938225],[-70.61190399978874,44.07062499977246],[-70.60816600029706,44.0742459998134],[-70.60906699974724,44.07900500024772],[-70.60590099981778,44.08170100012213],[-70.60296099984411,44.08877899997176],[-70.6055640004322,44.0895159999002],[-70.60467599960417,44.09185199984271],[-70.60667300029485,44.09570900005198],[-70.6041440002249,44.097594000196516],[-70.60623800010165,44.099135999683504],[-70.60617299980433,44.101292999727264],[-70.602741999561,44.10453299986053],[-70.59894100032011,44.11203100007218],[-70.59147999960872,44.118361999747144],[-70.58918999991342,44.12236400023376],[-70.58747799962809,44.12226200009668],[-70.58723900015181,44.124209999844034],[-70.58844699974865,44.123829999793394],[-70.59205000041945,44.1289910000202],[-70.59063500023504,44.12939399981512],[-70.59002500013969,44.13296700009231],[-70.59233400010156,44.13345299968926],[-70.59549900020613,44.13731600008047],[-70.59423399980956,44.13861700012926],[-70.59595100011775,44.141482999988135],[-70.59447300018415,44.142938999904594],[-70.59506099963991,44.144831000165176],[-70.59806199971293,44.142519999755734],[-70.59906799964342,44.14396899991197],[-70.59652500022811,44.145526000072984],[-70.59866099993765,44.14976799982287],[-70.60041400023084,44.14946000026196],[-70.60168899977485,44.15269200027289],[-70.60424299995911,44.15407899993659],[-70.60796999958016,44.154107999813974],[-70.62432900003033,44.17103600030692],[-70.69592000034132,44.13421699981063],[-70.6997490000696,44.13908100003665],[-70.82180299980656,44.07708899984111],[-70.85854600025375,44.09526899986803],[-70.85780399991391,44.0880419998932],[-70.859738999782,44.08550300009818],[-70.86286700007663,44.08636899986786],[-70.86655199986487,44.080187999714234],[-70.86445399979016,44.077796000019276],[-70.86131899982284,44.0772259998956],[-70.86098300026218,44.07176199983968],[-70.85923199961879,44.07019199983863],[-70.86000900011874,44.06807699973391],[-70.85819100042653,44.06545999984071],[-70.85845199964412,44.059640000228185],[-70.84807699979665,44.04952199998191],[-70.79253100011648,44.040140000203856],[-70.79167900017178,44.02873999971065],[-70.78176000043389,44.031394000302114],[-70.71541800005848,43.96181499983647],[-70.74750699969854,43.9459009998424],[-70.72972899976433,43.928362000129226],[-70.75248299982262,43.91400600003896],[-70.75450999975222,43.9086669999759],[-70.75793400032286,43.90686399987886],[-70.75522100012992,43.888610000316014],[-70.75057999974159,43.88827199974736],[-70.75032700002161,43.88589000026081],[-70.74387799998681,43.885849000101686],[-70.76528800000581,43.871538000221264],[-70.76628800008852,43.877239000013574],[-70.78049199966426,43.86823099971498],[-70.78150299961763,43.873878999825536],[-70.79819299960559,43.86330400013732],[-70.79313299981592,43.85946700020124],[-70.79325900021263,43.85754699975973],[-70.79845000042187,43.85849599980927],[-70.80149499997749,43.85651699978789],[-70.79925899981053,43.8537569998844],[-70.79499099969111,43.85210000021921],[-70.79573700022893,43.85048500000009],[-70.79238399980339,43.84687400018965],[-70.79476300008548,43.841047000040575],[-70.79435700020461,43.83436800030661],[-70.787125999647,43.83260399983232],[-70.78164699955767,43.82355999996973],[-70.78298399992427,43.81414699983004],[-70.7912799999636,43.81312700000199],[-70.79744199994323,43.80970799993374],[-70.79825200005514,43.808399000205725],[-70.79651200018071,43.8066620001066],[-70.79782600008278,43.806163999775954],[-70.80230099989146,43.80954600011539],[-70.8048040000221,43.80796699975425],[-70.80885600023146,43.81023900007518],[-70.81117299969095,43.807537999689444],[-70.81189099974137,43.81054199987164],[-70.81500300014247,43.81148899981092],[-70.82190800028685,43.80719100012426],[-70.82733499959932,43.80671100023895],[-70.83024399961084,43.80885900030103],[-70.84084699996225,43.80995199975116],[-70.84360500036104,43.80742500001501],[-70.84961500000469,43.80664299984603],[-70.85301299973776,43.80451699990629],[-70.8612820000129,43.80469300016358],[-70.86099699960756,43.80690400006493],[-70.86247899973911,43.807708000248404],[-70.86956399980855,43.806794000146475],[-70.88085400024822,43.810845999678016],[-70.88450899989924,43.80800800032147],[-70.89923499970679,43.802312999990626],[-70.9126819997724,43.800909000306085],[-70.92360700033909,43.794317000070706],[-70.92707100019439,43.79029900003536],[-70.93559900003731,43.790010999935376],[-70.94260600028895,43.792282999688155],[-70.95754800000658,43.78512300018516],[-70.9644840001131,43.78810700006302],[-70.9677649996703,43.785484999917124],[-70.97232499986777,43.785168999728064],[-70.98188100028081,43.793507999819546],[-70.98912199998587,43.79208100006989]]]}},{"type":"Feature","properties":{"GEOID":"2302","NAME":"Congressional District 2","BASENAME":"2","STATE":"23","CD119":"02"},"geometry":{"type":"Polygon","coordinates":[[[-71.08392799958928,45.305483999973255],[-71.07717300013104,45.25004800024404],[-71.05824699997612,44.99051499973217],[-71.04311799976242,44.82689100029191],[-71.03261499986843,44.6831820002753],[-71.02616199963566,44.549267999721],[-71.01822399979662,44.431671999905156],[-71.00574599985158,44.20267500002743],[-70.993328000181,43.9297930000125],[-70.98912199998587,43.792112999977874],[-70.98188100028081,43.793507999819546],[-70.97119400026382,43.784985000047044],[-70.9644840001131,43.78810700006302],[-70.96050499969867,43.785484999917124],[-70.9569089995989,43.78519399987367],[-70.94260600028895,43.792282999688155],[-70.93559900003731,43.790010999935376],[-70.92707100019439,43.79029900003536],[-70.92360700033909,43.794317000070706],[-70.9126819997724,43.800909000306085],[-70.89923499970679,43.802312999990626],[-70.88450899989924,43.80800800032147],[-70.88085400024822,43.810845999678016],[-70.86956399980855,43.806794000146475],[-70.86247899973911,43.807708000248404],[-70.86099699960756,43.80690400006493],[-70.8612820000129,43.80469300016358],[-70.85301299973776,43.80451699990629],[-70.84961500000469,43.80664299984603],[-70.84360500036104,43.80742500001501],[-70.84084699996225,43.80995199975116],[-70.83024399961084,43.80885900030103],[-70.82733499959932,43.80671100023895],[-70.82190800028685,43.80719100012426],[-70.81500300014247,43.81148899981092],[-70.81189099974137,43.81054199987164],[-70.81117299969095,43.807537999689444],[-70.80885600023146,43.81023900007518],[-70.8048040000221,43.80796699975425],[-70.80230099989146,43.80954600011539],[-70.79782600008278,43.806163999775954],[-70.79651200018071,43.8066620001066],[-70.79825200005514,43.808399000205725],[-70.79744199994323,43.80970799993374],[-70.7912799999636,43.81312700000199],[-70.78298399992427,43.81414699983004],[-70.78164699955767,43.82355999996973],[-70.787125999647,43.83260399983232],[-70.79435700020461,43.83436800030661],[-70.79476300008548,43.841047000040575],[-70.79238399980339,43.84687400018965],[-70.79573700022893,43.85048500000009],[-70.79499099969111,43.85210000021921],[-70.79925899981053,43.8537569998844],[-70.80149499997749,43.85651699978789],[-70.79845000042187,43.85849599980927],[-70.79325900021263,43.85754699975973],[-70.79313299981592,43.85946700020124],[-70.79819299960559,43.86330400013732],[-70.78150299961763,43.873878999825536],[-70.78049199966426,43.86823099971498],[-70.76628800008852,43.877239000013574],[-70.76528800000581,43.871538000221264],[-70.74387799998681,43.885849000101686],[-70.75032700002161,43.88589000026081],[-70.75057999974159,43.88827199974736],[-70.75522100012992,43.888610000316014],[-70.75793400032286,43.90686399987886],[-70.75450999975222,43.9086669999759],[-70.75248299982262,43.91400600003896],[-70.72972899976433,43.928362000129226],[-70.74750699969854,43.9459009998424],[-70.71541800005848,43.96181499983647],[-70.78176000043389,44.031394000302114],[-70.79167900017178,44.02873999971065],[-70.79253100011648,44.040140000203856],[-70.84807699979665,44.04952199998191],[-70.85845199964412,44.059640000228185],[-70.85819100042653,44.06545999984071],[-70.86000900011874,44.06807699973391],[-70.85923199961879,44.07019199983863],[-70.86098300026218,44.07176199983968],[-70.86131899982284,44.0772259998956],[-70.86662300000998,44.07986699991822],[-70.86286700007663,44.08636899986786],[-70.859738999782,44.08550300009818],[-70.85780399991391,44.0880419998932],[-70.85854600025375,44.09526899986803],[-70.82180299980656,44.07708899984111],[-70.6997490000696,44.13908100003665],[-70.69592000034132,44.13421699981063],[-70.62432900003033,44.17103600030692],[-70.60796999958016,44.154107999813974],[-70.60424299995911,44.15407899993659],[-70.60168899977485,44.15269200027289],[-70.60041400023084,44.14946000026196],[-70.59866099993765,44.14976799982287],[-70.59652500022811,44.145526000072984],[-70.59906799964342,44.14396899991197],[-70.59806199971293,44.142519999755734],[-70.59506099963991,44.144831000165176],[-70.59447300018415,44.142938999904594],[-70.59595100011775,44.141482999988135],[-70.59423399980956,44.13861700012926],[-70.59549900020613,44.13731600008047],[-70.59233400010156,44.13345299968926],[-70.59002500013969,44.13296700009231],[-70.59063500023504,44.12939399981512],[-70.59205000041945,44.1289910000202],[-70.58844699974865,44.123829999793394],[-70.58723900015181,44.124209999844034],[-70.58747799962809,44.12226200009668],[-70.58918999991342,44.12236400023376],[-70.59147999960872,44.118361999747144],[-70.59894100032011,44.11203100007218],[-70.602741999561,44.10453299986053],[-70.60617299980433,44.101292999727264],[-70.60623800010165,44.099135999683504],[-70.6041440002249,44.097594000196516],[-70.60667300029485,44.09570900005198],[-70.60467599960417,44.09185199984271],[-70.6055640004322,44.0895159999002],[-70.60296099984411,44.08877899997176],[-70.60590099981778,44.08170100012213],[-70.60906699974724,44.07900500024772],[-70.60816600029706,44.0742459998134],[-70.61190399978874,44.07062499977246],[-70.60894000042396,44.069445999938225],[-70.60887099992866,44.06772699974969],[-70.61346000043845,44.06659999986222],[-70.61176999989443,44.06507099969417],[-70.61410200032086,44.06196299973112],[-70.61047600008386,44.060965000035566],[-70.60929799972592,44.054949999705336],[-70.60701300005347,44.05360900007999],[-70.60794899966376,44.051863000149766],[-70.60367499969657,44.05023899995146],[-70.60454900028087,44.0444560000588],[-70.60218400024249,44.04352299986335],[-70.60378400037482,44.04153599975675],[-70.59754000037941,44.03939099981992],[-70.59861800027993,44.03858299987246],[-70.59564899999395,44.03583400005247],[-70.5927430003555,44.03528000006763],[-70.5962719996098,44.03260199975647],[-70.59354900026943,44.03194199989385],[-70.59285799998322,44.031078000261296],[-70.59467599967543,44.03086800001763],[-70.59249200028532,44.02945799977925],[-70.59088200010724,44.03024199982789],[-70.59096599977283,44.02771099990312],[-70.58981199970434,44.02837499969738],[-70.58833299994583,44.02559499974277],[-70.58164500043476,44.02231200007008],[-70.58483300010555,44.021083999842936],[-70.5811850001272,44.01790699982511],[-70.57395699994264,44.01564800014721],[-70.56385099970869,44.02499200004006],[-70.54409400042378,44.00564700019888],[-70.50899700013966,44.041454000229756],[-70.50523899965818,44.0395909999343],[-70.50237099965453,44.04256799980379],[-70.48007799972868,44.03207800004014],[-70.48121500007872,44.02962300008347],[-70.47940700043226,44.0260859997699],[-70.44858699959008,44.00942800015743],[-70.44502999984836,44.01280400025101],[-70.40195399971729,43.99010799980285],[-70.3982990000663,43.992093000087635],[-70.39931199966948,43.994750000171116],[-70.39674900016269,43.997131000004984],[-70.39747300006087,43.99854500011246],[-70.39532399993254,44.00309100030849],[-70.36387399980181,43.986444999888356],[-70.31537399983301,44.037806999684456],[-70.20028399979168,43.95199299988393],[-70.20364700026296,43.94792800020993],[-70.19699200036382,43.94595000009124],[-70.11585999970842,43.90670999990303],[-70.09232900004848,43.93195299988674],[-70.08083899959226,43.92645799993361],[-70.03423800040488,43.9756609997102],[-70.03705899965453,43.979389999880425],[-70.04658599975524,43.98564199975212],[-70.04795800028195,43.98913600002907],[-70.05182399982016,43.99098200003338],[-70.05075000011762,43.994085000171886],[-70.04612899982077,43.99544600013745],[-70.04333699998512,43.99831700006127],[-70.04323099967989,44.002468999939815],[-70.04134799969036,44.00138700015492],[-70.03857900031923,44.002592000294165],[-70.03756199961977,43.99961700011647],[-70.03304800035137,44.00104399968593],[-70.03526400042685,44.00269900006934],[-70.03177100025921,44.002917999689856],[-70.03553499969017,44.006316000007196],[-70.03329500022357,44.00863600006839],[-70.0350440003188,44.00908400015184],[-70.03413899977237,44.00958299982913],[-70.03717800037853,44.01515999974953],[-70.03624500024297,44.01650999981702],[-70.03831599965518,44.01821100030286],[-70.03279899993102,44.02126400009528],[-70.03526199987871,44.02310500024332],[-70.0365349997729,44.02680299983625],[-70.03426299962092,44.02966399997433],[-70.03222399999575,44.02978600031662],[-70.03302700043497,44.030431000139345],[-70.0291500001278,44.03048400023121],[-70.02512700023075,44.036364000247175],[-70.02724600022185,44.0433580001621],[-70.00547100032986,44.12451899973268],[-70.01243500002546,44.12543399980265],[-70.01173200004368,44.128011000110995],[-70.02738599996394,44.13057699976152],[-70.01850099974563,44.15785100028464],[-70.01395399996694,44.157580999932996],[-70.01032899955484,44.168651000003265],[-69.99879600033924,44.166833999793774],[-69.99379199972776,44.18059399982694],[-69.96837300005541,44.17618000005441],[-69.93741800039233,44.267676000021645],[-69.92324200040568,44.27093399982635],[-69.9013970001935,44.26725999997043],[-69.9020950001524,44.26589899977227],[-69.88871900023192,44.26383899981005],[-69.89023499980034,44.26036500007706],[-69.87618600003529,44.25800699978409],[-69.87741600027178,44.25634100000214],[-69.84817200017078,44.251600999752974],[-69.85554199974725,44.24645899978439],[-69.84565499979644,44.24339099969661],[-69.84718999963142,44.238595000273776],[-69.80004700012071,44.24246400010247],[-69.8073050004425,44.22102600014036],[-69.80582599978568,44.22111900015456],[-69.80153900029802,44.213288000164425],[-69.80591299982433,44.21112800029929],[-69.80693299999852,44.20538100006655],[-69.82400200010316,44.193612999711036],[-69.83270800022133,44.191100999730196],[-69.84831899958556,44.17011699998326],[-69.85498299970553,44.167862000257195],[-69.76356599961431,44.153217000029464],[-69.76339999993299,44.16404499997179],[-69.75611800022004,44.17000399968892],[-69.75221400014868,44.18406599994155],[-69.75447500043,44.192904999746546],[-69.76270000032424,44.20336199979004],[-69.76031299964622,44.21824699982596],[-69.76255999968383,44.22379499993302],[-69.7589810002008,44.22423299981664],[-69.7541509996666,44.22792099993562],[-69.74405600020161,44.22543000009395],[-69.73570499991071,44.22731600027178],[-69.72513900026753,44.231134000208684],[-69.72361399957995,44.236787999708476],[-69.68942000019246,44.231260000027824],[-69.68819499997886,44.23490499985238],[-69.68147200030766,44.23395499994045],[-69.68016099988034,44.23230199979895],[-69.67380499973197,44.231352999966546],[-69.67458600042988,44.22903500007224],[-69.66544099992055,44.227575999926344],[-69.62569999977337,44.36180199971879],[-69.72904199961565,44.37774999984244],[-69.72700600036355,44.38058500016229],[-69.7297630000391,44.38867499994166],[-69.72788000004954,44.39767599993345],[-69.72321699991991,44.405336000264604],[-69.71339600009132,44.41188800017938],[-69.70119599998064,44.42752099998301],[-69.69620700033606,44.442145000102165],[-69.68683800041909,44.4584609998989],[-69.68326700043367,44.47561000022726],[-69.68378700011735,44.480665999731706],[-69.67656599960549,44.50046999999768],[-69.71988199993604,44.50750300028401],[-69.71842699956866,44.51336600019581],[-69.6695409998105,44.55796199984384],[-69.6669869996262,44.56416199980842],[-69.66700099986991,44.56579999986786],[-69.67115699983636,44.566244999950015],[-69.66706699999216,44.578226999901624],[-69.67017600002022,44.580010000271464],[-69.66870700030746,44.584813000018826],[-69.66552499958614,44.58640199981407],[-69.60574599994665,44.57726399987839],[-69.59271599963257,44.58241000010721],[-69.58933299996812,44.58892700005416],[-69.59258900030927,44.59787700031372],[-69.59274499994488,44.603430999815515],[-69.58055400005502,44.62040000022543],[-69.57909399966478,44.626970999897466],[-69.60556799967141,44.65104499995201],[-69.61428100036059,44.654186000210316],[-69.61755000022222,44.656985999716156],[-69.62215599955213,44.665521999792],[-69.62878600023522,44.672678999778626],[-69.6299610002201,44.68453799997754],[-69.63269799980417,44.69066199988631],[-69.63311799992874,44.70037300002936],[-69.48379400031695,44.72023799993564],[-69.47038200041145,44.71816100026843],[-69.47319900036145,44.70874199983598],[-69.46753100012624,44.70798600001449],[-69.47171200020703,44.69289900004343],[-69.47731799961966,44.6920610002664],[-69.47559899966164,44.676678000176295],[-69.4429359999112,44.67238100009903],[-69.4479489998452,44.66217500022259],[-69.45594799978362,44.66222000004235],[-69.45707799956266,44.658600999912196],[-69.46073099956385,44.65528199988523],[-69.45964000014287,44.65121699995402],[-69.46144000029173,44.64758699991907],[-69.39312299986526,44.64037500013058],[-69.41684000019633,44.55107999997714],[-69.37241900020108,44.54458500009571],[-69.39598699967094,44.457077999734835],[-69.44549799959307,44.46383899968265],[-69.5063819997956,44.34287000010381],[-69.40963499957799,44.32799800003064],[-69.40456899994054,44.3329410002212],[-69.40908300010726,44.33639999986106],[-69.40226900019945,44.343058999680935],[-69.3967730003917,44.34056700004555],[-69.39436099959934,44.34293400010704],[-69.34661600038918,44.30833699972754],[-69.26888200036514,44.364653000170534],[-69.12162199959454,44.25564400026301],[-69.04310500012109,44.259549999868],[-69.02836800044288,44.2490069999027],[-69.01321400011483,44.21055800026097],[-69.0048419999075,44.20316200013273],[-68.99999999967773,44.166739000277666],[-68.91663799960143,44.16666699968107],[-68.89638400019906,44.20993500021289],[-68.8709989999636,44.19881699985147],[-68.85303600008143,44.20216699995706],[-68.83559700008094,44.20945400001898],[-68.83047000034414,44.20996400031587],[-68.82115199958245,44.20272500009676],[-68.81249300021827,44.20084700024829],[-68.7960280003612,44.188576000285664],[-68.77587199996981,44.17847599990139],[-68.76495499979903,44.16377000029633],[-68.7572000002581,44.14041699991258],[-68.75348699998246,44.133998999950016],[-68.7413250004049,44.12240700011233],[-68.72991600013955,44.116712999889856],[-68.71802999984821,44.11523500009103],[-68.70024299969316,44.12001100001701],[-68.6784989997633,44.11742600010328],[-68.65380599963898,44.12025299988084],[-68.62832800041541,44.11378500010063],[-68.61113200008913,44.11291299989676],[-68.59601299992119,44.11756500011693],[-68.57934800004757,44.128749999910525],[-68.56306499976537,44.13095800028572],[-68.54875499988442,44.129885000050905],[-68.5496269999206,44.11035100008018],[-68.5416630001423,44.098327000191944],[-68.51535800019006,44.078600000219765],[-68.49948099978873,44.07384100012684],[-68.48463500033057,44.02832600027126],[-68.46301199987623,44.03211199986647],[-68.44655899971472,44.04258300011304],[-68.43684300036642,44.05323300026643],[-68.4007879998324,44.05053800003877],[-68.3687970001016,44.04521999997681],[-68.35658199992228,44.04583600027105],[-68.3356089997463,44.05065899991934],[-68.32565200037357,44.05077400025965],[-68.31139299964792,44.053428999924535],[-68.29371299962298,44.06086399974473],[-68.27921199994634,44.069945000109094],[-68.26313600025169,44.09061699968163],[-68.24578199974168,44.08912500024484],[-68.23023699960137,44.090500999881186],[-68.20336000008695,44.099586999866425],[-68.1858130001314,44.111962000223976],[-68.1758580004085,44.125082999838256],[-68.17189499988761,44.13962699983441],[-68.17129999986084,44.1604969998291],[-68.16838800037459,44.172908000008405],[-68.17075000003993,44.19011400002751],[-68.15649000038769,44.194843999983576],[-68.13757900030139,44.20685999972388],[-68.1281469997369,44.217275000085586],[-68.12262599981476,44.22604100001057],[-68.12065999998457,44.244315000004924],[-68.12173700006015,44.250082000133844],[-68.12445299972784,44.25008000024742],[-68.12445299972784,44.254627000008384],[-68.1282799998063,44.26425300022159],[-68.06095900016287,44.27825599982717],[-68.0278439996025,44.2742139997944],[-68.0181779995846,44.27510699969183],[-67.99944599959842,44.28019700031901],[-67.98270999957971,44.288383000007464],[-67.9736469999845,44.29515899972227],[-67.96557500025112,44.30599800025742],[-67.96077900005211,44.319265000185396],[-67.94241199993891,44.32607100014514],[-67.93338899962835,44.33230799986027],[-67.92517799997783,44.341433999850615],[-67.91669100014278,44.33351199985332],[-67.89815099977724,44.32212599985441],[-67.87444299966698,44.31692499971549],[-67.8583360000102,44.31702399969769],[-67.84228600025482,44.32047600013242],[-67.82372800034594,44.327038000006816],[-67.80968999955323,44.33651000029682],[-67.80079600001241,44.34748499990411],[-67.79526199967148,44.361165000186006],[-67.79604199964616,44.37952299970175],[-67.8055689997469,44.39101500021137],[-67.79899400021371,44.39836400026914],[-67.78833700033394,44.40218900029128],[-67.77474999962794,44.41131399999717],[-67.75856699980318,44.39826200030285],[-67.74174399974582,44.39083099989213],[-67.72953100011465,44.387702000159116],[-67.71532900018872,44.38650099998859],[-67.6958189998777,44.38769599979031],[-67.67938599980768,44.39187899991935],[-67.67464200038552,44.39463400020704],[-67.6549789999136,44.38670700002825],[-67.62741299976275,44.38347299989961],[-67.61003300021181,44.3857829998802],[-67.57396000013442,44.39504399999689],[-67.553655999605,44.40316999976952],[-67.54958300037757,44.40662400031673],[-67.51278499967879,44.42065200028174],[-67.4926159997669,44.432219999762154],[-67.47302699981316,44.448339000033386],[-67.46688199955197,44.457317000298175],[-67.45524100038135,44.46487300014646],[-67.44422700012619,44.48112599975869],[-67.44171800014776,44.49023300007687],[-67.44125600019038,44.50007900015183],[-67.44339600009788,44.50527899969652],[-67.41387800036051,44.50964000025924],[-67.38820000022208,44.520398999732826],[-67.36599799963452,44.51782700029068],[-67.34044800044093,44.52128899975257],[-67.3178409997974,44.53154399996017],[-67.30417600017189,44.54438200022433],[-67.30082000027163,44.5498570001458],[-67.27923000032759,44.55031699973965],[-67.26367599996644,44.55414499985099],[-67.24598599989577,44.555282000314605],[-67.22328500043922,44.56322600009606],[-67.19148999962871,44.57953600005446],[-67.17431900031511,44.59470399978461],[-67.15707199993523,44.600206000106766],[-67.14085399995037,44.6082650002675],[-67.13344500001583,44.61376000018801],[-67.12744799989265,44.62141699996107],[-67.11749800019261,44.625276999942294],[-67.10375800022406,44.633426000016996],[-67.09321199977406,44.643081000143354],[-67.08751799959957,44.6534610002924],[-67.0502129996359,44.68104799969473],[-67.0437850004158,44.68799099970138],[-67.03927899974668,44.696967999921846],[-67.02396499958508,44.70509099993288],[-67.01076500029,44.71732200008055],[-66.97752099985817,44.731241000175686],[-66.96374300025477,44.75008000008439],[-66.9522689996921,44.76042200005163],[-66.94184100014118,44.765624999805866],[-66.90255500027867,44.77656099976245],[-66.88544400034124,44.79420800018208],[-66.93256299956249,44.82550800025266],[-66.96529900000618,44.8289029999353],[-66.97486299991682,44.84160500000306],[-66.97477400022836,44.850971000233876],[-66.98070900042727,44.860480000248096],[-66.9821339997591,44.86725900026029],[-66.97999999969939,44.87744499982657],[-66.97222400024205,44.89477499996716],[-66.96871000015803,44.91038900016507],[-66.99684600022128,44.92837100023486],[-67.00999000033818,44.94476200024553],[-67.02166499984399,44.953914000205195],[-67.09455099979047,45.07451299977655],[-67.11255700022863,45.11258399987232],[-67.12890800028289,45.1323820002826],[-67.1449959996731,45.146015999898836],[-67.1588710002592,45.16203500017205],[-67.16796499981655,45.164733000308374],[-67.19089299995213,45.16571500001971],[-67.20508300018248,45.171408999822674],[-67.2231630002405,45.163362999981],[-67.22728400004682,45.163428999932854],[-67.2329000004035,45.16851699988711],[-67.24280900009565,45.17244299981834],[-67.24393899987469,45.17825599983465],[-67.24742600019452,45.18088900028993],[-67.25530499958403,45.18285999974062],[-67.26224200041378,45.187941999887116],[-67.26921600015514,45.19050800019619],[-67.28336000035473,45.19185899983095],[-67.29099100004713,45.187572000203225],[-67.29073199958103,45.181663000201944],[-67.29404700037173,45.177165999919985],[-67.29110499984995,45.17457099998695],[-67.2914260002403,45.17103499975561],[-67.29934300016295,45.16918000028676],[-67.30268599964444,45.16071200003418],[-67.30162500036067,45.156995999815614],[-67.29422499974866,45.153631999797916],[-67.29597300001898,45.147837000129854],[-67.30977499991182,45.143656000271186],[-67.32001199966703,45.14240200028807],[-67.31770100005531,45.138022000219976],[-67.32082199977894,45.13133500006672],[-67.33050500041358,45.13180100003049],[-67.34084799957567,45.1250410000878],[-67.34599299975417,45.12645200012245],[-67.34916500042974,45.12949599976305],[-67.35344500024472,45.129164999750785],[-67.35752900024112,45.13220400018198],[-67.35656000012057,45.132989999704996],[-67.37068000003072,45.14200300006764],[-67.38072000014243,45.15214400006668],[-67.39258999964193,45.15429400020764],[-67.40502900012723,45.1600629999125],[-67.40476899983622,45.16677700006689],[-67.3991990004086,45.16895499984988],[-67.39832900002226,45.17338000002812],[-67.40051999998337,45.17766700015454],[-67.40653999967279,45.178903999902964],[-67.41811399979457,45.18999699989741],[-67.42687199979127,45.191515000175286],[-67.42926699996688,45.193464999794685],[-67.42796899995837,45.20179100019497],[-67.43729299966948,45.21990799979384],[-67.43698899989587,45.222737999905696],[-67.45384899976315,45.24123500015813],[-67.46008199988789,45.242002000216125],[-67.46419699984644,45.24511499981442],[-67.47311300002687,45.25863699988422],[-67.47149000032833,45.260707999827936],[-67.47478400030433,45.26327700003721],[-67.47641899969844,45.27539599970103],[-67.48203099985716,45.27536499996582],[-67.48350499959278,45.27945400006571],[-67.48904399995656,45.28057499975465],[-67.48966300027277,45.28213299990767],[-67.4858710003544,45.28701499991071],[-67.48639600006095,45.28989099993798],[-67.48507799996094,45.291153000055445],[-67.47611099972686,45.28863300008854],[-67.47471499980904,45.29167700025181],[-67.46612500004183,45.29385899998378],[-67.46595799963724,45.29688499979427],[-67.46870299961724,45.297375000137194],[-67.46806900013073,45.298994000135046],[-67.46031200004167,45.30001800023037],[-67.45786300033768,45.30959100012544],[-67.45346700017173,45.31369100018443],[-67.45183699990218,45.317681999751954],[-67.45690900028572,45.32525400006937],[-67.4507890001389,45.32915899995116],[-67.44360199996221,45.33086900016252],[-67.44060500008713,45.33603699971772],[-67.43122600012443,45.34107300021614],[-67.42887899962938,45.344387000220664],[-67.43145600027819,45.34976300020101],[-67.4253529998498,45.35741500027737],[-67.43355400035288,45.36081799987858],[-67.43453000014615,45.36496399978456],[-67.4301680003154,45.37161700014657],[-67.42675100031578,45.373681000150924],[-67.42113400013417,45.373571000075266],[-67.4192350002511,45.37710399993655],[-67.42281999958192,45.379288000121946],[-67.4276409998953,45.39101599990905],[-67.44689099991533,45.40675400007194],[-67.45272700038004,45.40967699992359],[-67.45914299990456,45.415780999808156],[-67.46124199980416,45.42222799991273],[-67.47267700000879,45.42322000006265],[-67.4775209998884,45.43052800002687],[-67.47813500018172,45.43686799984427],[-67.48039100044015,45.44093499974054],[-67.47646899992716,45.443322000007676],[-67.47789800035527,45.44642799971654],[-67.48396200042559,45.44940200016657],[-67.48502899955714,45.45275900027998],[-67.48494599971644,45.45634299973076],[-67.48249700001249,45.45709799974052],[-67.48210600020023,45.459396999978765],[-67.48722700008926,45.46772900026094],[-67.50094600014143,45.47893999989035],[-67.50371399968763,45.486703999722614],[-67.50345500011987,45.489567999826],[-67.5000649998844,45.490899999755484],[-67.49509899980607,45.48868700025329],[-67.4895319998532,45.48915499987068],[-67.48816100004973,45.49117900000563],[-67.48921800003384,45.493055999941184],[-67.48548899986467,45.49559999988512],[-67.4816900002736,45.49380500020376],[-67.47759700005638,45.497048000004185],[-67.47330299999768,45.4960640002549],[-67.47139499989377,45.49723900015643],[-67.46754299970095,45.49517500005406],[-67.46373499988907,45.497055999967536],[-67.47123599988512,45.50085100026098],[-67.46988599999804,45.50582699982638],[-67.46689699962059,45.50580500004623],[-67.46359900034496,45.50838000005321],[-67.45158900020506,45.499070999949865],[-67.44971399971311,45.499086999930235],[-67.44891899966983,45.5021260001301],[-67.4534589997758,45.50884799969966],[-67.45014100040869,45.51026700011191],[-67.44192400001208,45.50523900011383],[-67.43061500020414,45.50307899996079],[-67.43010700021603,45.50102299988322],[-67.42733700012168,45.50091699971691],[-67.42447400014092,45.50365299985962],[-67.42522399997836,45.504895000291036],[-67.4228179999321,45.50549500016965],[-67.41801099986242,45.50120199977041],[-67.41621099971354,45.50129500020468],[-67.42092800026985,45.51179200003645],[-67.42640599963596,45.51518400020436],[-67.42568799958555,45.517122000264266],[-67.43269800021024,45.519780999987844],[-67.43174400015828,45.52379700006043],[-67.43486400005699,45.52813700002602],[-67.43474299968317,45.53588599977305],[-67.4324710004295,45.540407000053875],[-67.42507699966527,45.54025799992443],[-67.42390099985548,45.54701999990127],[-67.42066600032904,45.549675999896444],[-67.42267599964187,45.55376800006551],[-67.42205399985093,45.55653199973652],[-67.42654100025348,45.56060399984085],[-67.42887000030687,45.56833699997217],[-67.42319399967573,45.57159200001384],[-67.42552799975198,45.57843199999078],[-67.44509699961422,45.5961780002665],[-67.44732500028358,45.59660699973832],[-67.45001800038504,45.602465999931724],[-67.45670199969818,45.6043400001613],[-67.46500100011058,45.60343600024142],[-67.4684890002553,45.600681000274996],[-67.47248600021308,45.60051700023892],[-67.4771839996045,45.60390900030138],[-67.48601399957123,45.60141399979648],[-67.49329000033468,45.60134299971722],[-67.49410799994418,45.59893800005439],[-67.48774599994803,45.59696299968608],[-67.48795799966014,45.59582199973856],[-67.49113199998553,45.59323500009833],[-67.49150600007935,45.590897999687655],[-67.499022000144,45.58665400022155],[-67.51921600017022,45.58756800025755],[-67.53521300022216,45.595042999808996],[-67.54799499994081,45.59784699998004],[-67.55707900035075,45.59697299995214],[-67.55776800008884,45.59482199974076],[-67.56168899987863,45.59469300002678],[-67.58322299974618,45.60226899982074],[-67.58985699972891,45.60678400004756],[-67.60837399962993,45.6061480002916],[-67.6391020004106,45.625114999736375],[-67.64395600033593,45.6231469999852],[-67.63977500025516,45.616081999949756],[-67.6455659996157,45.61333900018127],[-67.66328099980075,45.62536000027452],[-67.66622699962217,45.62421400029728],[-67.67522999984125,45.63074100017461],[-67.67978400019095,45.638222000212416],[-67.69229999977081,45.65008700015334],[-67.6913130001069,45.653533999773934],[-67.69794100024185,45.65955400001491],[-67.70139000002854,45.669057000115096],[-67.71053800001258,45.67920299990758],[-67.70957399991488,45.68132800013963],[-67.71781399987772,45.67941000020561],[-67.72825200037269,45.68924400019182],[-67.73455200044457,45.68891999988637],[-67.72995399971396,45.67667499987142],[-67.72370499969568,45.67219200016438],[-67.72349200015869,45.669990999803964],[-67.71794299974916,45.66766100002986],[-67.71760299999052,45.665137999979294],[-67.72007299961089,45.662264999851175],[-67.72494699962773,45.66416600025912],[-67.72722899982544,45.66264000012396],[-67.73247299973814,45.66337999968866],[-67.74442000012884,45.67291700009062],[-67.7543029998817,45.667574999995935],[-67.76871800024297,45.67748699994078],[-67.80362999968087,45.67765100017252],[-67.81800800023218,45.6938190002306],[-67.80293400027008,45.69608799973604],[-67.80962199978116,45.72957400021211],[-67.78179600023762,45.73111700009597],[-67.79287900008974,45.75007499987629],[-67.80627000007884,45.75524399977917],[-67.80931299998468,45.76735800021979],[-67.80551299967038,45.76954100007315],[-67.80385200033702,45.78110299973152],[-67.80648299961587,45.79440499991532],[-67.80211800031039,45.80303399979043],[-67.78084899985838,45.815363000215434],[-67.78068900002481,45.81775700008437],[-67.77810200022856,45.819208000115275],[-67.76564199982688,45.81853300017991],[-67.75531899985793,45.82335000002968],[-67.76377300008103,45.828839000028516],[-67.76523000009821,45.83442199973463],[-67.76880299973347,45.839003000174316],[-67.78728100017473,45.84955400023789],[-67.79711399969888,45.86002500022007],[-67.7959300003915,45.86180299994685],[-67.79850399976894,45.8640460002156],[-67.79615100032441,45.86524300014718],[-67.80454699992289,45.86937900020513],[-67.80322499962489,45.87033599995151],[-67.80472100000016,45.873128000289526],[-67.80391099988825,45.88289799989801],[-67.79886199996922,45.88432400001508],[-67.79689199994104,45.887847000117205],[-67.79521499981584,45.88781400001763],[-67.78751499962816,45.89468099980081],[-67.78437999966083,45.89571599987505],[-67.77925299992398,45.89458300008133],[-67.7780779999391,45.89752799975139],[-67.77646899958594,45.895906999832995],[-67.76805299989603,45.89811099981382],[-67.76952599980675,45.90080799993545],[-67.76481199962348,45.90797700019269],[-67.76532299998465,45.90975300021955],[-67.76039399971621,45.909624000087405],[-67.75793099976853,45.912248999714464],[-67.75537099973647,45.91165999980936],[-67.75062800013922,45.917636000183855],[-67.75384799959704,45.92132399989959],[-67.7583779996573,45.92333000015799],[-67.7585550001076,45.926378000296914],[-67.76623799967854,45.92803299996282],[-67.76593800010289,45.93053599983692],[-67.76808300003324,45.932164000243766],[-67.77190699973866,45.93194700009566],[-67.77347000006107,45.93482300002238],[-67.77783600008978,45.934207000035],[-67.78124800006655,45.943449999995636],[-67.78196699994186,46.26276799998096],[-67.78828799993013,46.60130500016687],[-67.79019600003404,47.06722000016147],[-67.8112160000657,47.07604700022453],[-67.82110999968923,47.08341399973131],[-67.8305410004288,47.084970000207896],[-67.84866699961925,47.093303000165044],[-67.88291600015664,47.1044030002324],[-67.8881659999171,47.109813000064875],[-67.89085599964551,47.1265579998233],[-67.89420800024614,47.13046799970252],[-67.90349099994938,47.136485000222066],[-67.90983299985406,47.147219000017344],[-67.92866299974953,47.156218999857636],[-67.93690199988744,47.16606399997234],[-67.93880900016644,47.17093300008033],[-67.95146399966347,47.183464000167135],[-67.95194499988742,47.194533999878615],[-67.95721800011242,47.19961899983613],[-67.97320299957046,47.206789999901524],[-67.98970299958764,47.21002200005557],[-68.0196709995868,47.238497999695795],[-68.05917599973243,47.25518399999922],[-68.07399299977659,47.25915899970886],[-68.08194400003444,47.27099299996389],[-68.09230299998836,47.27655099998416],[-68.12093600016908,47.28742999973824],[-68.127492000334,47.29399899995709],[-68.1358910003055,47.2956479997568],[-68.15221100039761,47.309670000235414],[-68.15386900025625,47.3132989999669],[-68.15233199987313,47.32205199986295],[-68.15468000019308,47.32518499986561],[-68.15998500020514,47.32717399985997],[-68.17604500000625,47.328869999761515],[-68.2023509997834,47.33941600010931],[-68.21453300035073,47.339606000019074],[-68.2237189999696,47.344703999821974],[-68.22471499985436,47.35024899975616],[-68.22812099998333,47.353357999970996],[-68.23446899973578,47.35530100014907],[-68.24797299970281,47.35211799970357],[-68.26490799991315,47.35221700003242],[-68.28479800016578,47.360285999927214],[-68.29034400020225,47.35991000016012],[-68.30326200036335,47.35523799977029],[-68.32766800043252,47.36006800029803],[-68.36312999969128,47.354657000101874],[-68.37187900036548,47.34935700011501],[-68.37772300032779,47.34355099976417],[-68.38471499961248,47.32408099990311],[-68.38084400005141,47.30822599982868],[-68.38478699958252,47.30366099971242],[-68.38389299980501,47.30115399996299],[-68.37631999983896,47.29518399982059],[-68.37472499972951,47.29101500027297],[-68.37785800004701,47.287375000138006],[-68.3899669999211,47.28598000018715],[-68.40984799995287,47.2880080002768],[-68.41509699988845,47.287454999980746],[-68.4298069998025,47.28125899985206],[-68.4413049997563,47.28367000008915],[-68.4487670002926,47.28200999994075],[-68.45848600001393,47.28436699978131],[-68.46561899976396,47.29460899973016],[-68.47502500038918,47.29713900015006],[-68.4901560002527,47.29385700017484],[-68.50826100042505,47.2964750001978],[-68.51676599980345,47.2960859996978],[-68.53023899980832,47.29202899972873],[-68.5387909999407,47.28528499976511],[-68.54980000017298,47.282142000084924],[-68.57191900002154,47.28715100017833],[-68.58005000020445,47.28711499981342],[-68.58944500006069,47.28053999979029],[-68.59235700044525,47.27413400027372],[-68.5976749999778,47.270154999865404],[-68.59820200023248,47.268518000003695],[-68.59331899999482,47.26108500026599],[-68.59354599977554,47.258768999867414],[-68.607518000446,47.24698200007759],[-68.61751199962865,47.243372000199805],[-68.6530959999845,47.23926999982455],[-68.65984700014309,47.23612400005172],[-68.66319800002049,47.236279999703605],[-68.67495399971715,47.24232700001181],[-68.68435199994644,47.24288699987466],[-68.68715200017803,47.24441000013977],[-68.69170800017754,47.243836999781244],[-68.70510699966425,47.23786599977785],[-68.71702399991773,47.2405409997629],[-68.73014600029333,47.23567299986689],[-68.73436599983384,47.23567899986614],[-68.75189299969789,47.22635999988842],[-68.76434600042688,47.22204399999474],[-68.7813769999984,47.221047999958536],[-68.80426699960083,47.21536599970454],[-68.81152900012059,47.21513099976867],[-68.83145100016026,47.20391899983817],[-68.84996200021347,47.19625099977155],[-68.85743800009516,47.19034000028097],[-68.87103300029877,47.18906899979217],[-68.88215200013592,47.18290699974116],[-68.89551899983557,47.1824339997389],[-68.9000339998272,47.17774199997609],[-68.90487199985901,47.1804730002746],[-68.90844299984445,47.186341999728235],[-68.91977900031486,47.18992999972695],[-68.91994900019418,47.19483200017055],[-68.92374000028762,47.197376999911945],[-68.92844500025006,47.19659899983133],[-68.92994999994784,47.19759400027786],[-68.92805600008762,47.198719999996285],[-68.93411599996001,47.20014600011088],[-68.9410579999143,47.20607800019419],[-68.9507800000087,47.2020040000109],[-68.95285399979396,47.206893999710225],[-68.9611859998183,47.2056860002052],[-68.96527499983758,47.21252499976456],[-68.97858999965871,47.217698999784076],[-68.9803990000284,47.22011300006672],[-69.02707499955889,47.239339999901006],[-69.03377300001405,47.24040300007281],[-69.04089999991628,47.2450109997385],[-69.05074699968412,47.25647900013866],[-69.04684199978787,47.27158499993641],[-69.05077799964627,47.27847400007744],[-69.04919199975765,47.283323999882406],[-69.0496960004461,47.289284000001345],[-69.05117299965647,47.29238300023485],[-69.05311099989761,47.292812999903276],[-69.05346499989994,47.29717999976551],[-69.05063299988132,47.29953800019158],[-69.05069900000355,47.30395599997887],[-69.04923699996348,47.30584899999525],[-69.05486599984064,47.31533100003038],[-69.05353000019727,47.34063999997991],[-69.05488299955907,47.3777159997667],[-69.05002500033409,47.37855000022943],[-69.05088800014944,47.38097299980709],[-69.04748299984537,47.38342299969841],[-69.0421429996732,47.38264499991216],[-69.0396420000907,47.38420800029018],[-69.04013800038325,47.3860119998373],[-69.04488799965321,47.38865699985963],[-69.04540999988502,47.39298600022312],[-69.04376899974481,47.39743300015888],[-69.0392060000726,47.395399999850696],[-69.03756499993239,47.39684299978263],[-69.0418520003184,47.39823499983464],[-69.0427319998522,47.401969999942],[-69.04002899970499,47.40025700006807],[-69.03523900025206,47.4018010002568],[-69.03986999969634,47.40224399974752],[-69.04249400020082,47.404746000041236],[-69.04032699963082,47.405689000080834],[-69.03945100029499,47.40372000021826],[-69.03237600027128,47.40222100008935],[-69.03159899977136,47.40313300025245],[-69.03340899996597,47.4044409999506],[-69.03059899968865,47.40742000019361],[-69.03128699960182,47.409056999820926],[-69.03659499998692,47.40767699986003],[-69.03451899965353,47.414565000239925],[-69.04224899997843,47.4157129999486],[-69.03919699985177,47.419655000212565],[-69.03945700014276,47.42228600018478],[-69.04225599965112,47.423586999783254],[-69.04321700027408,47.426784000124194],[-69.0474350001648,47.427741000222376],[-69.04654600041017,47.42427299971632],[-69.05215000017297,47.4221419997647],[-69.05231800040247,47.42327399980565],[-69.04854999987523,47.42419400016975],[-69.05324200031717,47.42853000001937],[-69.05212000003574,47.430007999740006],[-69.05448500007414,47.42909099977671],[-69.05682900019613,47.42997599998578],[-69.0556380003177,47.43217799977447],[-69.06215299957644,47.432642000111166],[-69.06354900039258,47.434058000215515],[-69.0637400001883,47.43189900013798],[-69.06190700042745,47.430585999812756],[-69.06734200013585,47.43007500001689],[-69.0683930002722,47.427406000145396],[-69.07485599965237,47.42728799979376],[-69.08136300031181,47.423739000027275],[-69.08813899968645,47.42553600028636],[-69.09013800002694,47.4241360001579],[-69.09126699998109,47.42682999985764],[-69.09785199956,47.426890000004484],[-69.09715699997415,47.42974000021021],[-69.09888199977993,47.431448000141664],[-69.10055899990516,47.430197000075324],[-69.10419199981486,47.43086499972532],[-69.10506100037632,47.42790199983278],[-69.10774100005898,47.427684000185664],[-69.10656400042427,47.43067499970156],[-69.10779299993752,47.43537500029522],[-69.1126000000072,47.43580100014774],[-69.11208699999621,47.43751700010024],[-69.1179999995555,47.43919300016584],[-69.12201499995491,47.44269800013642],[-69.1233790000857,47.442606999849495],[-69.12360900023948,47.44068699993597],[-69.12681100015395,47.443565000223224],[-69.13930099979454,47.446635999885515],[-69.14105599973757,47.444003000121484],[-69.1456109999122,47.448588000160036],[-69.15037199995112,47.44872699969789],[-69.15649899977063,47.45163900023207],[-69.15902299981768,47.448419999953],[-69.16225800024246,47.447431999724316],[-69.16505599992588,47.449238000007036],[-69.16312799973049,47.450274999902085],[-69.16492799987935,47.45151499973109],[-69.17251799956387,47.45353999970617],[-69.17273400037224,47.45564900005839],[-69.17889700017679,47.45737799998133],[-69.18990800005888,47.45356300003286],[-69.19579399985398,47.45549299987231],[-69.20519600028123,47.45195300025193],[-69.20613299971644,47.454101000103634],[-69.21788900031142,47.45661400001091],[-69.22446100036987,47.45983299982984],[-69.6128539995823,47.07903300015761],[-69.9971109998181,46.695519999930525],[-70.05650000036859,46.41557799981316],[-70.0764469996243,46.40953899980913],[-70.08124700002128,46.41066699986779],[-70.0870280002344,46.40924699995741],[-70.08911700008827,46.410924999769215],[-70.09694399959923,46.409478000020165],[-70.09452199965943,46.40829699983972],[-70.09683900001725,46.40699699982702],[-70.09517500031082,46.406417000070675],[-70.10093600043245,46.40525600025107],[-70.09777499962755,46.40424400014859],[-70.1004190002235,46.403150000138176],[-70.09878099955803,46.40106899976507],[-70.10093600043245,46.40126399985695],[-70.10165600013268,46.39707499982328],[-70.10752799968408,46.39263900004284],[-70.10684999981665,46.390530999834525],[-70.10869699982118,46.39137500016571],[-70.10987500017912,46.39026899995928],[-70.1077610002109,46.38899699979828],[-70.1077610002109,46.387718999809074],[-70.10990000029346,46.388941999759396],[-70.11021400011285,46.387419000123955],[-70.1123170002104,46.38809399988523],[-70.11076399993374,46.386108000111555],[-70.11421100007061,46.38520299984513],[-70.11497500015176,46.38801700015251],[-70.1166470002541,46.388217000206716],[-70.11620600021315,46.385917000265025],[-70.1270249995763,46.380399999703464],[-70.12810599984986,46.378938999894046],[-70.12699199996435,46.37080799997887],[-70.1337330000772,46.36888299989606],[-70.13643600022439,46.36987200029045],[-70.14137499964023,46.364805999931484],[-70.14109400033115,46.36252200020575],[-70.1448999995949,46.36210599990231],[-70.14809200036196,46.358993999863706],[-70.15643299970881,46.36145000030789],[-70.15860299975354,46.35923899992061],[-70.16167199959862,46.361061000056395],[-70.16656400005714,46.357361000144856],[-70.17288599987033,46.35918600026964],[-70.18110599974167,46.354161000128144],[-70.1816920004459,46.352181000101695],[-70.19118900040941,46.35021699969815],[-70.19148099958915,46.34756699969783],[-70.19577499964782,46.34328600023518],[-70.19569699983002,46.34083299992509],[-70.20894399987908,46.32949399969531],[-70.20604699956313,46.3247419997119],[-70.20729199986822,46.31955299970558],[-70.20298299974093,46.314361000240986],[-70.2061000001649,46.309855999805094],[-70.20588099988178,46.29972799993736],[-70.21237199974938,46.2985390000704],[-70.21524999979876,46.29476900024973],[-70.2169000001598,46.29544400028825],[-70.21696100025916,46.29422800024654],[-70.23163299964006,46.291027999704326],[-70.2325309996155,46.28470800005304],[-70.23987799962576,46.27914999986502],[-70.24066699982127,46.272950000104274],[-70.24335300025004,46.27306900002411],[-70.24304399955524,46.27181100021808],[-70.24866099973681,46.267081000070256],[-70.25009199981476,46.26143100005091],[-70.2530719999714,46.25882500009229],[-70.25303900035942,46.25516699995666],[-70.2546779999515,46.25421399979485],[-70.2515029998012,46.25186900030584],[-70.25089199988092,46.24910799979071],[-70.25539199980393,46.246125000176285],[-70.25405299978752,46.245699999737056],[-70.2591970001411,46.238916999712465],[-70.25797799977528,46.237927999853575],[-70.2603670001031,46.23022799986209],[-70.26733599982158,46.22501700000457],[-70.26576400017667,46.223610999918186],[-70.26748099958655,46.21940800022411],[-70.26904200025912,46.21966100001623],[-70.26871099982301,46.21797799980521],[-70.27150000018395,46.21648099977433],[-70.27364699976413,46.21682799984338],[-70.27436099961658,46.21451900027028],[-70.2720190000427,46.213700000258164],[-70.27107500003649,46.21082499976555],[-70.276396999767,46.207507999874245],[-70.27753300029214,46.20369700002261],[-70.28541400022978,46.197571999698255],[-70.28600599988349,46.195386000304225],[-70.28816900025552,46.19528300028339],[-70.28897500016946,46.19277200010812],[-70.29269199974475,46.19146399976276],[-70.29009400007784,46.188881000117725],[-70.29060799991375,46.18513599991726],[-70.28593899993633,46.184627999996735],[-70.28583900037721,46.182599999841074],[-70.27759400039149,46.17457500010544],[-70.2665690002657,46.169330999844995],[-70.26446699999305,46.164653000266725],[-70.25964400002984,46.16321099993484],[-70.2554389996596,46.15848300000227],[-70.25261400021198,46.158155999704455],[-70.24953600014605,46.15551100008937],[-70.25035600030371,46.154293999763375],[-70.2476029999278,46.15312499987611],[-70.24823300011464,46.15180599976984],[-70.2438219998801,46.15146099987727],[-70.24251700019887,46.14975000030082],[-70.24059400002635,46.15096899980145],[-70.24041900012416,46.14899200004868],[-70.23628300024922,46.14523299991725],[-70.23958100042317,46.14319399990841],[-70.2396750001345,46.13786399996624],[-70.24390300007094,46.13101100015913],[-70.24356400013724,46.128755999795764],[-70.24743600042153,46.12558899981683],[-70.24783899992936,46.12267500007654],[-70.25148299970971,46.11951099984665],[-70.2521780001939,46.11506899974261],[-70.25453099963842,46.11370300023943],[-70.25348299987512,46.112261000169156],[-70.25532200038205,46.10902500017985],[-70.25279400013703,46.10759199997817],[-70.25220800033112,46.10528900024785],[-70.25311399980419,46.10011900014981],[-70.27253299987859,46.10208500010663],[-70.27936699987788,46.09985999975387],[-70.28593700028651,46.099826000263356],[-70.2841839999933,46.09788999981671],[-70.28970599974032,46.09457399984146],[-70.29202200027323,46.08679300024911],[-70.30190900022407,46.08236000019059],[-70.30227900011992,46.08042900021049],[-70.29998199985359,46.07841499999366],[-70.30285900007806,46.07659099971036],[-70.30207699955525,46.0732680000843],[-70.30502499992483,46.07180299971626],[-70.30253100001501,46.07035799974492],[-70.31095599992577,46.06418200014895],[-70.30687699995224,46.061119000226554],[-70.30335500037062,46.0622590001358],[-70.30038400043482,46.06058499985705],[-70.29219399980236,46.0604409997277],[-70.28424599991759,46.06271800025325],[-70.28218399982788,46.06026700026511],[-70.27894199973045,46.06083799994519],[-70.27832099976443,46.05628599972051],[-70.2807760002145,46.054273999823636],[-70.27961399975008,46.052325999864756],[-70.28104900002597,46.05064600009926],[-70.28913599982793,46.04650199978766],[-70.29424199964835,46.041018999977325],[-70.29736499992013,46.04070999983956],[-70.30185300014757,46.033338000206676],[-70.30193400033842,46.031802999910596],[-70.29846000043739,46.03087899985403],[-70.30137399957347,46.02762000006524],[-70.31799599978937,46.0190750001987],[-70.31404700041048,46.01612999973528],[-70.31222999964486,46.0166540000134],[-70.31049599961823,46.0149249997862],[-70.3113030002554,46.012054000227685],[-70.30612100026701,46.00976599974033],[-70.30554799998156,46.00359100000723],[-70.30301999973653,46.00296699978248],[-70.30402499984211,46.001191999690796],[-70.3023689996333,45.998680000285404],[-70.2919219998158,45.99736099974192],[-70.2903519998207,45.99590199999044],[-70.29109400016056,45.99495900019238],[-70.28870900003068,45.99528899974568],[-70.28862700001491,45.994007999720615],[-70.28394200014397,45.99548800017045],[-70.29467099999377,45.98616299997656],[-70.29972699958546,45.98587500025283],[-70.30698999993014,45.98269199996335],[-70.30891099955453,45.98039800028731],[-70.30703199976293,45.97834799987433],[-70.31193400026717,45.97451800003399],[-70.31024299989825,45.972539000134304],[-70.3124639999966,45.96910799981395],[-70.31157000021909,45.96635899978296],[-70.31585900025492,45.96299099978285],[-70.31255100003523,45.962135000268205],[-70.30484599982468,45.964973000232106],[-70.29837400022367,45.962893999890994],[-70.28338599957696,45.96377699993018],[-70.27700400038762,45.9672510001448],[-70.27268600003949,45.9643730001568],[-70.27494200029793,45.96345799987863],[-70.27447600014261,45.96138299978451],[-70.26571399994795,45.964206000225495],[-70.26144400017871,45.959988000100324],[-70.25802399980603,45.95897899998261],[-70.26006599980421,45.95759099974841],[-70.25865800019083,45.9545880002897],[-70.26052600011177,45.95229000028588],[-70.25635099987876,45.95205800008155],[-70.25279400013703,45.955400999834424],[-70.24896500040875,45.952433000006096],[-70.2480310004483,45.94963599976186],[-70.24232499967992,45.94663899973097],[-70.24427499961664,45.94467799992213],[-70.23914200003202,45.94394399993196],[-70.24035399982685,45.94291500010946],[-70.2396259997307,45.939637999877554],[-70.25330700014803,45.93254799979283],[-70.26309000034179,45.923986999925596],[-70.26235100037499,45.920041999964674],[-70.26055899972373,45.92046699999695],[-70.25718299973198,45.91763899994623],[-70.25953199987684,45.90976400028475],[-70.25338599979074,45.907369999930886],[-70.25386700001467,45.902479999844964],[-70.26571800014592,45.89374899982138],[-70.25882200022237,45.891168999849555],[-70.2722090000135,45.8830839999499],[-70.2739260003217,45.87964200014407],[-70.2844579996297,45.8716980000395],[-70.30351600002909,45.8627369997347],[-70.30780599988982,45.85884699977218],[-70.34194499992404,45.852343999773346],[-70.34351599974406,45.8499779999956],[-70.34930100015514,45.847067999835886],[-70.35299199979114,45.84236000018464],[-70.35218599987721,45.84090300000294],[-70.35569499993834,45.83960099970138],[-70.35942599975735,45.83544999969991],[-70.37082400015203,45.83519799975338],[-70.37193100036487,45.83395899974336],[-70.36933699999761,45.83117099989307],[-70.37224099998626,45.828003999846906],[-70.37679899963561,45.82676499992706],[-70.388027000151,45.818802999758624],[-70.38779299979926,45.81435300002566],[-70.39669300008619,45.80809599996479],[-70.39785100035265,45.803769999728736],[-70.39571599956969,45.80252699987102],[-70.39615999998372,45.798659000174865],[-70.40136700008648,45.79595800016714],[-70.4066700004487,45.797796000249896],[-70.416870000394,45.79553600014921],[-70.41780600000428,45.79397999986064],[-70.41435499966946,45.790161000230604],[-70.41573899989172,45.78534799980961],[-70.41018299980949,45.7842370002648],[-70.40562400033525,45.77651500004391],[-70.40766399978531,45.77320900003774],[-70.40546399960336,45.77000500002495],[-70.40702699992576,45.76252799989072],[-70.40077899973241,45.75735999997521],[-70.39587600030158,45.75663200010643],[-70.38842499963593,45.75020600008725],[-70.38914900043243,45.74700200027843],[-70.3945110003459,45.743589000217696],[-70.39292399973405,45.74146100002201],[-70.39389399967953,45.74008900013285],[-70.3893710001903,45.73745100007959],[-70.39013899957106,45.73609599972736],[-70.3854439996544,45.73626999975896],[-70.38586100030425,45.73461800021989],[-70.38383600002446,45.734554000165296],[-70.39010199976116,45.72849600015816],[-70.39650599959012,45.72908100001016],[-70.39673099972103,45.725141000143076],[-70.4006220002719,45.72166100013072],[-70.40034600008738,45.71971700019407],[-70.42920100002593,45.71039200017455],[-70.42885500041952,45.708002000312085],[-70.42540999993247,45.70752100031137],[-70.43130400012349,45.70701899982998],[-70.4391619995966,45.70387400006414],[-70.44105999965475,45.70539400021409],[-70.44447099980663,45.70375499973232],[-70.45091300016873,45.70393400013541],[-70.45592500027782,45.707052999847456],[-70.46135800033639,45.70555600024536],[-70.46546900009697,45.706529999892595],[-70.47053100043479,45.70305400016483],[-70.46910899967936,45.701677000159485],[-70.4760590000296,45.69691700003981],[-70.4943130001649,45.688658000285066],[-70.49646300011813,45.685643999801215],[-70.502390999746,45.683290000194766],[-70.50230600025552,45.68185500018435],[-70.51077899984685,45.6791549999656],[-70.51980800000521,45.671362999976864],[-70.51991099993738,45.66907300005816],[-70.52639199975923,45.666356000043685],[-70.53391100019694,45.67100599970041],[-70.54239100035927,45.666458000129886],[-70.5471809998122,45.66608699989128],[-70.55287900018466,45.66790799977942],[-70.55858900025265,45.66647600027354],[-70.560217999799,45.66402199991161],[-70.56370900031679,45.66274200007501],[-70.5621960002231,45.66036700001636],[-70.5652089999917,45.65713000013831],[-70.56494500040105,45.6548069998981],[-70.57283100036156,45.64877299986683],[-70.57557399979342,45.64836700025159],[-70.5795289999184,45.643582999780314],[-70.58357299973181,45.64239699990402],[-70.58402100034381,45.63887600010547],[-70.58991100033685,45.63383900000959],[-70.5908710002366,45.630459000300135],[-70.59673100009243,45.629778000172614],[-70.60704499984053,45.62565399988382],[-70.60854000039086,45.621775000139976],[-70.61815100015717,45.61547999980951],[-70.61914700004192,45.612023000062436],[-70.63181099975981,45.60917799980456],[-70.63615599987213,45.60993300007078],[-70.64457300028528,45.60698500003602],[-70.65085200044076,45.59936499982778],[-70.64978299986278,45.59757400009997],[-70.65395800009578,45.59280800019374],[-70.65912300036575,45.58966800022005],[-70.65905100039572,45.58727600002461],[-70.66380499986366,45.584596999985195],[-70.66408799972088,45.58278599991299],[-70.67213699988798,45.5785210002455],[-70.67204099962852,45.576233000207594],[-70.67809499965313,45.570500999733945],[-70.68769200007404,45.56942200019302],[-70.68511899962319,45.566570999738516],[-70.689195000122,45.56218299980954],[-70.67709899976836,45.552211000026425],[-70.68698200041956,45.54931300030853],[-70.6965250004138,45.53999600012005],[-70.69808899966282,45.53533000025084],[-70.70091800020671,45.53248900018916],[-70.69909700014144,45.530132000300874],[-70.70645599984726,45.52791500031331],[-70.7111189999769,45.519534000139856],[-70.71575899964199,45.51885100019302],[-70.72257099989996,45.51367199977427],[-70.7236439997776,45.510130999756],[-70.7226920002738,45.50651199995422],[-70.71159600000287,45.50180800022544],[-70.71189099955566,45.49712700030066],[-70.71784400019621,45.49023199987423],[-70.71639600039985,45.48646699998053],[-70.70473299969129,45.47886000029743],[-70.69947500043321,45.478920999769],[-70.69172099981887,45.47426599995359],[-70.69286800021466,45.4663639998437],[-70.69046700019126,45.46361200014175],[-70.68182200017246,45.46169100015993],[-70.68111400016781,45.45218300016659],[-70.67507500021183,45.4518779998698],[-70.66292699997967,45.44596199980269],[-70.65073199989185,45.44494399993862],[-70.6461659998466,45.437769999759674],[-70.64255100037856,45.436289999986165],[-70.64308899960558,45.43359300004147],[-70.64044599973285,45.4307769997409],[-70.63599000019077,45.427381000068344],[-70.62982099964013,45.4263140003113],[-70.62777399961905,45.4207030000462],[-70.63116800005247,45.417792999732264],[-70.63115100033403,45.415889000166885],[-70.63550200029414,45.414888000090954],[-70.63505100020741,45.41106899994965],[-70.63016899979468,45.40703100009921],[-70.62379799957769,45.40578899997601],[-70.62126900040607,45.4027359998067],[-70.62334099964319,45.40021699993075],[-70.63304299964608,45.398405000265896],[-70.63632199955349,45.395232999815676],[-70.63887800028589,45.38882500018725],[-70.63490200024451,45.385315999726004],[-70.63488800000081,45.38341700026393],[-70.6517839998531,45.37695799972387],[-70.66078200004931,45.37813300000656],[-70.66166099975818,45.386310000281966],[-70.6781709998211,45.39427400008805],[-70.68290300044602,45.39520800025695],[-70.68764699986819,45.39287600015739],[-70.69615700016777,45.392417000070985],[-70.6995020001974,45.39453699979376],[-70.7120139995793,45.39048299990401],[-70.72965400031957,45.399095999881986],[-70.7314379996766,45.40187400002419],[-70.73037900004267,45.404375000100394],[-70.74357300038828,45.411860000217814],[-70.74526300003399,45.416257000165174],[-70.74401199988111,45.421165999867625],[-70.75001700040022,45.42323200028315],[-70.75457900024752,45.428310000119644],[-70.76439599987813,45.42592799987761],[-70.76822700015457,45.428501999899915],[-70.78143900004352,45.43123000002653],[-70.78757900028184,45.42647299982855],[-70.79382099972909,45.42836299981561],[-70.7980949996963,45.42651600028319],[-70.80250900030391,45.41793700028854],[-70.81133400024775,45.41616600016603],[-70.81281999967895,45.41141400021936],[-70.82573700001514,45.40026500016776],[-70.82594999955215,45.39838099999321],[-70.82429300041673,45.39664499990932],[-70.8252280002021,45.39308199999847],[-70.82392699982053,45.39101900025583],[-70.81729200001288,45.39036100007658],[-70.81377299990599,45.387757999919735],[-70.8124640000268,45.38344099995141],[-70.80673399986732,45.377451999822426],[-70.80275500035121,45.36752100027972],[-70.80292199985747,45.36502599972977],[-70.80844199995468,45.363071000203995],[-70.80983600022269,45.35797000025991],[-70.81447000004,45.356680999958684],[-70.81164100039442,45.35211999999604],[-70.80943700001451,45.3515109996911],[-70.80980100006258,45.34867100026379],[-70.81732600034807,45.34474400019039],[-70.81990100044874,45.34019500005542],[-70.81640099971013,45.33077299990312],[-70.81291099991556,45.32803899972048],[-70.80758199961404,45.32766200022488],[-70.80807100023391,45.32498999979352],[-70.80609600018285,45.321209999738436],[-70.80842600006115,45.311816999735484],[-70.81462900004865,45.3081609997146],[-70.81154000011207,45.30376699990423],[-70.81629100010527,45.29818099987019],[-70.82500600044425,45.29789000028612],[-70.8354640001324,45.2939640002842],[-70.82994300021028,45.29017999990785],[-70.83189599962171,45.278911000284154],[-70.83646000001714,45.27597599992336],[-70.84125200001822,45.26701400008467],[-70.84894100033522,45.263089999954516],[-70.84809699988814,45.25893199987157],[-70.84961500000469,45.25590700004506],[-70.84653000026607,45.25301300018991],[-70.84862999999059,45.24517899995676],[-70.83926199989853,45.23754300008125],[-70.83663599974423,45.23730399974357],[-70.83758399994841,45.234988999707504],[-70.84613600008078,45.234383999738085],[-70.85753299975225,45.229133999837416],[-70.87482299978984,45.234148999984136],[-70.87956200008747,45.233389000049044],[-70.88473400003012,45.23485900016327],[-70.88931799961874,45.23870400026345],[-70.89261499996776,45.23897399978925],[-70.89694300036165,45.241864000186176],[-70.89795099994197,45.24632300021974],[-70.89514599968753,45.25225700018412],[-70.89833000005864,45.254852000202405],[-70.89851199963353,45.25832799974587],[-70.9058949996288,45.26082700005866],[-70.90507600019437,45.26522400004661],[-70.90749899995909,45.26844299991882],[-70.91130799959589,45.269990999801955],[-70.91641199976648,45.277335999845086],[-70.9213340003622,45.279226000182675],[-70.91870200036011,45.28728300014191],[-70.91380499987874,45.29186599983535],[-70.91200499972987,45.29631099973066],[-70.91376300004596,45.30034899994674],[-70.91961000038133,45.30526300030306],[-70.91783500034681,45.31172300012644],[-70.92716099970777,45.31485399996785],[-70.9299659999622,45.31881099999545],[-70.9388939998382,45.31998000020747],[-70.940582999659,45.3232299999886],[-70.94520399995585,45.325702999758406],[-70.94512699996297,45.329036999817745],[-70.94948999961862,45.331316999853286],[-70.95092900009246,45.33479899980837],[-70.95024100017929,45.337504000078255],[-70.95237900043696,45.3391170000768],[-70.96118500011424,45.3367200001156],[-70.96732399962933,45.332220999953314],[-70.9733269996003,45.33361299987877],[-70.98497500024025,45.33190699979928],[-70.98912000033604,45.3341369997987],[-70.99084699979164,45.33809599976452],[-70.99381600007763,45.33836399976324],[-71.00043599981666,45.34203399971653],[-71.00143300042463,45.344168000308265],[-71.01065199965548,45.34767500027282],[-71.01300099980033,45.344234000085635],[-71.01061999986841,45.33815599968596],[-71.01211600024368,45.333869000001904],[-71.00665399987278,45.33272600002293],[-71.00187199991747,45.32842800001061],[-71.0039230001365,45.3273720001686],[-71.00852099996881,45.31924100001487],[-71.01623100020223,45.3155300001416],[-71.02709200029649,45.3146859997614],[-71.03267099994493,45.3101919997015],[-71.04150000008674,45.31310800015773],[-71.05316899974477,45.3114159997729],[-71.05909999974571,45.31383800005166],[-71.06553700008494,45.31253600014331],[-71.07497999962179,45.307051000075006],[-71.08392799958928,45.305483999973255]]]}}]}