{"type":"FeatureCollection","features":[{"type":"Feature","properties":{"GEOID":"29","NAME":"Missouri","STATE":"29"},"geometry":{"type":"Polygon","coordinates":[[[-93.18369700022734,40.58199899981842],[-93.5475779999637,40.58040700003209],[-94.07213999969869,40.57302600001593],[-94.48910900008872,40.57070599982215],[-94.66462999969774,40.5716579997624],[-95.76385499999205,40.585207000015494],[-95.76852700034252,40.58329599992691],[-95.77354899959904,40.578205000247465],[-95.77470400039076,40.573574000170495],[-95.77374899961558,40.570493000297965],[-95.76502999997693,40.55692100028149],[-95.7633660002705,40.550797000260744],[-95.76469600006611,40.545721000246175],[-95.76841199981646,40.540346999959766],[-95.76869300002386,40.53410600008002],[-95.76285699955918,40.52837100026322],[-95.75710999968123,40.52599000011871],[-95.73724999956585,40.523930000085294],[-95.72521400038501,40.52777299998097],[-95.71753699976355,40.52778300028991],[-95.71286199993834,40.52638400020324],[-95.70859100034419,40.521551000024616],[-95.69720200017032,40.52847500015354],[-95.69549499990785,40.53202099975563],[-95.69737700007249,40.54138899980755],[-95.69414699967061,40.55694200025518],[-95.68702099959329,40.560668999841575],[-95.67871500040653,40.5625609999768],[-95.67177599992695,40.56262799984738],[-95.66549500012164,40.556696999924675],[-95.66210700043432,40.54996700003526],[-95.65584800037031,40.546608999840025],[-95.65226899998898,40.53810800028053],[-95.65567400029303,40.523557000113954],[-95.66168099956366,40.517311999757126],[-95.69996899989161,40.50527499999936],[-95.69482299988822,40.49470499980228],[-95.69675600010648,40.47884899996114],[-95.69465100035907,40.47145199981882],[-95.68753199995446,40.4652060003397],[-95.66771399967186,40.4534630002802],[-95.65657499974324,40.438701000296014],[-95.65596399982296,40.429873000103186],[-95.66070999979327,40.41882699978051],[-95.66060199983822,40.412408999822034],[-95.6439350003148,40.38685100018907],[-95.64102700012819,40.36639899993633],[-95.62712399995303,40.35279999994824],[-95.62268400030446,40.34232300026568],[-95.62401499992497,40.33622599978183],[-95.62764799983465,40.33241200030055],[-95.65372900037922,40.322582000255075],[-95.65776399997182,40.3157879997593],[-95.65732799995374,40.31085600004829],[-95.65150699955764,40.30668399997724],[-95.6453289996845,40.3056929996971],[-95.61793099976313,40.31372800005277],[-95.61043899998792,40.31397000007456],[-95.59865700035199,40.30980899988642],[-95.59016499959574,40.303199000219735],[-95.58178700043895,40.29958000024791],[-95.57069299981787,40.299425999972016],[-95.56215699957902,40.29735899986191],[-95.55555299973352,40.29327299968836],[-95.55162000024816,40.28866599972103],[-95.55148800000369,40.28106099975199],[-95.55627499998187,40.27076100030621],[-95.55632500021058,40.267714000001334],[-95.55247300001777,40.26190399986298],[-95.54373699976237,40.26068700005229],[-95.52103499958261,40.25008299973251],[-95.48899899964597,40.24873900026537],[-95.48071000017765,40.24507999984846],[-95.47624100021677,40.24125700033731],[-95.47034899967556,40.23081900023208],[-95.46990000013702,40.22270000028959],[-95.4723630000847,40.21533499978663],[-95.4823189996325,40.20066700007847],[-95.48253999956545,40.19228299996165],[-95.479192999886,40.1856520000733],[-95.4638310000438,40.17120100033978],[-95.44281799968482,40.163261000080595],[-95.43634799973363,40.15871999979878],[-95.43382200003674,40.15293499991494],[-95.43216500000301,40.14102500023154],[-95.42740899998697,40.134607999960615],[-95.41954999979063,40.13104899999029],[-95.40769100016179,40.12983900004801],[-95.40026600033373,40.12729299966855],[-95.39654899986012,40.124700999697765],[-95.39334699994565,40.119211999883326],[-95.3928099996452,40.112928999737825],[-95.39421599960878,40.10826300028777],[-95.40659800019266,40.09910599974713],[-95.4100999996828,40.09397500031535],[-95.41042600009604,40.08794800030883],[-95.4083890001207,40.079721999895234],[-95.40936699956379,40.07499800027619],[-95.41889600021264,40.065958000077394],[-95.42133999989376,40.0607459997853],[-95.41860800033257,40.046751000247035],[-95.41054800029477,40.035628000153686],[-95.40100199992747,40.02985599972977],[-95.3894360002016,40.026858000031886],[-95.36398300019405,40.03149800009171],[-95.35372200014942,40.030788999928184],[-95.34657299960756,40.02827199980069],[-95.33373099961445,40.01783199995687],[-95.31527099961484,40.01207000026049],[-95.3093320001163,40.00447300024337],[-95.30808799963611,39.99247800026275],[-95.30580299996366,39.98789899966052],[-95.29540300000184,39.98066299988132],[-95.26988600042021,39.96939599965759],[-95.25765199997433,39.954886000320634],[-95.25025399991044,39.948643999942334],[-95.23676099981408,39.94393099992929],[-95.21643999956625,39.94395300021107],[-95.20526600037586,39.9397499997955],[-95.20192399982095,39.936121999924374],[-95.20038200031325,39.93103099973584],[-95.20058200032982,39.925123999876504],[-95.20606300006897,39.912060999984405],[-95.20274499980353,39.90507600007466],[-95.19379299963806,39.90097199977367],[-95.1812219998066,39.899996000252116],[-95.17430300031684,39.9009910002266],[-95.15983400042724,39.906984000175804],[-95.14965700004817,39.90594799987068],[-95.14283800011751,39.90040200027584],[-95.14325400004412,39.887775000020746],[-95.14060100012563,39.88168800029402],[-95.1347470001176,39.876851999961666],[-95.12452899973066,39.87285700026141],[-95.11084900003654,39.87098899982255],[-95.09015799989284,39.86313999983266],[-95.08155999972972,39.86153900004616],[-95.03940300038883,39.8648319996734],[-95.03286099956928,39.86732099986275],[-95.02674700016854,39.87227300032567],[-95.02482900001891,39.87816599989085],[-95.02594700010238,39.88674700006627],[-95.02372299963099,39.8920349999431],[-95.01760599985721,39.89825399999696],[-95.00993599980677,39.90063600010656],[-94.98705899972481,39.89632000026264],[-94.96212700012418,39.90126300018452],[-94.95517799959887,39.90128800023796],[-94.94000200042782,39.89647200027371],[-94.93015999978454,39.889933999811824],[-94.92735899972804,39.88396599986988],[-94.92782599970826,39.87781699978911],[-94.93047100012916,39.87356199992249],[-94.94179699965551,39.8634170000926],[-94.94295999994483,39.859457000080404],[-94.9405990001044,39.85301799994431],[-94.92615000030628,39.841322000305546],[-94.91676600032068,39.835806999996294],[-94.90634000041959,39.83373600028951],[-94.89148099964432,39.834644000269435],[-94.8848259997452,39.83241799967163],[-94.87733300014506,39.824473999802024],[-94.87594399989993,39.81329399992992],[-94.87764399959137,39.80359400005055],[-94.88102200013127,39.79726200017949],[-94.88465199966792,39.79399699999843],[-94.89318000040916,39.790914999987805],[-94.9282299999393,39.788938000118755],[-94.93499699999143,39.78369199991198],[-94.93457299966889,39.77296099994316],[-94.92069299995826,39.76293799982813],[-94.91094900012256,39.75917800011644],[-94.89826299976507,39.76162199983772],[-94.88216100013115,39.771042999747344],[-94.86965499969871,39.77289899980144],[-94.86522000007302,39.770069999844296],[-94.86063899995915,39.762982999754065],[-94.85903499962888,39.75411599975481],[-94.86273500038402,39.74219500010418],[-94.86773999992211,39.73604199971404],[-94.87563400027854,39.730491999915046],[-94.8841429998549,39.72679400020183],[-94.89931599955122,39.72404200009922],[-94.91834200016358,39.72879699996653],[-94.94180400022653,39.74336700012525],[-94.94754100005872,39.74533699975466],[-94.95528599955391,39.74568900010699],[-94.96395800023521,39.74036099997269],[-94.97120599961293,39.72930499978462],[-94.96845300013534,39.70740199982614],[-94.96898100021495,39.69295400004954],[-94.97067699970842,39.6872390000346],[-94.97581299966608,39.68175399997755],[-94.98156499956688,39.67863600026141],[-95.01531000031409,39.67426200022467],[-95.0276440003191,39.66545400024156],[-95.04951799994528,39.63787600020625],[-95.05426700028865,39.62774500024111],[-95.05423600032651,39.61729099970876],[-95.04644499990223,39.60160600016438],[-95.04716499960246,39.59511699978803],[-95.05058999999802,39.58756299978985],[-95.0568969997426,39.580566999932174],[-95.06709500003805,39.57650199986571],[-95.07521000032742,39.576429000242804],[-95.09214999966233,39.58111600025971],[-95.10494800017283,39.57660399979813],[-95.1074739998697,39.57374300033976],[-95.11328400039513,39.55815200032649],[-95.1135570002066,39.55394099971957],[-95.1103679998126,39.54456199983623],[-95.10458699959949,39.53514400028727],[-95.08759000036316,39.520354999656796],[-95.0774409995732,39.51355199982453],[-95.05930000031414,39.50647299988459],[-95.05445899990927,39.502652999761175],[-95.05055200036318,39.49751400013706],[-95.04767099994075,39.477535999993],[-95.0446680002179,39.47125599985573],[-95.03750000030779,39.4636889997473],[-95.01576300005063,39.453099000172614],[-94.99017199995085,39.44619199980822],[-94.9821439997001,39.44055200012718],[-94.97879799984558,39.4362410002315],[-94.97660600005953,39.426701000141186],[-94.97295200023343,39.42170499984926],[-94.96448899978954,39.416717999903426],[-94.95481699992385,39.41384399982054],[-94.9478640000989,39.4086040002224],[-94.94629300027887,39.405646000022955],[-94.94622700015665,39.39564799984217],[-94.94203900040316,39.38949899988115],[-94.93365200012722,39.3855460002104],[-94.92299400042255,39.384883000254185],[-94.9158590001244,39.38634800004093],[-94.90013200040922,39.3933330001254],[-94.8918449996924,39.39331300020248],[-94.88502599976174,39.38980100010491],[-94.87928100043194,39.379780000246775],[-94.87908800008809,39.37570299972994],[-94.88136000024008,39.370382999867296],[-94.88714499975283,39.36543099990767],[-94.90249700044762,39.36038299995771],[-94.9100169998119,39.352542999778],[-94.91035300027089,39.34473500033658],[-94.90612600015935,39.314721000304736],[-94.89851600038335,39.29845000016412],[-94.88409299962618,39.28451199993101],[-94.84631999985736,39.26848099998917],[-94.8305529999592,39.25513499993542],[-94.82747900009124,39.24989599976708],[-94.82566300004886,39.24172900002343],[-94.82779100026077,39.23400099998873],[-94.83489600042171,39.22384200015291],[-94.83472999984203,39.220754999890694],[-94.8316790004386,39.215938000255626],[-94.82193499970458,39.209668999782615],[-94.8115430001387,39.20690599978312],[-94.78295099996586,39.20716200007424],[-94.776398000174,39.20181000024498],[-94.77025000043807,39.18982699983212],[-94.76285800022197,39.17999099978],[-94.75228599983271,39.17324999979991],[-94.74077700000822,39.16998699986652],[-94.72363699975847,39.16900300012619],[-94.71413700032024,39.170403000032586],[-94.68878800006978,39.18322799968902],[-94.67823999996995,39.184169000133295],[-94.66911000042758,39.182203999881104],[-94.66157699974616,39.177358999982296],[-94.65916200037738,39.17412600016363],[-94.66139699982112,39.16274200033403],[-94.65921000005794,39.157841000207284],[-94.65578700021054,39.15568000026305],[-94.65064700005492,39.15409199985885],[-94.6355520001764,39.154082000177006],[-94.60865700022029,39.16104400034618],[-94.59384600002392,39.156828000129956],[-94.58865800018772,39.151162999913744],[-94.59028799955897,39.13812100017396],[-94.6051160003721,39.12325900029426],[-94.60851900012804,39.11624399980174],[-94.60713200043104,39.10067499976768],[-94.60845700020374,38.97929800012794],[-94.60762500035054,38.82755999987043],[-94.61335600033493,38.4579670000888],[-94.61247400025302,38.22103999973077],[-94.61411100019525,37.9737970000539],[-94.61789600044092,37.72029699997976],[-94.61672399993077,37.50690399968812],[-94.61866800001967,36.87998800018],[-94.61785899973269,36.49943099975799],[-93.5464649999031,36.49931500012557],[-93.13747100006032,36.497853000058406],[-92.47041600033977,36.498761999744204],[-92.37025200012252,36.4972639998328],[-91.60772300007855,36.4995700002154],[-91.40687199958735,36.497061999725425],[-90.80740799984696,36.49883400024993],[-90.1523070001898,36.4979820003251],[-90.15448100043248,36.496659000271464],[-90.15345000038762,36.49304800030014],[-90.1600669997536,36.49437799992402],[-90.15615099998669,36.48909699998261],[-90.15673099994481,36.487447999987516],[-90.16009900043896,36.487503999820746],[-90.15991600014085,36.48566400020863],[-90.15720600032098,36.4843109999966],[-90.15954399969688,36.48024399967595],[-90.15123799961181,36.476958000258215],[-90.14418100002976,36.476196000097154],[-90.14239199975155,36.47139900023911],[-90.1456620003364,36.46905499995168],[-90.15298500005723,36.470771000060836],[-90.15559299976987,36.466435000100454],[-90.15540699999703,36.46379500013937],[-90.150498999645,36.465463999957386],[-90.14503200014957,36.4628510000649],[-90.14457199984201,36.467232999903985],[-90.1430069998698,36.46795999974526],[-90.14042400027151,36.46507500033542],[-90.14096200039684,36.45853800020539],[-90.13395299959708,36.45378099965882],[-90.13726800038778,36.4501890003385],[-90.13425999974375,36.43645400017161],[-90.1388960001092,36.43510699967162],[-90.13794799990504,36.43156299976668],[-90.14301100006776,36.4309480003566],[-90.14431199955102,36.4260180002303],[-90.13930299981497,36.42131999980765],[-90.13440299985888,36.42287700018475],[-90.13503300004572,36.416815999815135],[-90.13850299974881,36.41372599975548],[-90.1349329995883,36.413572999950496],[-90.12740400000315,36.416736000217384],[-90.1265960004394,36.415591999702364],[-90.12874499966941,36.41144600027842],[-90.12155099982002,36.41083499992014],[-90.11888600020598,36.41251300024052],[-90.11850399971624,36.40942900019102],[-90.11547099985617,36.40799000017578],[-90.11364499976803,36.4095620002586],[-90.11559700025286,36.4058159997911],[-90.11082500034328,36.4077439999115],[-90.11032200037803,36.40416500021949],[-90.10434000032346,36.40542900023055],[-90.10155099996256,36.40197000013525],[-90.09843400043688,36.40401099973497],[-90.08413600025149,36.400524000288925],[-90.08152000014293,36.40109600008557],[-90.07419400004908,36.39298499992914],[-90.07053699984994,36.393520000238965],[-90.06899799981696,36.38823400016264],[-90.06584899960593,36.38745200008205],[-90.06812599978079,36.38514900033952],[-90.06350399965902,36.384080999787734],[-90.06674499993157,36.378006000286085],[-90.06277899993592,36.377163000253205],[-90.06473399989548,36.36892500015751],[-90.06346699984908,36.36708199995175],[-90.0663540001193,36.365089999974565],[-90.06605299982044,36.36006199976533],[-90.06803799991724,36.3565380003228],[-90.07046099968194,36.356381000107035],[-90.07581000007491,36.34983499972818],[-90.07803199999817,36.3492929998398],[-90.07418800020129,36.34337000021034],[-90.07697599983898,36.341439000074544],[-90.07832300025133,36.337709000072046],[-90.07545900044565,36.33434500015591],[-90.07912999999017,36.32769799975273],[-90.08191299960501,36.326457000242904],[-90.07983700016993,36.32350700028628],[-90.08238200013338,36.321996999818076],[-90.0797509999562,36.318357000156524],[-90.07661299961582,36.31921300033196],[-90.06948700043682,36.31325399984705],[-90.06419300029542,36.30250200030505],[-90.06939799985005,36.29857699976362],[-90.07150199977254,36.293205999855516],[-90.07901500036246,36.289867999951895],[-90.07571999966324,36.28105299972409],[-90.07973500006268,36.278660999999026],[-90.08352899963086,36.272122000269064],[-90.09629799982902,36.27130500015533],[-90.09950399994146,36.268947000076786],[-90.10291599991822,36.26893499971549],[-90.10613299990133,36.26601100012299],[-90.11272099985331,36.26634000013185],[-90.11706799961544,36.2634870001383],[-90.11606000003513,36.26152399964505],[-90.11760999993876,36.258166000344595],[-90.11934800016334,36.25767800009993],[-90.11818099967606,36.25556299990496],[-90.11996999995428,36.25471899993849],[-90.1183740000199,36.253273000247894],[-90.12244700014566,36.249320000034594],[-90.121999000432,36.24646799977848],[-90.12500700017772,36.2445019996869],[-90.12400200007215,36.243144999723],[-90.1300469998759,36.24334399999912],[-90.13088299992707,36.24137199981035],[-90.12479999959018,36.23526300015228],[-90.12650199982974,36.23312700019291],[-90.12625699960736,36.2292139996634],[-90.13112099957846,36.22873199978837],[-90.13241000026449,36.22643199988976],[-90.14185199997638,36.227654000356786],[-90.14406999970168,36.22332800016408],[-90.14605200032375,36.223131999885794],[-90.14571800041291,36.220849000099875],[-90.14901599968854,36.22178899984857],[-90.15211300002105,36.21573499994742],[-90.1557159997935,36.213821999687774],[-90.16084400025355,36.21557200001754],[-90.16761700015346,36.213258999763596],[-90.1694719996556,36.214123999814845],[-90.17269700003462,36.21063999971435],[-90.17584600024564,36.210574000279465],[-90.17763399980063,36.20726600029991],[-90.18123099972532,36.20865600012071],[-90.18319699955555,36.20496399998854],[-90.18813000002191,36.20546100003067],[-90.19018600026384,36.20138399991007],[-90.19521400026645,36.20034799992827],[-90.1964560001985,36.19637200021029],[-90.2002380000711,36.1964590000164],[-90.2008930003723,36.19180399981369],[-90.20410699998236,36.18990500012505],[-90.20441499995394,36.186854999976724],[-90.20978600008822,36.18601199989729],[-90.21135899955804,36.18309900012633],[-90.2203459998836,36.18453999970467],[-90.22517700024274,36.17676599972825],[-90.22961299969333,36.17315600013254],[-90.23120799980279,36.163761000220575],[-90.2353470000508,36.15954000019728],[-90.23274000016306,36.15616900019485],[-90.23342700025131,36.1547649998581],[-90.23123000044241,36.15358999974558],[-90.23144299997945,36.146618000019245],[-90.23507900026219,36.14500899970359],[-90.23544499996008,36.13939500027025],[-90.2455560002169,36.13618799967181],[-90.24549599994245,36.133286999718166],[-90.25326700027523,36.12731200031263],[-90.26086199998261,36.127257000084505],[-90.26652500019495,36.12002100029478],[-90.27219099988201,36.118406999754065],[-90.27297699970448,36.11681099977098],[-90.27880499977327,36.11742199994483],[-90.29306000030095,36.11443000005642],[-90.29503799982673,36.11280000022343],[-90.29387100023777,36.10985600022922],[-90.29815799972545,36.10731699969929],[-90.29794600001334,36.10291699984948],[-90.30018499965504,36.09771899974968],[-90.30625399974825,36.094950999799046],[-90.31204500000712,36.0946179997112],[-90.31961200012539,36.089569999825954],[-90.32064499982006,36.08700399972686],[-90.31886499976267,36.084108999863126],[-90.32025200035798,36.08101300007264],[-90.31823799994886,36.076133999870294],[-90.32081300004955,36.073200999860816],[-90.32062100042893,36.07131999973771],[-90.3237310002819,36.071610999726595],[-90.32800699989893,36.06850800036124],[-90.33334500042128,36.067475999959974],[-90.33630299993827,36.06059800005342],[-90.33334899972091,36.05768200035867],[-90.33368799965461,36.05576800001368],[-90.33782100005484,36.05312100009444],[-90.33687399967557,36.04723799973037],[-90.3408949999228,36.04705099981722],[-90.34367300041306,36.043007000145764],[-90.34820799959786,36.041573000233456],[-90.34932800022949,36.03894700024517],[-90.34827500044334,36.035050999774114],[-90.35126300009757,36.03112499970066],[-90.35428400026208,36.03032500033003],[-90.35171300035935,36.028005999746775],[-90.35178199995633,36.02505700017768],[-90.36774399984817,36.00999099974428],[-90.37790000031082,35.995744999999246],[-89.70693200029808,36.00098100021074],[-89.70357100037494,36.00803999965895],[-89.69243699957087,36.02050699981864],[-89.68857699988045,36.02923799996376],[-89.67882100034919,36.084636000359716],[-89.67246299965265,36.0918369999119],[-89.66659799977397,36.095802000226385],[-89.62830500032145,36.10685299977182],[-89.60193599989681,36.11946999967452],[-89.59354899962088,36.12813799967027],[-89.59163200019445,36.1421350003317],[-89.59358299995607,36.15400500011423],[-89.6070040000824,36.171178999976085],[-89.61822800039982,36.17996600001415],[-89.63689400026377,36.18895100029349],[-89.69262999991471,36.22495900017676],[-89.70525000014999,36.236568000094174],[-89.70532799996779,36.23989799982185],[-89.70182099955647,36.24600400016937],[-89.69523500015264,36.2527659998872],[-89.67804300002435,36.24828700016553],[-89.65140699963598,36.2506829997701],[-89.64218199965906,36.24948599983127],[-89.61114499998021,36.23927099979767],[-89.60237399956473,36.238106000244684],[-89.5873260004402,36.239484000061395],[-89.57754400007134,36.24226199984581],[-89.56220599962028,36.25090900003806],[-89.55356300014962,36.25034099969228],[-89.54474300022865,36.2474840002193],[-89.53922899997922,36.24882100023327],[-89.53467600035275,36.25277099980538],[-89.53644100034151,36.2728269999102],[-89.53948699972207,36.27736800035405],[-89.544796999757,36.28045800033842],[-89.55429600026864,36.27775300003877],[-89.5784920002755,36.28831699972798],[-89.58982000035002,36.2968139997317],[-89.61181899964969,36.30908800006425],[-89.62025500032942,36.32300600008558],[-89.61980000004475,36.329546000353766],[-89.61584099972181,36.336085000159486],[-89.61068899987063,36.340441999938434],[-89.60566800043902,36.342234000268625],[-89.58163599956536,36.34235700029732],[-89.56043899998168,36.33774599986225],[-89.54500599999437,36.33680899978131],[-89.5318219996945,36.33924600016343],[-89.51899999979288,36.34859999999686],[-89.51317799957188,36.35989699983081],[-89.5097220001125,36.373626000133406],[-89.51037999988844,36.37835599969604],[-89.51395599989674,36.38489100021737],[-89.54233700018237,36.4201030000283],[-89.54525500041471,36.42707900028296],[-89.54506100024595,36.434914999760316],[-89.54340599986203,36.43877000035073],[-89.5272740000909,36.451545000200774],[-89.52342699992097,36.456572000215786],[-89.51972000039143,36.46700199995011],[-89.51992200005778,36.47705299982505],[-89.52267399971046,36.48130500000708],[-89.5345240000168,36.49143199998666],[-89.56041200021751,36.524406000151174],[-89.57102499971634,36.550201000334546],[-89.5707259999656,36.557656000313024],[-89.56700400036745,36.5650479996628],[-89.55963399989264,36.57278999987024],[-89.55111899957019,36.57807400020137],[-89.540853000401,36.58101699987429],[-89.5306380003871,36.58170999997734],[-89.51685200038777,36.57739699973262],[-89.48810600022918,36.57292500018443],[-89.47992999984042,36.56908699973943],[-89.47286099966452,36.55883999965504],[-89.46782000014142,36.546973999639434],[-89.46553499957065,36.53598899983624],[-89.46591299986243,36.5300150002719],[-89.47325599967472,36.5124159998464],[-89.48668699984681,36.49499200029889],[-89.49337699990603,36.478959000187274],[-89.49394699981842,36.47355900024554],[-89.49058800044344,36.465967999839116],[-89.48619300010239,36.46211400028987],[-89.47664300043544,36.45839300014235],[-89.46443300027903,36.45774700018441],[-89.45351399956012,36.46178900006024],[-89.44373499956431,36.46916099986698],[-89.43007199958863,36.48210099984051],[-89.41727499980136,36.49901100006517],[-89.39862599965589,36.54227599993379],[-89.39583299999532,36.55932499991862],[-89.38270999979481,36.58372199998814],[-89.37614399958414,36.614131999929555],[-89.37191499982278,36.62019600006664],[-89.36579700022409,36.6251259997737],[-89.34390199978318,36.631888000290644],[-89.3320339999335,36.63288100001692],[-89.32463699969455,36.63102299974609],[-89.31465699985728,36.62184399966417],[-89.29467500044146,36.5937789999395],[-89.27794299972238,36.57658799995917],[-89.2634899997263,36.566269000331815],[-89.25653799972625,36.56496099996165],[-89.23630799971502,36.566881000266314],[-89.22704599992815,36.56953700004237],[-89.21903500029417,36.575057000203124],[-89.21118399959545,36.58405800014596],[-89.20277100027856,36.60166499973959],[-89.20126499985756,36.61654499999476],[-89.19775300032168,36.62897099995553],[-89.1868560002424,36.642022000253455],[-89.17472700027683,36.65047499983811],[-89.1591179996641,36.66635399980873],[-89.17188400038755,36.67259800018542],[-89.16797100009536,36.67908899968761],[-89.16811000001252,36.68572899989413],[-89.17046199963212,36.69004800004582],[-89.18295299999596,36.69955200009436],[-89.19931099972291,36.715624000351355],[-89.20139999957678,36.72588100008559],[-89.19785600025385,36.73977200021172],[-89.18531999968418,36.75334899967294],[-89.16978499958962,36.75964099990963],[-89.15767300024079,36.75607799976712],[-89.1425020001943,36.755502999850215],[-89.13578899967054,36.75177699969866],[-89.12596700001703,36.75180900030502],[-89.12075900008936,36.75712899975168],[-89.11707599995094,36.765768999976544],[-89.11656899978775,36.77450999989479],[-89.12438000030349,36.785825999726235],[-89.13218699972298,36.78825699995214],[-89.15713699976527,36.78956899982053],[-89.17056299991447,36.797537999702605],[-89.17913299959021,36.81089299976082],[-89.17920100026058,36.82989599967288],[-89.17654400014413,36.83712099967234],[-89.17044300026387,36.84183999971942],[-89.1590049996862,36.84272899971025],[-89.15268100022318,36.84710500025424],[-89.1381090004014,36.847322999829345],[-89.13193400000299,36.857596000148625],[-89.1267739997559,36.871899999763016],[-89.117115000309,36.88868499997976],[-89.1088779998209,36.921610000260316],[-89.10164399978855,36.940728000068695],[-89.09896800030384,36.95606700006247],[-89.09933099962868,36.962574999800424],[-89.10103799989115,36.96708499971133],[-89.10920000003617,36.97645100032286],[-89.11660899997071,36.98110300025153],[-89.1253519998988,36.98352900024578],[-89.14988199981651,36.97763599977377],[-89.1700089998956,36.97029799973748],[-89.18549100028672,36.973517999998464],[-89.19209699978205,36.97999499968526],[-89.19503900030384,36.9897680003519],[-89.19502900025809,37.00005100003394],[-89.20079299985446,37.01616399965249],[-89.20505299957796,37.02005700034751],[-89.23405300017978,37.03727699998387],[-89.25493000009632,37.0720140003566],[-89.25993499963441,37.06406999982971],[-89.28036200018747,37.0652219999298],[-89.30772599977364,37.06965400006082],[-89.30828999983825,37.06837099970559],[-89.31081899990818,37.057897000206026],[-89.30475200036311,37.04756499972909],[-89.2911849997486,37.04040800009006],[-89.27771500011677,37.03614000013239],[-89.26000300030479,37.023287999841],[-89.25760800012915,37.01549600021375],[-89.26352700043454,37.00004999994209],[-89.26956399984239,36.99340100026389],[-89.27862800016084,36.9886699999575],[-89.2921299995797,36.99218900000729],[-89.32298200020895,37.01608999989866],[-89.34599599965993,37.025521000091764],[-89.36239699994287,37.030155999857435],[-89.37827699981895,37.03960500005626],[-89.38393699965823,37.04644100022322],[-89.38518600016128,37.05774800017218],[-89.37571199976401,37.08050499972537],[-89.37711299970469,37.090764999723646],[-89.38804999996697,37.107481000155765],[-89.41172999958981,37.12250700028761],[-89.42558000006154,37.13823500027053],[-89.43520199969852,37.15209000010199],[-89.43827499974155,37.161286999750665],[-89.45610499955431,37.188119999920914],[-89.4618620003763,37.19951699996574],[-89.46763099999552,37.21820000009143],[-89.46665799967701,37.22398200015378],[-89.45830200026153,37.24036799982964],[-89.4588269999681,37.248661000141134],[-89.46265999989433,37.25151999985146],[-89.47052499993845,37.253357000147695],[-89.48991499970055,37.25131500007723],[-89.50926199980495,37.27137100018259],[-89.5153619998603,37.2789090002299],[-89.5183400003671,37.28549699964708],[-89.51793500031116,37.29125000005289],[-89.51075999983004,37.31274399971753],[-89.49516000033645,37.32479500029295],[-89.48900500002954,37.33336799968264],[-89.47456899975188,37.33816500028475],[-89.447555999795,37.34047499977868],[-89.43604000029781,37.344441000311136],[-89.43283599983519,37.34705600025408],[-89.42818500029944,37.35615799986827],[-89.42054200001319,37.388006999928656],[-89.42093899967321,37.393951999905795],[-89.42652200041793,37.40899799967002],[-89.43976899956867,37.437199999787794],[-89.45096899959667,37.450069000059],[-89.47552500035196,37.471387999994434],[-89.4920510003084,37.49400799967634],[-89.50291700042554,37.51787000007956],[-89.5170509996811,37.53727799983065],[-89.52192499969792,37.560735000136],[-89.52127399959467,37.57897000033458],[-89.51980800025497,37.58274699990158],[-89.51394300037626,37.58481500003175],[-89.4940509995755,37.580115999669665],[-89.48606199968283,37.58085300001158],[-89.4775480000836,37.58588500014787],[-89.47593200005775,37.59299800008204],[-89.47839900020338,37.59886899981928],[-89.48579200024439,37.60715699973417],[-89.50656299985572,37.62505000023132],[-89.51052600037663,37.63175400028136],[-89.51564899991548,37.63644500032817],[-89.51771799967787,37.64121700021081],[-89.51585999980267,37.645555000068384],[-89.51614600003295,37.667975000303585],[-89.51204000029523,37.68098500020034],[-89.5120090003331,37.68552500018972],[-89.5166849999832,37.69276199978731],[-89.5314269996843,37.700334000288485],[-89.56670399989348,37.70718900026824],[-89.58331600006363,37.71326100009821],[-89.59748100017964,37.73347699985156],[-89.61574399963743,37.74272499981656],[-89.61727799964751,37.74971999985789],[-89.62633199992023,37.749046000032365],[-89.633370000134,37.745782000088916],[-89.64953000039253,37.74549599976526],[-89.66335200037686,37.75005199988221],[-89.66554599981272,37.75209500013047],[-89.66799299986688,37.75948400027485],[-89.66118999982974,37.77573199973939],[-89.66037999971783,37.78629600007876],[-89.66964400005283,37.7999219998894],[-89.71744199986475,37.82572299965737],[-89.72943100008824,37.835113999777],[-89.739875000431,37.84692100014757],[-89.75409900009824,37.846353000044815],[-89.76520000039203,37.851762999948406],[-89.77430499982003,37.85212700023574],[-89.781990999764,37.85505300000348],[-89.7863259998306,37.851688999662386],[-89.79373700031326,37.85706299967822],[-89.7975419997521,37.86212799972085],[-89.80035299985433,37.86862599983788],[-89.79769599973788,37.87439199988647],[-89.79932900038048,37.88151599994908],[-89.8136359998884,37.88769599967977],[-89.84263800014006,37.90519699980449],[-89.85052400010055,37.90417200029959],[-89.85707100004466,37.8992039998366],[-89.86187700028941,37.8976839999366],[-89.8796879998356,37.880736000337166],[-89.90237699959658,37.86973999965719],[-89.92337499988695,37.870697000205745],[-89.9386079998577,37.874303999992186],[-89.93768999979076,37.87509799984225],[-89.94775800038988,37.879847000281366],[-89.95300800015035,37.884036999684625],[-89.96054199975835,37.897369000032164],[-89.96528500025391,37.90230300015642],[-89.96632899981925,37.90673100032595],[-89.97376200004324,37.918016000348324],[-89.9746540001709,37.927074000140934],[-89.96205700040018,37.93391799997071],[-89.95977199982941,37.94008299968289],[-89.94732200037178,37.94028299981577],[-89.93731999989491,37.94666299988904],[-89.93126699969523,37.948277000155926],[-89.92485299982052,37.95490599970801],[-89.92459699972747,37.9598489996542],[-89.93588499961902,37.95958099990406],[-89.94068699966581,37.970874000096764],[-89.96504599987932,37.96439299999377],[-89.9881079999092,37.96174900007171],[-89.99684800036256,37.96321900032627],[-90.00793600023754,37.97010999996511],[-90.03179499996052,37.99512599989062],[-90.0519410003062,38.00543199992194],[-90.05539900031371,38.011951999771625],[-90.05936699995917,38.01554299982408],[-90.07228299957211,38.0170009996808],[-90.08826000043086,38.015772000324496],[-90.11052099967135,38.026548999757736],[-90.12619600040631,38.04070600032133],[-90.12630199981321,38.054432000347745],[-90.12959999998716,38.061435999918494],[-90.15827300035085,38.0749500000018],[-90.16341299960814,38.07434599969136],[-90.17222000000864,38.06963600019176],[-90.17604000041439,38.070659999714216],[-90.22328800040542,38.09779900003769],[-90.24257400041046,38.11212500031842],[-90.2501180000642,38.1250540003235],[-90.27484299997558,38.15755900012971],[-90.29062900014031,38.17036300020234],[-90.30032899959508,38.17513899969826],[-90.32038100022942,38.180819999768445],[-90.33017000027095,38.18652300031386],[-90.35236199991448,38.21182799975965],[-90.35862799965116,38.221980999885766],[-90.36694799997996,38.24834399997761],[-90.37242200004641,38.283724999988074],[-90.37151599967504,38.30619099996767],[-90.37262600026091,38.316161999794026],[-90.37081900043934,38.33355400014267],[-90.36436100018372,38.34751399987846],[-90.35594200012073,38.360460000178094],[-90.35062000039022,38.37476200003629],[-90.34152099991168,38.38834299987913],[-90.32583900040235,38.400963000120576],[-90.31116999959788,38.41567900034389],[-90.29686999976266,38.42480799999738],[-90.29108400042499,38.43088999980279],[-90.28404299983816,38.451674000161724],[-90.27784099967556,38.47990800019581],[-90.26405600039948,38.5210250002864],[-90.25778200026686,38.532011999831624],[-90.2242039999242,38.57507999985804],[-90.21670399975308,38.57878000024529],[-90.19600299956363,38.59447999995209],[-90.18450200013508,38.61157999986138],[-90.17800200004665,38.63377899967911],[-90.17770199957269,38.64277899983077],[-90.1811019998539,38.6595789997162],[-90.18640199984308,38.67477900006115],[-90.19520199967256,38.68757900031188],[-90.2022020002515,38.69347900000982],[-90.20920199993213,38.70277900027336],[-90.2120020001637,38.71177899976484],[-90.21140999961167,38.72135000008057],[-90.20990999993678,38.726049999684776],[-90.20517700038526,38.73220000024609],[-90.19130099997426,38.74297800034591],[-90.18360900018251,38.74674900023526],[-90.17630099963199,38.754477999892266],[-90.17510100043106,38.76027799987835],[-90.16636400035075,38.77267500014474],[-90.13626599975694,38.78831799992781],[-90.11942400033132,38.80181100025056],[-90.10910700021017,38.83744800021516],[-90.10940699978583,38.843548000116634],[-90.11332699975071,38.849305999950545],[-90.15150799994854,38.86714799994242],[-90.16640899965829,38.876348000312646],[-90.18690900000628,38.88504800022019],[-90.19761000026699,38.887647999836936],[-90.22304099963489,38.907388999713234],[-90.25024799976053,38.91934400021936],[-90.26279199982781,38.92034399974172],[-90.27747099977972,38.92371600021968],[-90.3094540000129,38.924120000049435],[-90.33353299984391,38.93348900032589],[-90.34644199978419,38.94079000010176],[-90.39272099965463,38.959071000298],[-90.40753699987387,38.96270600016686],[-90.42977999957102,38.96377800016141],[-90.43920299991466,38.9672870001811],[-90.4512790001768,38.9677310001205],[-90.46241100043272,38.964322000334526],[-90.47172900029607,38.959185999897095],[-90.48307099971596,38.94307000022214],[-90.48272500010955,38.934711999906824],[-90.48705799962801,38.92586199994075],[-90.50745099984586,38.902766999964946],[-90.51696299987796,38.8988179998843],[-90.54683100031802,38.87400899996173],[-90.56102099965007,38.869475999876215],[-90.58338800009406,38.869029999893336],[-90.62335600002199,38.88714900007878],[-90.62848500030694,38.89161699980946],[-90.63699399988327,38.90512299978214],[-90.64729000008805,38.91209500011981],[-90.66301799962814,38.926283000328965],[-90.66342400040732,38.93555100027834],[-90.66808900018677,38.94300299993917],[-90.67594900020802,38.962140000347155],[-90.67571499985628,38.981065999914904],[-90.67819299987259,38.99185100026831],[-90.6877190001484,39.00537399996238],[-90.69240300019443,39.01665600026134],[-90.71158000041952,39.04679799980104],[-90.71362900009042,39.05397699983576],[-90.71254100014417,39.05706399967154],[-90.70213600015947,39.065567999805936],[-90.69828200031682,39.07464899987745],[-90.68274399984924,39.08834800023029],[-90.68108599999057,39.10059000033339],[-90.68605100024402,39.11778500016156],[-90.70292299980684,39.13874900001179],[-90.70790200030397,39.150860000143794],[-90.71047999987938,39.17636600033611],[-90.71740400029034,39.19741399971114],[-90.71711300003722,39.21391200020986],[-90.72183499971807,39.224108000104664],[-90.72159299986872,39.232730000185946],[-90.72698099972146,39.25117300009265],[-90.72996000005318,39.25589400015616],[-90.73908700012082,39.26189300024524],[-90.75159900040106,39.26543200021695],[-90.76764800033152,39.28002499968664],[-90.77567300020921,39.292811000149776],[-90.79067500020128,39.302907999715444],[-90.79346100018915,39.309497999991265],[-90.81685100028209,39.32049600001226],[-90.84749999962342,39.3452719999429],[-90.89377699984404,39.36734300030019],[-90.9000950003576,39.372353999875095],[-90.9048620002443,39.37940300017802],[-90.92097599957377,39.38368700006043],[-90.92874500025674,39.38754399976157],[-90.93400699971278,39.39212699986991],[-90.93741899968954,39.40080299969243],[-90.94076600026727,39.40398399972629],[-90.94829900005037,39.40750199971998],[-90.96747999957513,39.411948000015165],[-90.97761799959613,39.418290000315785],[-90.99378899972531,39.42295899995405],[-91.0236100003097,39.438693999809985],[-91.03826999999501,39.44843500021758],[-91.05943899998961,39.468860000326245],[-91.06241400012338,39.474121999781225],[-91.06430499961053,39.49464299965865],[-91.07976899955997,39.50772799977998],[-91.1003070004411,39.53869500023708],[-91.1465960003573,39.54548599991286],[-91.15362799982498,39.548248000208176],[-91.16841899992986,39.564927999681295],[-91.1746510002297,39.59331300029633],[-91.18193600031567,39.60267699988896],[-91.22931700037607,39.6208530001609],[-91.2412250004087,39.63006700004494],[-91.2487790001082,39.64088000019037],[-91.26047500042874,39.64902400023228],[-91.27614000021964,39.6657590000874],[-91.30160300027292,39.679067999788494],[-91.30534800033563,39.683956999952855],[-91.31781399968676,39.69259099966522],[-91.34725299978143,39.710479999807376],[-91.36939500009453,39.73116299999],[-91.36995300031136,39.745042000022806],[-91.365280000136,39.75772200001929],[-91.36569400041277,39.77491000008099],[-91.36174400031067,39.78507899966584],[-91.36238799984291,39.79048200009414],[-91.36796599966642,39.80040300029374],[-91.37648799966158,39.81003300008811],[-91.42846900010242,39.83762599997103],[-91.43379800040393,39.84186499996392],[-91.43652900014021,39.847078000022115],[-91.4413429998826,39.86198300006376],[-91.44668499970456,39.871641999667986],[-91.44784399979594,39.87795099981303],[-91.44692200042934,39.88303399986567],[-91.44351299992731,39.89358300025232],[-91.4208779996947,39.91486500030311],[-91.41880700028248,39.9221260000598],[-91.41935999957815,39.927716999863385],[-91.42578199984875,39.937765000289765],[-91.44155999961757,39.9512989996562],[-91.4588520002033,39.97901499984698],[-91.46531499958347,39.98399499982417],[-91.46924700014223,39.995326999910446],[-91.494878000425,40.03645300024424],[-91.48960600002492,40.05743499970961],[-91.49766299968965,40.07825699967156],[-91.50143399969161,40.09585199984634],[-91.5108389995936,40.1261369996846],[-91.51159000015429,40.14926899982311],[-91.50822400020827,40.1576649998988],[-91.51307899995854,40.17853700009178],[-91.51107299994533,40.188794000214806],[-91.50447699959744,40.198261999928846],[-91.5072690003314,40.20933800013898],[-91.50428199960378,40.22429899989932],[-91.50428900017477,40.231712000267855],[-91.50650100005228,40.2363039998996],[-91.50323100036576,40.24347399969775],[-91.49810399973062,40.24742199967618],[-91.49052400009185,40.2594979999636],[-91.49306099965939,40.27526199971591],[-91.4909709999806,40.28336399981506],[-91.48244999981036,40.30058300017398],[-91.47182600044088,40.31734000017359],[-91.4666030004446,40.334461000228565],[-91.4621400003315,40.342413999931836],[-91.44486199998947,40.3631430000951],[-91.42663200014364,40.37198800015317],[-91.41942200040073,40.37826400032657],[-91.42566200019816,40.38249099993628],[-91.44124300032348,40.386255000044116],[-91.44516800031123,40.38246099975266],[-91.44537099980249,40.37938799994844],[-91.44874199977139,40.37680399993735],[-91.4638950002745,40.375658999712776],[-91.46589100024197,40.378365000066985],[-91.46355399979267,40.38554699968635],[-91.48025100035164,40.38178299970379],[-91.48525500006481,40.38465700019551],[-91.49091200042936,40.39298000009104],[-91.48848100026873,40.40431699967791],[-91.49809299985996,40.401925999988855],[-91.50527199964073,40.40351199994785],[-91.51399299982751,40.4085370001907],[-91.52461200007244,40.41076499974858],[-91.52704300023306,40.41821400011176],[-91.51949200000831,40.429951000195054],[-91.51913399980802,40.432821999668235],[-91.52913200008695,40.43427199994758],[-91.53362299978912,40.43832000015318],[-91.53191200022704,40.44273000000229],[-91.5232710004062,40.45006100012647],[-91.52508999992332,40.45784500034093],[-91.52859999980937,40.4590020000923],[-91.55269100023428,40.45876900014962],[-91.5638440004066,40.46098800010249],[-91.57473399991488,40.465655000138995],[-91.58152799973116,40.472875999977674],[-91.58688399979685,40.48723300006014],[-91.59081700018052,40.49229200020862],[-91.61282100040138,40.50237699981435],[-91.62135300044226,40.51007200019013],[-91.62219199996817,40.517038999902454],[-91.6187930004102,40.52628599970883],[-91.61802799960583,40.53402999981355],[-91.62007100032726,40.54081699976456],[-91.63278299972569,40.545029000324334],[-91.6817139996897,40.553034999733406],[-91.68870000002495,40.557389999944945],[-91.69080399994743,40.55989299992468],[-91.69156100035589,40.564867000101025],[-91.68572300024137,40.576784999875755],[-91.68635699972786,40.58087500004417],[-91.69635900020474,40.58814800030415],[-91.71676900014104,40.598530000090335],[-91.7291149998416,40.61363999995376],[-91.94770900010694,40.60547100027505],[-92.48521599976718,40.59508500003555],[-92.65940900012872,40.59034099974759],[-92.94347200001008,40.58776199996976],[-93.18369700022734,40.58199899981842]]]}}]}