{"type":"FeatureCollection","features":[{"type":"Feature","properties":{"GEOID":"31012","NAME":"State Senate District 12","BASENAME":"12","STATE":"31","SLDU":"012"},"geometry":{"type":"Polygon","coordinates":[[[-96.15815300016448,41.20519800027539],[-96.15819300034744,41.20253100031216],[-96.15034599984666,41.199725000009806],[-96.13879699983923,41.198131999787215],[-96.13883299982425,41.19080999998606],[-96.02381399992801,41.19069700028558],[-96.02389400029394,41.22168099997695],[-96.1263900000393,41.22137599985343],[-96.13853900009637,41.22611299980218],[-96.13876199967913,41.205385000181906],[-96.15815300016448,41.20519800027539]]]}},{"type":"Feature","properties":{"GEOID":"31039","NAME":"State Senate District 39","BASENAME":"39","STATE":"31","SLDU":"039"},"geometry":{"type":"Polygon","coordinates":[[[-96.36558199966359,41.23491199991468],[-96.3615489997208,41.21949999973639],[-96.35430800001576,41.20746699996232],[-96.35067599993097,41.20419099988964],[-96.33254700036747,41.19555500014714],[-96.32739899981594,41.18999900028903],[-96.2342879998811,41.19034899967756],[-96.2343389999347,41.21930199980607],[-96.21549700034369,41.2193609997627],[-96.2154710004044,41.23392400024941],[-96.19613900036862,41.234286000310696],[-96.19638899971557,41.26299000026246],[-96.21563000041307,41.2629400003199],[-96.21579600009443,41.277457999973876],[-96.19642999972346,41.277827999816076],[-96.19648499997503,41.28478699970638],[-96.19199599992267,41.28464899991445],[-96.18609400023405,41.28708299976414],[-96.18685400011725,41.29650900019792],[-96.18243799985981,41.29955800007148],[-96.18332300031479,41.30187200029444],[-96.18206600031414,41.30648699993777],[-96.19644200031733,41.306449999698536],[-96.19669199966428,41.32092699994826],[-96.20625700029815,41.3209239997554],[-96.20655299967584,41.349946000328515],[-96.26805299982148,41.349848000294195],[-96.27504800037755,41.33611099975862],[-96.27391799970019,41.30962600013401],[-96.2753339997095,41.303560999714215],[-96.2744819997648,41.29771399982176],[-96.27621400014162,41.294949999696506],[-96.28318500040822,41.29371000009955],[-96.28185800008738,41.29204800022159],[-96.28254699982546,41.29151100029412],[-96.29369099977696,41.292743999967996],[-96.36262099977354,41.2915430001346],[-96.3619989999826,41.288324000116525],[-96.36441000005175,41.285257999806674],[-96.34966199960455,41.26216400030151],[-96.35080700035054,41.256247999988474],[-96.35713500001152,41.248960000276426],[-96.36558199966359,41.23491199991468]]]}},{"type":"Feature","properties":{"GEOID":"31047","NAME":"State Senate District 47","BASENAME":"47","STATE":"31","SLDU":"047"},"geometry":{"type":"Polygon","coordinates":[[[-104.05315200022372,42.99996799986567],[-104.05264500006052,42.001730000116694],[-103.86567400017829,42.000402000064106],[-103.49862800033735,42.00403299975737],[-103.36333699969877,42.00292999969895],[-103.36152599967924,41.830008000291855],[-103.3633889995773,41.7752310002839],[-103.3626200003716,41.743548000121436],[-103.37039199963097,41.74347299975966],[-103.37119500007019,41.72437800003035],[-103.36714899970862,41.49997500023834],[-103.37043699983681,41.394514000099164],[-103.37743400004271,41.39487000001051],[-103.37772899959548,41.391927999735685],[-103.37758700020358,41.32145400020629],[-103.37560100028188,41.30612900009783],[-103.37569099979525,41.04762300014106],[-103.38249100035765,41.04767000009558],[-103.38249200018255,41.002251999943915],[-102.05171699982698,41.0023589997564],[-102.05173799974338,41.003875000234586],[-101.42253600015759,41.00267299978086],[-101.24997499971543,41.00394999996606],[-101.2501620002115,41.047384999985695],[-101.27038100035207,41.047391999703684],[-101.26969500008873,41.39493399993169],[-101.40725999963081,41.39541599977745],[-101.40646600031073,41.74319999976743],[-101.42591999964695,41.743058999832435],[-101.42655700040481,42.092193999978655],[-101.56813800017123,42.093675000087664],[-101.78825600040089,42.093166000316714],[-102.0064279999935,42.09622699995698],[-102.00856200005322,42.00890099967499],[-102.50047299973333,42.007539000042605],[-102.69783500025487,42.00484300019199],[-102.69882299974368,42.02664299986827],[-102.70210000000125,42.05132300023846],[-102.70238299985847,42.09274700012737],[-102.7422689997706,42.09238799993975],[-102.74158099985743,42.177720999812884],[-102.74646800029305,42.24996699984473],[-102.74768099991279,42.35185000004134],[-102.7515330001056,42.357111999814265],[-102.74943099983292,42.43993399976284],[-103.00046699991576,42.43780100017223],[-103.480010000154,42.437267000047825],[-103.48033499984402,42.7849080003095],[-103.50308600042757,42.78491300030019],[-103.50509999993837,43.00076999979408],[-103.99156500003944,43.00170200007552],[-104.05315200022372,42.99996799986567]]]}},{"type":"Feature","properties":{"GEOID":"31005","NAME":"State Senate District 5","BASENAME":"5","STATE":"31","SLDU":"005"},"geometry":{"type":"Polygon","coordinates":[[[-96.02392799973083,41.234510999818205],[-96.02381399992801,41.19069700028558],[-95.93975100041808,41.190988000195524],[-95.94222600006132,41.19609800004728],[-95.94890000022703,41.20316899990299],[-95.94959800018596,41.21059599982561],[-95.95346100024942,41.216382999761876],[-95.95187199998774,41.22442799984928],[-95.95603899982484,41.22958199966783],[-95.95391300016104,41.23915300024895],[-95.95780100033888,41.23782600025589],[-95.97582000029752,41.238439000245776],[-95.97582899962002,41.23423999995875],[-95.99023700030858,41.23425599973238],[-95.99023499976045,41.226997000108675],[-95.99510200010458,41.22699199979354],[-95.99507299979226,41.23059899979361],[-95.99746299994501,41.23061800007587],[-96.00230000015193,41.234371000185625],[-96.00317800003589,41.237497999735],[-96.0021229997016,41.23787099967379],[-96.0144280002926,41.237678000150524],[-96.02392799973083,41.234510999818205]]]}},{"type":"Feature","properties":{"GEOID":"31009","NAME":"State Senate District 9","BASENAME":"9","STATE":"31","SLDU":"009"},"geometry":{"type":"Polygon","coordinates":[[[-96.02393000027895,41.24877800000079],[-96.02392799973083,41.234510999818205],[-96.0139849997035,41.23777999969308],[-96.0021229997016,41.23787099967379],[-96.00317800003589,41.237497999735],[-96.00230000015193,41.234371000185625],[-95.99746299994501,41.23061800007587],[-95.99507299979226,41.23059899979361],[-95.99510200010458,41.22699199979354],[-95.99023499976045,41.226997000108675],[-95.99023700030858,41.23425599973238],[-95.97582899962002,41.23423999995875],[-95.97582000029752,41.238439000245776],[-95.95449300011919,41.2381869998924],[-95.95389800009242,41.252414000178874],[-95.94702300008527,41.2523939999394],[-95.94702399991019,41.267964000318855],[-95.98178499973532,41.267911000202325],[-95.98043300019843,41.259675000075404],[-96.01646199989489,41.259637000192484],[-96.01559300023175,41.248754000268],[-96.02393000027895,41.24877800000079]]]}},{"type":"Feature","properties":{"GEOID":"31021","NAME":"State Senate District 21","BASENAME":"21","STATE":"31","SLDU":"021"},"geometry":{"type":"Polygon","coordinates":[[[-96.91094000002258,41.046116000193884],[-96.91075699972447,40.79936799999167],[-96.87675099975965,40.799428000080646],[-96.87297100043517,40.80115900023859],[-96.87294100029793,40.79942099989167],[-96.75364699971126,40.79922400010094],[-96.75261800021457,40.79533700028175],[-96.75366599997784,40.79191600010187],[-96.74936000022359,40.791900999747526],[-96.74938299978982,40.80451600030766],[-96.75648299992785,40.81762599980718],[-96.74342599984959,40.83517299997304],[-96.71758100020489,40.86103099966918],[-96.70109500043144,40.87071499980432],[-96.70086600010256,40.85739500010579],[-96.68198299960535,40.85700500029507],[-96.68198299960535,40.886521999813496],[-96.66472100005517,40.89669300004449],[-96.6053669996648,40.89712699979552],[-96.60374999981404,40.89092599992636],[-96.60526399973264,40.88826099971814],[-96.60559599999367,40.87833500008463],[-96.60289100019664,40.877120999822395],[-96.57178099982454,40.89341299975583],[-96.56757800000244,40.891950999738135],[-96.56747900026825,40.88526000031294],[-96.46371399992837,40.88547799971179],[-96.46386899973906,41.04508300018024],[-96.91094000002258,41.046116000193884]]]}},{"type":"Feature","properties":{"GEOID":"31007","NAME":"State Senate District 7","BASENAME":"7","STATE":"31","SLDU":"007"},"geometry":{"type":"Polygon","coordinates":[[[-95.95597600007565,41.22972899997653],[-95.95196499987416,41.22480100004338],[-95.9537480003046,41.21750600014393],[-95.94959800018596,41.21059599982561],[-95.94918200025934,41.203772999883846],[-95.94222600006132,41.19609800004728],[-95.93975100041808,41.190988000195524],[-95.92367800019818,41.19098400031011],[-95.9279749997316,41.20006900011093],[-95.92718300006136,41.20897100023452],[-95.92304499963828,41.215823999682726],[-95.91427199957297,41.223857999877076],[-95.9106760003715,41.232150000254386],[-95.91185999967891,41.24102300024995],[-95.91909299988636,41.2526979996774],[-95.92230400002167,41.26301999980445],[-95.9214970002828,41.26760399975115],[-95.914090999823,41.27242799989608],[-95.91818700041328,41.27429999989368],[-95.9248470003353,41.272783000008125],[-95.93126100021,41.268164999974836],[-95.94702399991019,41.267964000318855],[-95.94702300008527,41.2523939999394],[-95.95389800009242,41.252414000178874],[-95.95400699987236,41.23698900003177],[-95.95597600007565,41.22972899997653]]]}},{"type":"Feature","properties":{"GEOID":"31025","NAME":"State Senate District 25","BASENAME":"25","STATE":"31","SLDU":"025"},"geometry":{"type":"Polygon","coordinates":[[[-96.66336899961995,40.755266999927805],[-96.66344399996302,40.72631699980846],[-96.64436899984518,40.72632799976234],[-96.64440700037834,40.697333000145065],[-96.62852300030433,40.69731500011909],[-96.62926700029398,40.682997999747506],[-96.55846000015563,40.68338699966796],[-96.55850600018638,40.668935000115404],[-96.52087499980946,40.66834600030266],[-96.52073800044045,40.65390699998011],[-96.46384500034793,40.65348800002284],[-96.46376400015708,40.783959999829776],[-96.62499499997661,40.78428500004386],[-96.62527199998603,40.76961199969525],[-96.64422599973005,40.76973999985205],[-96.64443199959437,40.75472300021519],[-96.66336899961995,40.755266999927805]]]}},{"type":"Feature","properties":{"GEOID":"31022","NAME":"State Senate District 22","BASENAME":"22","STATE":"31","SLDU":"022"},"geometry":{"type":"Polygon","coordinates":[[[-97.83049299986602,41.74223799970369],[-97.82984599996074,41.52617400020649],[-97.70362700003652,41.52679600005343],[-97.70376500012878,41.39487600032168],[-97.59846099975593,41.39506799987841],[-97.5982530002418,41.333118999811546],[-97.58580100023602,41.33389400028137],[-97.57059500002943,41.33728199980416],[-97.52241200025303,41.361933999706785],[-97.49564100014548,41.36560600029516],[-97.47632099980525,41.3650919997965],[-97.45014899992242,41.36877999999527],[-97.43502999975446,41.375538000248994],[-97.39651700019392,41.385070000045445],[-97.38527199996008,41.39297999977136],[-97.37044599969511,41.39551800009192],[-97.36818299976396,41.397627999749055],[-97.34087100005631,41.39108899973174],[-97.31065799983477,41.399972999877555],[-97.28776099966134,41.400637999670934],[-97.277641000082,41.39737500022889],[-97.26151500015865,41.386325000319665],[-97.25351899969496,41.384211999777165],[-97.25242499990094,41.74308500016224],[-97.21421000026622,41.74306600010271],[-97.21400299967867,41.91714499992987],[-97.16751600029409,41.91714699992297],[-97.17587900028057,41.924385000022546],[-97.18302799992411,41.92443799981976],[-97.18531099994675,41.9260439997181],[-97.18551099996328,41.938194999853316],[-97.1560769998915,41.938871999776026],[-97.15612799994513,41.95913699980142],[-97.15362599963939,41.960466000324935],[-97.16138399955338,41.958762999688496],[-97.16893599960304,41.960646000122246],[-97.21424399970311,41.96127300016649],[-97.21419900039558,41.98957200004773],[-97.31036199955875,41.989434000192155],[-97.30983299965426,42.09076999977056],[-97.3684039996969,42.09092200014465],[-97.36806999978604,41.74320700002233],[-97.83049299986602,41.74223799970369]]]}},{"type":"Feature","properties":{"GEOID":"31016","NAME":"State Senate District 16","BASENAME":"16","STATE":"31","SLDU":"016"},"geometry":{"type":"Polygon","coordinates":[[[-97.30990499962427,42.090894999881165],[-97.31036199955875,41.989434000192155],[-97.21419900039558,41.98957200004773],[-97.21424399970311,41.96127300016649],[-97.16893599960304,41.960646000122246],[-97.16138399955338,41.958762999688496],[-97.15801599995754,41.96046299970051],[-97.15362599963939,41.960466000324935],[-97.15612799994513,41.95913699980142],[-97.1560769998915,41.938871999776026],[-97.18551099996328,41.938194999853316],[-97.18531099994675,41.9260439997181],[-97.18302799992411,41.92443799981976],[-97.17587900028057,41.924385000022546],[-97.16751600029409,41.91714699992297],[-97.21400299967867,41.91714499992987],[-97.21421000026622,41.74306600010271],[-96.44421700003612,41.74177499968246],[-96.4438980001939,41.52393299992736],[-96.43445999978164,41.52393099976461],[-96.43479200004265,41.49492799977474],[-96.42521999973609,41.494865000026394],[-96.42521100041357,41.48034200027845],[-96.40593600027918,41.48045999972834],[-96.40562199956153,41.465820999831806],[-96.38642000012038,41.46574899998436],[-96.38647799984669,41.451253000007654],[-96.36720000023757,41.45095299971583],[-96.36733599978172,41.43669800002932],[-96.32892299978027,41.43662099976412],[-96.32901200036706,41.39313600008752],[-95.93869000023602,41.393194999979954],[-95.93779100043564,41.390752000176214],[-95.93675199999488,41.397873000260894],[-95.92967699997119,41.411071000067814],[-95.93277799960333,41.43081499977326],[-95.9208570000502,41.44342800000076],[-95.91998900021198,41.452603999811274],[-95.9245100000514,41.45891400001781],[-95.93634000026624,41.46530399985403],[-95.94500700002634,41.4664850002663],[-95.95837200007618,41.46321800029009],[-95.966688000207,41.463425000227055],[-95.98427899964514,41.4709390000534],[-96.00493600035196,41.4724130000326],[-96.01358499967041,41.478468999693554],[-96.01856300034264,41.4849909997844],[-96.01954300033385,41.491591999726126],[-96.00064899996599,41.5025400002753],[-95.99328000021441,41.51231400029589],[-95.9943079998862,41.523743000330185],[-95.99996600007567,41.539479999972905],[-96.00511200007907,41.54325000017069],[-96.01387599992354,41.54531499998207],[-96.0234900000629,41.543438000068114],[-96.0266569998173,41.54036600031819],[-96.03112699960307,41.52300399972106],[-96.03444099967054,41.5210509998656],[-96.034352999807,41.51276099968624],[-96.03660300021767,41.509046999760315],[-96.04061299969592,41.50689300017595],[-96.05276500012603,41.50843599967528],[-96.07338900032258,41.52352900009455],[-96.08265399958417,41.52597399996701],[-96.09011799977029,41.53170200015554],[-96.09443699994335,41.53946299998343],[-96.09661700003382,41.5456259997303],[-96.09504200001584,41.55476799970909],[-96.09125900031832,41.56224399968078],[-96.08248600025298,41.57114499978572],[-96.08138999991081,41.577900000161826],[-96.08396300036168,41.58368300017683],[-96.08718600019256,41.58655000005762],[-96.10133100021706,41.59141100026515],[-96.10945499982896,41.59677500010568],[-96.11581099997734,41.60565899998981],[-96.11827700029806,41.614967000040316],[-96.11599500010036,41.62202399977368],[-96.09777699995009,41.63962500024283],[-96.09522100011597,41.65011400012904],[-96.10005499994983,41.66107699979277],[-96.11795900028076,41.67331400026483],[-96.12104800021734,41.67700199979772],[-96.12260399996873,41.68303999985784],[-96.11986099963856,41.69264900030638],[-96.11346100000756,41.697569000099726],[-96.10381400025625,41.69940300014488],[-96.08464000040419,41.6977089998682],[-96.07733100002878,41.70023200003157],[-96.07322500029105,41.704062000014815],[-96.07336099983517,41.71019899973271],[-96.07664200029069,41.71565699979602],[-96.08527200024086,41.72131300029728],[-96.10221199957577,41.72764100023968],[-96.10532899999976,41.73150499975498],[-96.10638000013608,41.73776200015972],[-96.1048050001181,41.74301600016622],[-96.1009810004127,41.747572000306185],[-96.08736100009475,41.752175999921114],[-96.08089000031862,41.75752600014354],[-96.07849699979282,41.76263199976196],[-96.07902099967447,41.772350000017155],[-96.07754600011393,41.777822000232845],[-96.06637700004808,41.78898100012895],[-96.06489699956634,41.7916730002365],[-96.06516799972799,41.79662599981727],[-96.06926900034117,41.80292200011039],[-96.07629400013613,41.80826800017147],[-96.09747999984917,41.813916999919705],[-96.106565000084,41.819613000228266],[-96.10938399968384,41.82313499992103],[-96.11096200007486,41.828827000173234],[-96.10761700004525,41.84040000023271],[-96.11054799979807,41.84919899970627],[-96.11659699979981,41.855103000189146],[-96.13495999971502,41.8632520000525],[-96.14190800041543,41.868998999816796],[-96.14597399997017,41.875093000232866],[-96.14878300042257,41.88820499990808],[-96.16175599993694,41.901820000082054],[-96.16198799974053,41.90555300009352],[-96.1590979999956,41.91005699983098],[-96.14226499989249,41.91537900031291],[-96.13674300014546,41.92082600003354],[-96.13661300044912,41.92716699977925],[-96.14349299958083,41.937387000140795],[-96.14458300007522,41.941544000297434],[-96.14259700015351,41.94590799990367],[-96.13331799974989,41.955732000285465],[-96.12918600007292,41.96513599967459],[-96.12950499991516,41.97167299976022],[-96.13253699995032,41.97462500029138],[-96.14122899982478,41.97806299969126],[-96.15208999991904,41.97966099984448],[-96.16333799962761,41.97983900013834],[-96.17720399999286,41.97630800028658],[-96.18721899999022,41.97794600021162],[-96.19060800040077,41.98072900015416],[-96.19214099968764,41.98446099974483],[-96.1842549997271,41.99663399994118],[-96.18400200000713,42.0030629997442],[-96.18591900033185,42.0059139997388],[-96.19455599995474,42.00866200022639],[-96.20608300022087,42.009266999986345],[-96.21522500035712,42.00670099993537],[-96.22181199958587,41.997381999911624],[-96.22546299993725,41.99473399983184],[-96.23169600006197,41.994785999788625],[-96.2381829997316,41.997550000024],[-96.24232299980451,42.001996000273046],[-96.24083200035045,42.00931499987094],[-96.23885999977412,42.01231500021476],[-96.22517300040732,42.02100500015223],[-96.2217299995701,42.02620500012859],[-96.22382199979704,42.03334600026681],[-96.23503400041889,42.04013699977297],[-96.22697699985584,42.03735300023254],[-96.23025300028849,42.03943299967788],[-96.23435599965315,42.04071199987309],[-96.24683199994837,42.041615999830405],[-96.25806700013645,42.038274000270455],[-96.26806299986724,42.04170499979125],[-96.27316700003783,42.04723500020428],[-96.30938900007813,42.04669199999684],[-96.30964500017117,42.01518699973646],[-96.46037399992161,42.01705299981294],[-96.55486599970567,42.01587500022418],[-96.55551099996116,42.0899569997385],[-97.30990499962427,42.090894999881165]]]}},{"type":"Feature","properties":{"GEOID":"31018","NAME":"State Senate District 18","BASENAME":"18","STATE":"31","SLDU":"018"},"geometry":{"type":"Polygon","coordinates":[[[-96.21629999988458,41.39090799977366],[-96.21631099975525,41.36443899997189],[-96.19700700020685,41.364472000266886],[-96.19690299955147,41.349946000328515],[-96.20655299967584,41.349946000328515],[-96.20625700029815,41.3209239997554],[-96.19669199966428,41.32092699994826],[-96.19644200031733,41.306449999698536],[-96.18206600031414,41.30648699993777],[-96.18332300031479,41.30187200029444],[-96.18243799985981,41.29955800007148],[-96.18682099960695,41.296598999816126],[-96.18689099992716,41.29204500004952],[-96.15813700027094,41.29213499975231],[-96.1584379996715,41.335571999908545],[-96.13901899959707,41.33562999979246],[-96.13886700015945,41.32110599996336],[-96.12059600030571,41.32103299970374],[-96.10052199993008,41.31877600025808],[-96.10066500004521,41.30661400012492],[-96.061400999924,41.30668300010693],[-96.05988600018048,41.312213999979605],[-96.05738800007269,41.311308999867535],[-96.05735399973751,41.31141199978987],[-96.05913499961981,41.31204300031494],[-96.05915899990924,41.316226999751024],[-96.04639200025922,41.31047800003099],[-96.04215599992683,41.312661999862506],[-96.0333879998844,41.31274599966652],[-96.03336100012021,41.33570799997361],[-96.07954200008137,41.3356740003212],[-96.08142199969787,41.341409999909224],[-96.08949599997936,41.35015299999859],[-96.11977600014806,41.35011899979498],[-96.11991099986727,41.3931569997127],[-96.21499000018048,41.39307600006205],[-96.21629999988458,41.39090799977366]]]}},{"type":"Feature","properties":{"GEOID":"31034","NAME":"State Senate District 34","BASENAME":"34","STATE":"31","SLDU":"034"},"geometry":{"type":"Polygon","coordinates":[[[-98.43606300040786,40.87342199991972],[-98.28256799986269,40.87240199993232],[-98.28285099971991,40.698283999936976],[-97.82572299960627,40.698554999769016],[-97.82627400015039,41.04497499998168],[-97.8279639997961,41.04731500005517],[-97.82827000011785,41.175490000092616],[-97.81099000012601,41.185353000195725],[-97.80052900006483,41.193314000020045],[-97.8048159995525,41.196901000171835],[-97.79068899996965,41.20626499988249],[-97.76599900021836,41.23489000010794],[-97.74798399955935,41.24827699986676],[-97.73925499987499,41.25083499977699],[-97.71790299958228,41.26293099983997],[-97.67914300014954,41.29256299981937],[-97.66846199998032,41.298278000302744],[-97.66446599984748,41.294747999937826],[-97.65663699978836,41.301461999682026],[-97.6585540001131,41.304862000174985],[-97.64253899961952,41.3096880002202],[-97.64192900042246,41.306055999934486],[-97.6309910003353,41.30674500029256],[-97.6115539998192,41.31352799990886],[-97.60557699978752,41.31336999973775],[-97.59820499966288,41.31724699999995],[-97.59846099975593,41.39506799987841],[-97.70376500012878,41.39487600032168],[-97.70362700003652,41.52679600005343],[-97.88549200009832,41.52586799997949],[-97.88533899993746,41.511427000232054],[-98.04132800039244,41.510533999737945],[-98.0414599997386,41.495987999989985],[-98.09979700032781,41.4953890000202],[-98.09952299979312,41.48077700007826],[-98.29134400030107,41.48072699966963],[-98.29141899974583,41.3938939999755],[-98.28658400008705,41.393898000243055],[-98.28716800024314,41.046362999974924],[-98.41611000040605,41.04634199981293],[-98.41651799993673,40.90254600014057],[-98.4356449999331,40.90245000002332],[-98.43606300040786,40.87342199991972]],[[-98.38445199986288,40.9536790002497],[-98.38166300040027,40.96051500010443],[-98.33982699965311,40.96016100031018],[-98.33973899978956,40.97463299970154],[-98.33508999990363,40.974571999846006],[-98.33334500000635,40.977469000035306],[-98.32212400006196,40.97989799978647],[-98.32068700013625,40.98113700029824],[-98.32079199971824,40.98888100003153],[-98.301779000423,40.98837799996199],[-98.30159100010202,40.97391499988384],[-98.28246099973258,40.97382099978265],[-98.28254500029648,40.91583000000077],[-98.30180199998921,40.91586399998146],[-98.30168599963825,40.90133400023228],[-98.3207549999083,40.90132900021579],[-98.32089200017566,40.90255999979237],[-98.33977300012475,40.894950999673775],[-98.33979200039133,40.90210400029768],[-98.3815460002244,40.902452999710825],[-98.38323400022026,40.90691799983835],[-98.38445199986288,40.9536790002497]]]}},{"type":"Feature","properties":{"GEOID":"31020","NAME":"State Senate District 20","BASENAME":"20","STATE":"31","SLDU":"020"},"geometry":{"type":"Polygon","coordinates":[[[-96.16102299981792,41.242506000063344],[-96.15396299986284,41.23458299982129],[-96.12834900019683,41.221572000240116],[-96.02389400029394,41.22168099997695],[-96.02393000027895,41.24877800000079],[-96.10065400017456,41.248639999728425],[-96.10059399990008,41.26313000003299],[-96.11961399976636,41.263123999730645],[-96.11957500030661,41.248634999717986],[-96.15133099986076,41.24848499990213],[-96.15007800005806,41.24525700030971],[-96.15360100036291,41.24487299972051],[-96.1536280001271,41.241765999863375],[-96.16102299981792,41.242506000063344]]]}},{"type":"Feature","properties":{"GEOID":"31030","NAME":"State Senate District 30","BASENAME":"30","STATE":"31","SLDU":"030"},"geometry":{"type":"Polygon","coordinates":[[[-96.91605500006382,40.34972700032305],[-96.91640700041633,40.00151099976054],[-96.46371200027855,40.0010230000768],[-96.46384500034793,40.65348800002284],[-96.52073800044045,40.65390699998011],[-96.52087499980946,40.66834600030266],[-96.55850600018638,40.668935000115404],[-96.55846000015563,40.68338699966796],[-96.62926700029398,40.682997999747506],[-96.62852300030433,40.69731500011909],[-96.64440700037834,40.697333000145065],[-96.64436899984518,40.72632799976234],[-96.66344399996302,40.72631699980846],[-96.66336799979506,40.75536599991959],[-96.70168000041244,40.75567200032324],[-96.70154399997,40.73850399972885],[-96.68252800030169,40.739568000072474],[-96.68233499995785,40.69737700003678],[-96.66945100013194,40.669983999848974],[-96.6607800001739,40.64724199998595],[-96.65345599972986,40.636814000283934],[-96.63914199965093,40.62520599987769],[-96.64701300044115,40.625064999836106],[-96.64594200021332,40.62336699990978],[-96.64304800027043,40.62317500000601],[-96.64379499973484,40.62060600011729],[-96.64027099960508,40.62087300025842],[-96.64075100000409,40.61926300008829],[-96.63807700016923,40.61972699972044],[-96.63981299984567,40.618579999667176],[-96.63666299980973,40.61829600000135],[-96.63720199976,40.61711199988179],[-96.63520900016559,40.61630399988531],[-96.62936199983024,40.61667999978278],[-96.62923299995879,40.61789299984159],[-96.62468299980706,40.61609699968602],[-96.6246789996091,40.61795400033324],[-96.5591129999087,40.61824199999067],[-96.5581479999861,40.59593600013704],[-96.57258400026376,40.59646500027124],[-96.57219599992624,40.52382800001373],[-96.91263700023927,40.52362499977095],[-96.91325900003021,40.34971799972729],[-96.91605500006382,40.34972700032305]]]}},{"type":"Feature","properties":{"GEOID":"31048","NAME":"State Senate District 48","BASENAME":"48","STATE":"31","SLDU":"048"},"geometry":{"type":"Polygon","coordinates":[[[-104.05230799977662,41.321064999901566],[-104.0532490003081,41.001405999738765],[-103.38249200018255,41.002251999943915],[-103.38249100035765,41.04767000009558],[-103.37569099979525,41.04762300014106],[-103.37560100028188,41.30612900009783],[-103.37758700020358,41.32145400020629],[-103.37772899959548,41.391927999735685],[-103.37743400004271,41.39487000001051],[-103.37043699983681,41.394514000099164],[-103.36714899970862,41.49997500023834],[-103.37119500007019,41.72437800003035],[-103.37039199963097,41.74347299975966],[-103.3626200003716,41.743548000121436],[-103.3633889995773,41.7752310002839],[-103.36152599967924,41.830008000291855],[-103.36333699969877,42.00292999969895],[-103.49862800033735,42.00403299975737],[-103.86567400017829,42.000402000064106],[-104.05264500006052,42.001730000116694],[-104.05230799977662,41.321064999901566]]]}},{"type":"Feature","properties":{"GEOID":"31019","NAME":"State Senate District 19","BASENAME":"19","STATE":"31","SLDU":"019"},"geometry":{"type":"Polygon","coordinates":[[[-97.83489599970467,42.26373500005595],[-97.83231399993129,41.74229499993009],[-97.36806999978604,41.74320700002233],[-97.36793300041703,42.2648529997603],[-97.83489599970467,42.26373500005595]]]}},{"type":"Feature","properties":{"GEOID":"31045","NAME":"State Senate District 45","BASENAME":"45","STATE":"31","SLDU":"045"},"geometry":{"type":"Polygon","coordinates":[[[-95.96650499990889,41.09675300031786],[-95.95197699956974,41.09640399986564],[-95.95200000003426,41.08913400024274],[-95.9282419996953,41.089294999706794],[-95.92793000042407,41.058800000176745],[-95.91643199957194,41.05994699971916],[-95.9097120002738,41.058590999807734],[-95.89266300026064,41.05904699975666],[-95.87948700035669,41.053299000276894],[-95.88158799990613,41.054378000065775],[-95.88147800030127,41.065358999905854],[-95.86583500025168,41.08007899987579],[-95.86242699957457,41.089686999754754],[-95.86666100025712,41.10497500021665],[-95.86722799979646,41.1214930001758],[-95.88147800030127,41.14214899970988],[-95.88327400025217,41.15006000014564],[-95.88254000030825,41.15588099975895],[-95.87736800036559,41.163914000313135],[-95.87111000012649,41.16763499996292],[-95.865928999963,41.16812900017376],[-95.85345100001797,41.165517999989056],[-95.84545100025466,41.16742299974878],[-95.84178900003262,41.172314000143274],[-95.84335099963181,41.17967699969865],[-95.85037399977696,41.18508999995225],[-95.86379699955312,41.1882450002408],[-95.91023600015545,41.184402999959765],[-95.91890999958824,41.186540000272664],[-95.92367800019818,41.19098400031011],[-95.94793299975629,41.190952999668504],[-95.94751699982969,41.14154299980739],[-95.94579899969658,41.13610099995123],[-95.94740100037704,41.13180099970011],[-95.94724900004108,41.110417000270616],[-95.95285000032915,41.11027699983806],[-95.95705499980107,41.10778099990079],[-95.9664849998174,41.10891700030887],[-95.96650499990889,41.09675300031786]]]}},{"type":"Feature","properties":{"GEOID":"31049","NAME":"State Senate District 49","BASENAME":"49","STATE":"31","SLDU":"049"},"geometry":{"type":"Polygon","coordinates":[[[-96.21575699973637,41.19050400011274],[-96.21547300005425,41.132421999919245],[-96.0908299999729,41.13261900009969],[-96.09053200004708,41.147309999700845],[-96.07167799986216,41.147308999908226],[-96.06280100003978,41.14556200000848],[-96.06196699963843,41.16493299981596],[-96.08071600024137,41.174888000234766],[-96.08139599975861,41.19075599967491],[-96.21575699973637,41.19050400011274]]]}},{"type":"Feature","properties":{"GEOID":"31042","NAME":"State Senate District 42","BASENAME":"42","STATE":"31","SLDU":"042"},"geometry":{"type":"Polygon","coordinates":[[[-102.05173799974338,41.003875000234586],[-102.05150000009199,40.85784899969714],[-101.66786800002019,40.85813499989843],[-101.66613999984133,40.8411570002073],[-101.6418979998037,40.842223000189975],[-101.62901700035084,40.84586499972229],[-101.62550099971871,40.826572000281],[-101.6272180000269,40.8192759996804],[-101.62772900038806,40.73617100016852],[-101.62951600011813,40.732946000212614],[-101.62770199972556,40.728879999826724],[-101.62807199962141,40.70014099980557],[-101.26696400035243,40.69765800026959],[-100.96257900039835,40.700151000228786],[-100.22331099967757,40.700254000278036],[-100.22423499959228,41.046596999875035],[-100.23815500038421,41.0465360002158],[-100.23759600034248,41.16146600009304],[-100.23431999990984,41.27841700020799],[-100.23617899960993,41.32200800019444],[-100.236105999815,41.39332399976378],[-100.25109799976136,41.3932979998123],[-100.25127900040964,41.39575400012658],[-100.25293399989523,41.62259700029056],[-100.25122400015805,41.73981699974923],[-100.26547399976455,41.73985599986301],[-100.26762200006796,42.086146999865996],[-100.61095899997372,42.086775000174356],[-101.42655700040481,42.092193999978655],[-101.42591999964695,41.743058999832435],[-101.40646600031073,41.74319999976743],[-101.40725999963081,41.39541599977745],[-101.26969500008873,41.39493399993169],[-101.27038100035207,41.047391999703684],[-101.2501620002115,41.047384999985695],[-101.24997499971543,41.00394999996606],[-101.42253600015759,41.00267299978086],[-102.05173799974338,41.003875000234586]]]}},{"type":"Feature","properties":{"GEOID":"31038","NAME":"State Senate District 38","BASENAME":"38","STATE":"31","SLDU":"038"},"geometry":{"type":"Polygon","coordinates":[[[-100.75843499975608,40.34950699986876],[-100.76101900007758,40.174923999741004],[-100.75849699968036,40.15630300026358],[-100.75882999976628,40.00230199994055],[-97.82149499966981,40.002046999838655],[-97.8207120002204,40.35002700009722],[-97.82411400015143,40.35054099987163],[-97.82478000032327,40.69853700007317],[-98.27810300009978,40.69829099988363],[-98.278089999681,40.35034699998283],[-99.32171400004356,40.35063200008949],[-99.32266899992044,40.37606299969929],[-99.32727500014866,40.375974999759535],[-99.32733200005005,40.37966900000327],[-99.32267399994329,40.37975499967867],[-99.32235500010106,40.49637399978488],[-99.49323400039513,40.49607499969268],[-99.49280300039992,40.36470799976214],[-99.51260499989068,40.36481299995019],[-99.51252600024796,40.3563259998018],[-99.5170970003161,40.35095599995848],[-100.09565700037577,40.351266999839225],[-100.26893000012225,40.34923900021287],[-100.36752799964401,40.35152000020091],[-100.75843499975608,40.34950699986876]]]}},{"type":"Feature","properties":{"GEOID":"31001","NAME":"State Senate District 1","BASENAME":"1","STATE":"31","SLDU":"001"},"geometry":{"type":"Polygon","coordinates":[[[-96.46376400015708,40.783959999829776],[-96.46371200027855,40.0010230000768],[-95.3082900002008,39.999998000215854],[-95.3111630002273,40.007806000020764],[-95.31527099961484,40.01207000026049],[-95.33624200014103,40.01910400002374],[-95.34877699998748,40.02929700020018],[-95.35687600038332,40.0315219999178],[-95.36398300019405,40.03149800009171],[-95.38295700002958,40.027112000137905],[-95.39152699970529,40.027057999777476],[-95.40726099999148,40.03311199985037],[-95.41510599994412,40.04034099968896],[-95.41999900022752,40.05044000019525],[-95.42133999989376,40.0607459997853],[-95.41889600021264,40.065958000077394],[-95.40936699956379,40.07499800027619],[-95.4083890001207,40.079721999895234],[-95.41042600009604,40.08794800030883],[-95.4100999996828,40.09397500031535],[-95.40659800019266,40.09910599974713],[-95.39421599960878,40.10826300028777],[-95.3928099996452,40.112928999737825],[-95.39334699994565,40.119211999883326],[-95.39654899986012,40.124700999697765],[-95.40026600033373,40.12729299966855],[-95.40769100016179,40.12983900004801],[-95.41954999979063,40.13104899999029],[-95.42740899998697,40.134607999960615],[-95.43216500000301,40.14102500023154],[-95.43382200003674,40.15293499991494],[-95.43634799973363,40.15871999979878],[-95.44281799968482,40.163261000080595],[-95.4638310000438,40.17120100033978],[-95.479192999886,40.1856520000733],[-95.48253999956545,40.19228299996165],[-95.4823189996325,40.20066700007847],[-95.47139300013922,40.21733299983263],[-95.46971799966381,40.22790799968974],[-95.4725480000326,40.23607799975889],[-95.47869400011871,40.24366099999388],[-95.48481699974029,40.24746900024795],[-95.49340499985766,40.249560000029675],[-95.52103499958261,40.25008299973251],[-95.54373699976237,40.26068700005229],[-95.55247300001777,40.26190399986298],[-95.55632500021058,40.267714000001334],[-95.55627499998187,40.27076100030621],[-95.55148800000369,40.28106099975199],[-95.55162000024816,40.28866599972103],[-95.55555299973352,40.29327299968836],[-95.56215699957902,40.29735899986191],[-95.57069299981787,40.299425999972016],[-95.58178700043895,40.29958000024791],[-95.59016499959574,40.303199000219735],[-95.59865700035199,40.30980899988642],[-95.61043899998792,40.31397000007456],[-95.61793099976313,40.31372800005277],[-95.6453289996845,40.3056929996971],[-95.65150699955764,40.30668399997724],[-95.65732799995374,40.31085600004829],[-95.65776399997182,40.3157879997593],[-95.65372900037922,40.322582000255075],[-95.62764799983465,40.33241200030055],[-95.62401499992497,40.33622599978183],[-95.62268400030446,40.34232300026568],[-95.62712399995303,40.35279999994824],[-95.64102700012819,40.36639899993633],[-95.6439350003148,40.38685100018907],[-95.66060199983822,40.412408999822034],[-95.66070999979327,40.41882699978051],[-95.65596399982296,40.429873000103186],[-95.65657499974324,40.438701000296014],[-95.66771399967186,40.4534630002802],[-95.68753199995446,40.4652060003397],[-95.69465100035907,40.47145199981882],[-95.69675600010648,40.47884899996114],[-95.69482299988822,40.49470499980228],[-95.69996899989161,40.50527499999936],[-95.66168099956366,40.517311999757126],[-95.65567400029303,40.523557000113954],[-95.65226899998898,40.53810800028053],[-95.65341600038477,40.54189900013806],[-95.65584800037031,40.546608999840025],[-95.66210700043432,40.54996700003526],[-95.66549500012164,40.556696999924675],[-95.67177599992695,40.56262799984738],[-95.67871500040653,40.5625609999768],[-95.68702099959329,40.560668999841575],[-95.69414699967061,40.55694200025518],[-95.69737700007249,40.54138899980755],[-95.69549499990785,40.53202099975563],[-95.69720200017032,40.52847500015354],[-95.70859100034419,40.521551000024616],[-95.71286199993834,40.52638400020324],[-95.71753699976355,40.52778300028991],[-95.72521400038501,40.52777299998097],[-95.73724999956585,40.523930000085294],[-95.7486799997476,40.524275000301564],[-95.75710999968123,40.52599000011871],[-95.76691999963919,40.531562999931275],[-95.76928100037792,40.53665599981556],[-95.76362400001337,40.54829800014301],[-95.76383300025074,40.55387300015211],[-95.77177600011267,40.56613300015669],[-95.77470400039076,40.573574000170495],[-95.77354899959904,40.578205000247465],[-95.76852700034252,40.58329599992691],[-95.75314799988357,40.592839999916826],[-95.75027400003214,40.59631699985982],[-95.74857199979257,40.60126499975613],[-95.74968499985317,40.60684199997195],[-95.76892599965237,40.62126400032692],[-95.77146999979091,40.639787999757274],[-95.78190900011079,40.653271999731025],[-95.79548900024578,40.66238399987266],[-95.82291300010642,40.667240000001605],[-95.84280099981089,40.67749600025245],[-95.8460339996875,40.68260500014923],[-95.84793099992076,40.69419699995006],[-95.85261499996679,40.70226199984082],[-95.85937799982096,40.70805500026331],[-95.88317799999271,40.71757899972919],[-95.8889070003273,40.73185500016002],[-95.8866900004269,40.742101000090756],[-95.87902700004916,40.75308100027224],[-95.86998199999728,40.75964500005383],[-95.8501439996232,40.766663000178205],[-95.84371999970276,40.77046700006223],[-95.83690300032023,40.77647700030631],[-95.83411999980709,40.78378299993583],[-96.46376400015708,40.783959999829776]]]}},{"type":"Feature","properties":{"GEOID":"31041","NAME":"State Senate District 41","BASENAME":"41","STATE":"31","SLDU":"041"},"geometry":{"type":"Polygon","coordinates":[[[-99.42598599964833,41.046470999928005],[-99.42655100043618,40.699769999660994],[-99.4164140002401,40.69973800002532],[-99.4173160004135,40.67082499971523],[-99.41167400011756,40.66757000032585],[-99.40412999956548,40.66921500013043],[-99.37603600023337,40.664262000178695],[-99.36990799969061,40.66451600031871],[-99.3518209999599,40.66958100028017],[-99.33865900029966,40.66958400028429],[-99.33222799980821,40.67146200020866],[-99.29075799965725,40.66230899980957],[-99.27585299974953,40.66168799989066],[-99.25875400040599,40.66454200005312],[-99.2423449997271,40.658888999876105],[-99.2048470003179,40.662013000082176],[-99.1944490000059,40.65997699975729],[-99.18219000034398,40.66137300026965],[-99.17049800022139,40.65848899986808],[-99.14865600038226,40.66036099996817],[-99.14195600027728,40.658848000275256],[-99.1491669998451,40.6611850000012],[-99.14087199963068,40.662827000260435],[-99.15033500015728,40.667020000241024],[-99.14158999968106,40.667176999716915],[-99.14660799963795,40.66827799982275],[-99.13678799963427,40.670663000271695],[-99.16182399989027,40.671813000091014],[-99.16114400037304,40.692285999848735],[-99.179405000181,40.692302999983596],[-99.17913900004223,40.728482999844765],[-99.1218729996808,40.72836600019386],[-99.12190700001601,40.75010399973995],[-99.1028419999439,40.75013599966748],[-99.10275400008035,40.765364000216685],[-98.9883040002716,40.76443000011069],[-98.9882769996091,40.750002000293414],[-98.95019900024175,40.74993100033279],[-98.95035599970227,40.7249610002322],[-98.87429799997854,40.74204400008559],[-98.87426299981846,40.749810000110145],[-98.87033399963275,40.749815999698924],[-98.8741959998713,40.75539099996982],[-98.87422699983344,40.77160700021906],[-98.81700200037822,40.77157499974148],[-98.81704099983796,40.75771699987928],[-98.75993799968317,40.77335400031057],[-98.75985099964456,40.80069499967602],[-98.72176800025433,40.80070400032892],[-98.72143000014552,40.69890299996963],[-98.28285099971991,40.698283999936976],[-98.28256799986269,40.87240199993232],[-98.43606800043074,40.87321700007189],[-98.4356449999331,40.90245000002332],[-98.41651799993673,40.90254600014057],[-98.41611000040605,41.04634199981293],[-98.28716800024314,41.046362999974924],[-98.28658400008705,41.393898000243055],[-98.29141899974583,41.3938939999755],[-98.29134400030107,41.48072699966963],[-98.09952299979312,41.48077700007826],[-98.09979700032781,41.4953890000202],[-98.0414599997386,41.495987999989985],[-98.04132800039244,41.510533999737945],[-97.88665600021257,41.51129800032834],[-97.88533899993746,41.511427000232054],[-97.88549200009832,41.52586799997949],[-97.82984599996074,41.52617400020649],[-97.83106299977841,41.57941900009811],[-97.83049299986602,41.74223799970369],[-97.83236599980982,41.74240199988918],[-97.83247399976486,41.74772799987475],[-97.83328800007472,41.9162859997899],[-98.29560200037476,41.91495399996944],[-98.29543800034321,42.08887299993059],[-98.76115500039917,42.08851799970977],[-98.75913299959414,41.74038200004593],[-99.21201600005291,41.74061300009512],[-99.21246499959149,41.39423499966339],[-99.20326100042926,41.39413999979969],[-99.20756399981047,41.04700300002038],[-99.42598599964833,41.046470999928005]]]}},{"type":"Feature","properties":{"GEOID":"31028","NAME":"State Senate District 28","BASENAME":"28","STATE":"31","SLDU":"028"},"geometry":{"type":"Polygon","coordinates":[[[-96.7069850004245,40.81585999974111],[-96.70625399995531,40.780975000093534],[-96.69206600027307,40.78093699986633],[-96.69166700006492,40.7844550002339],[-96.68731000025703,40.78091299981901],[-96.682514000058,40.7808490003307],[-96.68225700014005,40.80256600013263],[-96.65835099966309,40.802564999861524],[-96.65368599988363,40.80377499998642],[-96.65366599979214,40.798932000119116],[-96.60610099960871,40.798830999772846],[-96.60608800008825,40.81349599986446],[-96.68038199964812,40.81341500003958],[-96.68240699992788,40.81347099992065],[-96.68239600005722,40.81575900000111],[-96.7069850004245,40.81585999974111]]]}},{"type":"Feature","properties":{"GEOID":"31008","NAME":"State Senate District 8","BASENAME":"8","STATE":"31","SLDU":"008"},"geometry":{"type":"Polygon","coordinates":[[[-96.06141000014482,41.306902000270426],[-96.05263200005665,41.30668899977919],[-96.05261000031534,41.285066999972265],[-96.04780499989548,41.285071000179535],[-96.04732899969441,41.28008199969633],[-96.04337000026979,41.27524800008117],[-96.04410500003861,41.27238499978946],[-96.04106799998058,41.27055999997645],[-96.02387199965433,41.269829999675174],[-96.02391799968508,41.2596409999324],[-95.98043300019843,41.259675000075404],[-95.98071400040583,41.266338999683],[-95.98355200027223,41.27199300000803],[-95.98282099980305,41.29243000030737],[-96.01434200007887,41.29233299974128],[-96.02388599989803,41.297644999797825],[-96.02384300024033,41.31273500005174],[-96.04197099997891,41.31268800032749],[-96.04639200025922,41.31047800003099],[-96.05915899990924,41.316226999751024],[-96.05913499961981,41.31204300031494],[-96.05735399973751,41.31141199978987],[-96.05988600018048,41.312213999979605],[-96.06141000014482,41.306902000270426]]]}},{"type":"Feature","properties":{"GEOID":"31006","NAME":"State Senate District 6","BASENAME":"6","STATE":"31","SLDU":"006"},"geometry":{"type":"Polygon","coordinates":[[[-96.13887300000722,41.29217700006607],[-96.13880799970988,41.27766300009081],[-96.11958700000218,41.27761799972513],[-96.11961399976636,41.263123999730645],[-96.10059399990008,41.26313000003299],[-96.10065400017456,41.248639999728425],[-96.01559300023175,41.248754000268],[-96.01646199989489,41.259637000192484],[-96.02391799968508,41.2596409999324],[-96.02387199965433,41.269829999675174],[-96.04106799998058,41.27055999997645],[-96.04366300017276,41.27196499969243],[-96.04337000026979,41.27524800008117],[-96.04732899969441,41.28008199969633],[-96.04780499989548,41.285071000179535],[-96.07176499990081,41.28520800004184],[-96.10213700013101,41.2922380002647],[-96.13887300000722,41.29217700006607]]]}},{"type":"Feature","properties":{"GEOID":"31036","NAME":"State Senate District 36","BASENAME":"36","STATE":"31","SLDU":"036"},"geometry":{"type":"Polygon","coordinates":[[[-96.33979700029334,41.08325399968867],[-96.33814899958213,41.07799800014534],[-96.32488399998971,41.059065999685984],[-96.31919099964016,41.04499799989455],[-96.31128299993833,41.03642999987058],[-96.30197199974768,41.02939899997162],[-96.2843870001573,41.021745999970086],[-96.24760100005238,41.01777600026672],[-96.2407579998323,41.01339800007622],[-96.23296099956023,41.00085500020132],[-96.21893899955936,40.99430800003105],[-96.2076480001931,40.99562799978568],[-96.15334799974462,41.01587599985667],[-96.14469299968007,41.01759800032034],[-96.13124499978956,41.03138700021633],[-96.11907700036424,41.03856500028801],[-96.10986499990778,41.048403999872434],[-96.10336999984223,41.05194499993943],[-96.07364700006544,41.05804599985711],[-96.05625599974552,41.06535600016876],[-96.03406199955387,41.06600100009209],[-96.01806200002721,41.06148500010742],[-96.00308799962421,41.06051500008213],[-95.98733699961957,41.05271700026852],[-95.97877799981453,41.05336200017845],[-95.96728999990643,41.05944400027524],[-95.9610009997052,41.060770999834624],[-95.94737399971456,41.05761600007739],[-95.92793000042407,41.058800000176745],[-95.9282419996953,41.089294999706794],[-95.95200000003426,41.08913400024274],[-95.95197699956974,41.09640399986564],[-95.96650599973381,41.09642899985496],[-95.96654599991678,41.12174700027667],[-95.97872599993599,41.121706000233665],[-95.98545199998021,41.11810900027657],[-96.02364900007157,41.11801500019503],[-96.02368800042964,41.132514000303814],[-96.05246700020021,41.132649999929946],[-96.05248999976642,41.13988000013327],[-96.07167799986216,41.147308999908226],[-96.09053200004708,41.147309999700845],[-96.0908299999729,41.13261900009969],[-96.21547300005425,41.132421999919245],[-96.21575699973637,41.19050400011274],[-96.20618699997794,41.190568000071984],[-96.2061209998557,41.1963310002839],[-96.21565899982708,41.19778999971716],[-96.21549700034369,41.2193609997627],[-96.2343389999347,41.21930199980607],[-96.2342879998811,41.19034899967756],[-96.32739899981594,41.18999900028903],[-96.32165000028819,41.17674299975306],[-96.32085000022202,41.16196300020691],[-96.31599299992362,41.14661900001378],[-96.31994399985065,41.131823000335686],[-96.31107899972383,41.114406000171584],[-96.31687900020351,41.10850600009947],[-96.3263180004407,41.10421800013312],[-96.33499000022368,41.09752999999337],[-96.33877100027136,41.091728999811544],[-96.33979700029334,41.08325399968867]]]}},{"type":"Feature","properties":{"GEOID":"31044","NAME":"State Senate District 44","BASENAME":"44","STATE":"31","SLDU":"044"},"geometry":{"type":"Polygon","coordinates":[[[-102.05150000009199,40.85784899969714],[-102.05174399959115,40.00307800029882],[-100.75882999976628,40.00230199994055],[-100.75849699968036,40.15630300026358],[-100.76101900007758,40.174923999741004],[-100.75843499975608,40.34950699986876],[-100.38334800014394,40.3514990002801],[-100.26893000012225,40.34923900021287],[-100.09565700037577,40.351266999839225],[-99.64220900002746,40.35119999971975],[-99.64420900019289,40.417523000277484],[-99.64346199983018,40.684910999862126],[-99.62057399987758,40.68588500016682],[-99.60948199980463,40.68373300004132],[-99.60029000033796,40.67979399967003],[-99.58222199997553,40.67708699974489],[-99.55923100009076,40.68073599990957],[-99.54307800040324,40.68080600006711],[-99.52856299958455,40.67512800005305],[-99.51029099990592,40.67703999973069],[-99.49831799957593,40.674902000215965],[-99.46507800024041,40.67470899985414],[-99.4464140000263,40.67805199969832],[-99.4357749996899,40.673544999925426],[-99.42459499975338,40.67345299997993],[-99.4173160004135,40.67082499971523],[-99.4164140002401,40.69973800002532],[-99.42655100043618,40.699769999660994],[-99.42598599964833,41.046470999928005],[-100.22423499959228,41.046596999875035],[-100.22331099967757,40.700254000278036],[-100.96257900039835,40.700151000228786],[-101.26696400035243,40.69765800026959],[-101.62792199983359,40.700122000087035],[-101.62770199972556,40.728879999826724],[-101.62951600011813,40.732946000212614],[-101.62772900038806,40.73617100016852],[-101.6272180000269,40.8192759996804],[-101.62550099971871,40.826572000281],[-101.62901700035084,40.84586499972229],[-101.6418979998037,40.842223000189975],[-101.66613999984133,40.8411570002073],[-101.66786800002019,40.85813499989843],[-102.05150000009199,40.85784899969714]]]}},{"type":"Feature","properties":{"GEOID":"31003","NAME":"State Senate District 3","BASENAME":"3","STATE":"31","SLDU":"003"},"geometry":{"type":"Polygon","coordinates":[[[-96.02367099981288,41.16163899968127],[-96.02364900007157,41.11801500019503],[-95.98545199998021,41.11810900027657],[-95.97872599993599,41.121706000233665],[-95.96654599991678,41.12174700027667],[-95.9664849998174,41.10891700030887],[-95.95705499980107,41.10778099990079],[-95.95285000032915,41.11027699983806],[-95.94724900004108,41.110417000270616],[-95.94740100037704,41.13180099970011],[-95.94579899969658,41.13610099995123],[-95.94751699982969,41.14154299980739],[-95.94793299975629,41.190952999668504],[-96.00913400015119,41.19069999970584],[-95.99771800021315,41.177292000232846],[-95.99495599961641,41.16828700022716],[-95.98689300010389,41.16169099983176],[-96.02367099981288,41.16163899968127]]]}},{"type":"Feature","properties":{"GEOID":"31029","NAME":"State Senate District 29","BASENAME":"29","STATE":"31","SLDU":"029"},"geometry":{"type":"Polygon","coordinates":[[[-96.70640600029128,40.7800740001122],[-96.7051069995595,40.774657999926404],[-96.70154200032019,40.771511000100716],[-96.70168000041244,40.75567200032324],[-96.64443199959437,40.75472300021519],[-96.64422599973005,40.76973999985205],[-96.62527199998603,40.76961199969525],[-96.62513999974156,40.79877899972994],[-96.65366599979214,40.798932000119116],[-96.65368599988363,40.80377499998642],[-96.65835099966309,40.802564999861524],[-96.68225700014005,40.80256600013263],[-96.682514000058,40.7808490003307],[-96.68731000025703,40.78091299981901],[-96.69205799987716,40.78445600009769],[-96.69206600027307,40.78093699986633],[-96.70640600029128,40.7800740001122]]]}},{"type":"Feature","properties":{"GEOID":"31033","NAME":"State Senate District 33","BASENAME":"33","STATE":"31","SLDU":"033"},"geometry":{"type":"Polygon","coordinates":[[[-99.64346199983018,40.684910999862126],[-99.64420900019289,40.417523000277484],[-99.64220900002746,40.35119999971975],[-99.5170970003161,40.35095599995848],[-99.51252600024796,40.3563259998018],[-99.51260499989068,40.36481299995019],[-99.49280300039992,40.36470799976214],[-99.49323400039513,40.49607499969268],[-99.34138300036325,40.49673300020288],[-99.32235500010106,40.49637399978488],[-99.32267399994329,40.37975499967867],[-99.32733200005005,40.37966900000327],[-99.32727500014866,40.375974999759535],[-99.32266899992044,40.37606299969929],[-99.32171400004356,40.35063200008949],[-98.278089999681,40.35034699998283],[-98.27810300009978,40.69829099988363],[-98.72441199995198,40.698890999781604],[-98.72530599972947,40.68926399979109],[-98.73465299990514,40.68729300010932],[-98.73871199978718,40.688732999763445],[-98.74887300027272,40.68872800005733],[-98.75541000017107,40.68694399992163],[-98.75967999994032,40.683972000079244],[-98.77230600002335,40.683358999744286],[-98.78162499971162,40.68022700021256],[-98.79256500034691,40.68054999985391],[-98.80362800010755,40.675678000031155],[-98.82592799970611,40.674967999777294],[-98.83328999978497,40.67027600012149],[-98.84146399962557,40.66997700033543],[-98.84903499994182,40.665375000122175],[-98.86549800014907,40.65960200005861],[-98.87767300014539,40.660284000301864],[-98.8824819998649,40.65765499994052],[-98.89050500009276,40.656788999994895],[-98.89278999976521,40.65447900030785],[-98.90853400009715,40.652607999882306],[-98.92356100020358,40.653090999727375],[-98.9309469996736,40.654855999716816],[-98.94547500001276,40.65381800023529],[-98.97154200031362,40.65702299981376],[-98.99716799967521,40.65213800018729],[-99.00250399964939,40.65371800001285],[-99.03365300037954,40.6525259997505],[-99.04181299997646,40.65525199997091],[-99.05313000018029,40.65400600013874],[-99.05781599987614,40.65565300006169],[-99.0815230001615,40.65700199991596],[-99.11547399987472,40.65479500022082],[-99.14709600043288,40.65733999967468],[-99.15938299968391,40.66018099980386],[-99.17049800022139,40.65848899986808],[-99.18219000034398,40.66137300026965],[-99.1944490000059,40.65997699975729],[-99.2048470003179,40.662013000082176],[-99.2423449997271,40.658888999876105],[-99.25875400040599,40.66454200005312],[-99.27585299974953,40.66168799989066],[-99.29075799965725,40.66230899980957],[-99.33222799980821,40.67146200020866],[-99.33865900029966,40.66958400028429],[-99.3518209999599,40.66958100028017],[-99.36990799969061,40.66451600031871],[-99.37603600023337,40.664262000178695],[-99.40412999956548,40.66921500013043],[-99.41167400011756,40.66757000032585],[-99.42381300012887,40.67331500016435],[-99.4357749996899,40.673544999925426],[-99.4464140000263,40.67805199969832],[-99.46507800024041,40.67470899985414],[-99.49831799957593,40.674902000215965],[-99.51029099990592,40.67703999973069],[-99.52856299958455,40.67512800005305],[-99.54307800040324,40.68080600006711],[-99.55923100009076,40.68073599990957],[-99.58222199997553,40.67708699974489],[-99.60029000033796,40.67979399967003],[-99.60948199980463,40.68373300004132],[-99.62057399987758,40.68588500016682],[-99.64346199983018,40.684910999862126]]]}},{"type":"Feature","properties":{"GEOID":"31013","NAME":"State Senate District 13","BASENAME":"13","STATE":"31","SLDU":"013"},"geometry":{"type":"Polygon","coordinates":[[[-96.11991099986727,41.3931569997127],[-96.11977600014806,41.35011899979498],[-96.08949599997936,41.35015299999859],[-96.08142199969787,41.341409999909224],[-96.07954200008137,41.3356740003212],[-96.03336100012021,41.33570799997361],[-96.0333879998844,41.31274599966652],[-96.02384300024033,41.31273500005174],[-96.02388599989803,41.297644999797825],[-96.01434200007887,41.29233299974128],[-95.98549899983588,41.2923959996731],[-95.98546600022392,41.29959799999691],[-95.99022399988979,41.299592999838836],[-95.99021300001914,41.310362999966294],[-95.98542000019316,41.31216000006293],[-95.98539199970575,41.31486799993619],[-95.95655100001092,41.31575500000974],[-95.95652500007164,41.317569999967176],[-95.94716299982734,41.31760199984132],[-95.94538100012015,41.31757300031449],[-95.94529300025661,41.31121199971323],[-95.94216599978688,41.3043000001349],[-95.94214999989336,41.29962999991959],[-95.93234300030846,41.299659000004674],[-95.93263899968616,41.28512000033576],[-95.92961900024487,41.285076999814876],[-95.92965100003192,41.29226200021656],[-95.92764199964567,41.2984399999916],[-95.92024699995484,41.30119100019801],[-95.90589900043906,41.3010379998699],[-95.90422200031384,41.29759099996295],[-95.90614399976312,41.28748799990213],[-95.91258100010236,41.27952700008588],[-95.9051780000156,41.275036999923074],[-95.8984410001007,41.27553700018598],[-95.88144800016406,41.28217100023564],[-95.87432399973655,41.28739399979909],[-95.87212799975256,41.291145000242636],[-95.87139499963355,41.29948200014558],[-95.87418399999446,41.30792400007967],[-95.88291600005189,41.31664699968318],[-95.89728399965917,41.321233999842256],[-95.91509099990571,41.319917999697324],[-95.92583499982412,41.321579999743],[-95.94653199981559,41.33313900027469],[-95.95529400001026,41.34189599996613],[-95.95724899996982,41.3488790001896],[-95.95427100036135,41.353508000217175],[-95.9369229996991,41.359246999755484],[-95.92968100016915,41.36705799971541],[-95.92948600017547,41.37532600000663],[-95.93641100041134,41.385876000012544],[-95.93869000023602,41.393194999979954],[-96.11991099986727,41.3931569997127]]]}},{"type":"Feature","properties":{"GEOID":"31017","NAME":"State Senate District 17","BASENAME":"17","STATE":"31","SLDU":"017"},"geometry":{"type":"Polygon","coordinates":[[[-97.36772400017965,42.35186099977746],[-97.3684039996969,42.09092200014465],[-96.55551099996116,42.0899569997385],[-96.55486599970567,42.01587500022418],[-96.46037399992161,42.01705299981294],[-96.30964500017117,42.01518699973646],[-96.30938900007813,42.04669199999684],[-96.27312000018216,42.04715800014891],[-96.27804299970448,42.05841200014311],[-96.27920099997094,42.073544000188555],[-96.275798000215,42.08374299981503],[-96.26838000005962,42.095239999860276],[-96.26687500036186,42.10379800006254],[-96.26892099965971,42.11329100009265],[-96.27458399987205,42.12033699988277],[-96.28595200012953,42.1259260000223],[-96.30015400005546,42.12769600003424],[-96.30638399980714,42.1299519997052],[-96.31262399960457,42.134654999951664],[-96.32073999971885,42.14792799996915],[-96.32685499984281,42.1523240001193],[-96.34022800028858,42.15805700024741],[-96.34708400002914,42.1653019997971],[-96.35042200038606,42.17522700006553],[-96.3472780001979,42.18577399976666],[-96.34737399955905,42.193075000292204],[-96.34956700006832,42.19814100029685],[-96.35986999994576,42.21055300028263],[-96.35659100003839,42.21518200009943],[-96.33699799988668,42.21746599987838],[-96.32372300024853,42.22988700001354],[-96.32286799993078,42.233636999854795],[-96.33000599970367,42.24022499993763],[-96.32770599996259,42.24999199995009],[-96.32889699984102,42.25472300025433],[-96.3359640003671,42.26477699995298],[-96.34138700037994,42.269086999799285],[-96.35655000003051,42.27659400005328],[-96.36575099971799,42.2858139997787],[-96.36846700028399,42.29261900008602],[-96.36921200009854,42.30834399972267],[-96.37530700013103,42.318338999962776],[-96.3841689998848,42.32587399980226],[-96.40799800036888,42.33740800003142],[-96.41389500003463,42.34339300004886],[-96.4177859996872,42.35144899995698],[-96.41709299975115,42.36144299968974],[-96.40843600003679,42.376091999994706],[-96.40915300026228,42.381490999865306],[-96.41497999960782,42.39344199987066],[-96.41518600037047,42.404203000051936],[-96.41030700033077,42.412965000223274],[-96.38760799962574,42.43249400029944],[-96.38070500002951,42.44639299988408],[-96.38130500007914,42.46169499993607],[-96.38600300036887,42.474495999752996],[-96.39264800022224,42.48140999979686],[-96.40196199988763,42.486439999867926],[-96.44548300025762,42.49062999995488],[-96.47877600019491,42.47970199979088],[-96.48949400017403,42.48010899992791],[-96.50131900036601,42.48274900022567],[-96.50858699983523,42.48669800019622],[-96.5158369997611,42.49422300023476],[-96.52062799993728,42.50469300024585],[-96.52877800038674,42.51326700022759],[-96.53798999994487,42.518128999745144],[-96.54878900011488,42.52054699987012],[-96.55777600044043,42.52038000007004],[-96.56789299964672,42.51787499982817],[-96.58439500021203,42.507819000043845],[-96.59111799988321,42.50540700013163],[-96.60347000032986,42.50446000030298],[-96.61148799963654,42.506086000275225],[-96.62596099972411,42.513578000069614],[-96.63149199969197,42.52431800003887],[-96.72223099991575,42.52465199998889],[-96.72180300029358,42.443729000292706],[-96.72195100043157,42.437460999819756],[-96.72614500003284,42.43740400032499],[-96.72596299955964,42.35112000003177],[-97.36772400017965,42.35186099977746]]]}},{"type":"Feature","properties":{"GEOID":"31015","NAME":"State Senate District 15","BASENAME":"15","STATE":"31","SLDU":"015"},"geometry":{"type":"Polygon","coordinates":[[[-96.90592200006569,41.742762999769866],[-96.90586199979124,41.45338899998133],[-96.88415499967131,41.45278600008682],[-96.86042499981974,41.44896500008073],[-96.8529589999838,41.4451780002854],[-96.83375699964435,41.44569700033137],[-96.82956200021817,41.44323399996525],[-96.81520299993342,41.43958500024363],[-96.79782099983433,41.44467400018333],[-96.78887399969173,41.44439600030632],[-96.77424400014363,41.450104000319726],[-96.74668700021363,41.44974999984699],[-96.73229699996672,41.44526400004544],[-96.71027400037761,41.43069899989901],[-96.70298000007081,41.42994499970507],[-96.6945810000993,41.42572000008278],[-96.67114800034865,41.42625199992971],[-96.65562699959949,41.42941400000266],[-96.65003000040771,41.43323400016677],[-96.6398999998843,41.43622700030995],[-96.63399999984551,41.43436400003185],[-96.60849400013453,41.43309899999392],[-96.60334700030621,41.43474499991583],[-96.56900900008037,41.43327699989346],[-96.55938400007035,41.430060000069254],[-96.51997600000911,41.40807900029272],[-96.5103729997404,41.404855999834304],[-96.50423800042327,41.396620999927634],[-96.49566200000145,41.394023999784885],[-96.49207299957438,41.39748700028181],[-96.48815699980744,41.39330499967066],[-96.47072000035507,41.39323900001336],[-96.45836999955826,41.37945699988735],[-96.43962099985364,41.37012900007534],[-96.42219100007397,41.36473799968379],[-96.41449500008427,41.35499700020091],[-96.407436999779,41.336622999922945],[-96.40705900038554,41.32621700020671],[-96.40976500000747,41.319702000327645],[-96.40760800038154,41.314613999758826],[-96.38929300014688,41.30250000032968],[-96.37791400001876,41.29829799998614],[-96.36441000005175,41.285257999806674],[-96.3619989999826,41.288324000116525],[-96.36262099977354,41.2915430001346],[-96.29369099977696,41.292743999967996],[-96.28254699982546,41.29151100029412],[-96.28318500040822,41.29371000009955],[-96.27621400014162,41.294949999696506],[-96.2744819997648,41.29771399982176],[-96.2753339997095,41.303560999714215],[-96.27391799970019,41.30962600013401],[-96.27504800037755,41.33611099975862],[-96.26805299982148,41.349848000294195],[-96.19690299955147,41.349946000328515],[-96.19700700020685,41.364472000266886],[-96.21631099975525,41.36443899997189],[-96.21629999988458,41.39090799977366],[-96.21499000018048,41.39307600006205],[-96.32901200036706,41.39313600008752],[-96.32892299978027,41.43662099976412],[-96.36733599978172,41.43669800002932],[-96.36720000023757,41.45095299971583],[-96.38647799984669,41.451253000007654],[-96.38642000012038,41.46574899998436],[-96.40562199956153,41.465820999831806],[-96.40593600027918,41.48045999972834],[-96.42521100041357,41.48034200027845],[-96.42521999973609,41.494865000026394],[-96.43479200004265,41.49492799977474],[-96.43445999978164,41.52393099976461],[-96.4438980001939,41.52393299992736],[-96.44421700003612,41.74177499968246],[-96.90592200006569,41.742762999769866]]]}},{"type":"Feature","properties":{"GEOID":"31004","NAME":"State Senate District 4","BASENAME":"4","STATE":"31","SLDU":"004"},"geometry":{"type":"Polygon","coordinates":[[[-96.21579600009443,41.277457999973876],[-96.21563000041307,41.2629400003199],[-96.19638899971557,41.26299000026246],[-96.19613900036862,41.234286000310696],[-96.15420399988729,41.23341600024287],[-96.15301399983377,41.23403499997931],[-96.16105700015312,41.24248800022544],[-96.1536280001271,41.241765999863375],[-96.15360100036291,41.24487299972051],[-96.15007800005806,41.24525700030971],[-96.15133099986076,41.24848499990213],[-96.11957500030661,41.248634999717986],[-96.11958700000218,41.27761799972513],[-96.13880799970988,41.27766300009081],[-96.13887300000722,41.29217700006607],[-96.18689099992716,41.29204500004952],[-96.18609400023405,41.28708299976414],[-96.19199599992267,41.28464899991445],[-96.19648499997503,41.28478699970638],[-96.19642999972346,41.277827999816076],[-96.21579600009443,41.277457999973876]]]}},{"type":"Feature","properties":{"GEOID":"31027","NAME":"State Senate District 27","BASENAME":"27","STATE":"31","SLDU":"027"},"geometry":{"type":"Polygon","coordinates":[[[-96.79633299985498,40.799193000329154],[-96.79685500008681,40.69764299975389],[-96.68233499995785,40.69737700003678],[-96.68252800030169,40.739568000072474],[-96.70154399997,40.73850399972885],[-96.70154200032019,40.771511000100716],[-96.70600799990801,40.776540999925416],[-96.7071910002888,40.785018999924326],[-96.70702100040951,40.81647400020312],[-96.71211200016131,40.82510099992239],[-96.71208100019918,40.84296700023455],[-96.72026099988756,40.84377300014563],[-96.71980499977798,40.857148999781764],[-96.72096999971713,40.857831999746026],[-96.74244900023143,40.83632499967025],[-96.75648299992785,40.81762599980718],[-96.74938299978982,40.80451600030766],[-96.74936000022359,40.791900999747526],[-96.75366599997784,40.79191600010187],[-96.75261800021457,40.79533700028175],[-96.75364699971126,40.79922400010094],[-96.79633299985498,40.799193000329154]]]}},{"type":"Feature","properties":{"GEOID":"31031","NAME":"State Senate District 31","BASENAME":"31","STATE":"31","SLDU":"031"},"geometry":{"type":"Polygon","coordinates":[[[-96.2154710004044,41.23392400024941],[-96.21565899982708,41.19778999971716],[-96.20612500005366,41.19636199973066],[-96.20618699997794,41.190568000071984],[-96.13883299982425,41.19080999998606],[-96.13879699983923,41.198131999787215],[-96.15034599984666,41.199725000009806],[-96.15819300034744,41.20253100031216],[-96.15815099961632,41.20535699970225],[-96.13876199967913,41.205385000181906],[-96.13853900009637,41.22611299980218],[-96.15309900022257,41.23403299966329],[-96.2154710004044,41.23392400024941]]]}},{"type":"Feature","properties":{"GEOID":"31032","NAME":"State Senate District 32","BASENAME":"32","STATE":"31","SLDU":"032"},"geometry":{"type":"Polygon","coordinates":[[[-97.82478000032327,40.69853700007317],[-97.82411400015143,40.35054099987163],[-97.8207120002204,40.35002700009722],[-97.82149499966981,40.002046999838655],[-96.91640700041633,40.00151099976054],[-96.91605500006382,40.34972700032305],[-96.91325900003021,40.34971799972729],[-96.91263700023927,40.52362499977095],[-96.57219599992624,40.52382800001373],[-96.57258400026376,40.59646500027124],[-96.5581479999861,40.59593600013704],[-96.55983699980689,40.618857000067685],[-96.6246789996091,40.61795400033324],[-96.62468299980706,40.61609699968602],[-96.62923299995879,40.61789299984159],[-96.62936199983024,40.61667999978278],[-96.63520900016559,40.61630399988531],[-96.63720199976,40.61711199988179],[-96.63666299980973,40.61829600000135],[-96.63981299984567,40.618579999667176],[-96.63807700016923,40.61972699972044],[-96.64075100000409,40.61926300008829],[-96.64027099960508,40.62087300025842],[-96.64379499973484,40.62060600011729],[-96.64304800027043,40.62317500000601],[-96.64594200021332,40.62336699990978],[-96.64701300044115,40.625064999836106],[-96.63914199965093,40.62520599987769],[-96.65345599972986,40.636814000283934],[-96.6607800001739,40.64724199998595],[-96.68146899976946,40.69737700003678],[-96.79685500008681,40.69764299975389],[-96.79633299985498,40.799193000329154],[-96.87294100029793,40.79942099989167],[-96.87297100043517,40.80115900023859],[-96.87675099975965,40.799428000080646],[-96.91075699972447,40.79936799999167],[-96.91111599974967,40.69797499970813],[-97.82478000032327,40.69853700007317]]]}},{"type":"Feature","properties":{"GEOID":"31023","NAME":"State Senate District 23","BASENAME":"23","STATE":"31","SLDU":"023"},"geometry":{"type":"Polygon","coordinates":[[[-97.2541749998211,41.30957100008438],[-97.25265699970451,41.23612900004476],[-97.25311799983697,41.046653000301],[-96.46386899973906,41.04508300018024],[-96.46386100024145,41.01606900014584],[-96.36950699965134,41.01499099969349],[-96.34947099980886,41.0152109997799],[-96.34902700029315,41.0449500000673],[-96.31919099964016,41.04499799989455],[-96.32488399998971,41.059065999685984],[-96.33814899958213,41.07799800014534],[-96.33980499979097,41.08250200031706],[-96.33877100027136,41.091728999811544],[-96.33499000022368,41.09752999999337],[-96.3263180004407,41.10421800013312],[-96.31687900020351,41.10850600009947],[-96.31107899972383,41.114406000171584],[-96.31994399985065,41.131823000335686],[-96.31599299992362,41.14661900001378],[-96.32085000022202,41.16196300020691],[-96.32285100021234,41.18124300004949],[-96.32739899981594,41.18999900028903],[-96.33254700036747,41.19555500014714],[-96.35259599973044,41.20565900009175],[-96.3615489997208,41.21949999973639],[-96.36548100027956,41.23551699980517],[-96.35080700035054,41.256247999988474],[-96.34966199960455,41.26216400030151],[-96.35059800011317,41.26519199971077],[-96.36352600032,41.28420300008794],[-96.37559300036129,41.29660499974125],[-96.38194399958849,41.30053400002173],[-96.39053099988097,41.3031959999014],[-96.40760800038154,41.314613999758826],[-96.40976500000747,41.319702000327645],[-96.40705900038554,41.32621700020671],[-96.407436999779,41.336622999922945],[-96.41449500008427,41.35499700020091],[-96.4229810000944,41.36530399968094],[-96.43962099985364,41.37012900007534],[-96.45836999955826,41.37945699988735],[-96.47072000035507,41.39323900001336],[-96.48815699980744,41.39330499967066],[-96.49207299957438,41.39748700028181],[-96.49566200000145,41.394023999784885],[-96.50423800042327,41.396620999927634],[-96.5103729997404,41.404855999834304],[-96.51997600000911,41.40807900029272],[-96.55938400007035,41.430060000069254],[-96.56903599984454,41.43328400015955],[-96.60334700030621,41.43474499991583],[-96.60849400013453,41.43309899999392],[-96.63399999984551,41.43436400003185],[-96.6398999998843,41.43622700030995],[-96.65003000040771,41.43323400016677],[-96.65562699959949,41.42941400000266],[-96.67114800034865,41.42625199992971],[-96.6945810000993,41.42572000008278],[-96.70298000007081,41.42994499970507],[-96.71027400037761,41.43069899989901],[-96.73229699996672,41.44526400004544],[-96.74668700021363,41.44974999984699],[-96.77424400014363,41.450104000319726],[-96.78887399969173,41.44439600030632],[-96.79782099983433,41.44467400018333],[-96.81520299993342,41.43958500024363],[-96.82956200021817,41.44323399996525],[-96.83375699964435,41.44569700033137],[-96.8529589999838,41.4451780002854],[-96.86042499981974,41.44896500008073],[-96.88415499967131,41.45278600008682],[-96.90586199979124,41.45338899998133],[-96.90592200006569,41.742762999769866],[-97.25242499990094,41.74308500016224],[-97.25255399977236,41.3951969999886],[-97.2541749998211,41.30957100008438]]]}},{"type":"Feature","properties":{"GEOID":"31002","NAME":"State Senate District 2","BASENAME":"2","STATE":"31","SLDU":"002"},"geometry":{"type":"Polygon","coordinates":[[[-96.62513999974156,40.79877899972994],[-96.6251499997873,40.78428500004386],[-95.83411999980709,40.78378299993583],[-95.83581500037398,40.79062999985311],[-95.8437449998171,40.80378299996891],[-95.84534199957639,40.811323999846636],[-95.84392100044252,40.81768599970582],[-95.83860100036185,40.82617499978944],[-95.83718600017744,40.83534700012046],[-95.8413089996336,40.845604000309606],[-95.84708399999893,40.85417400017447],[-95.84859000041993,40.86106099968966],[-95.84693800040907,40.8657450002026],[-95.84252100032671,40.8702659997407],[-95.8249890004398,40.875000000312866],[-95.81593299961897,40.879845999708685],[-95.81070899979777,40.886681000292356],[-95.80937900000218,40.89327900024909],[-95.8143020004228,40.902935999905324],[-95.83490599962956,40.91957399974274],[-95.83974299983646,40.93278000006764],[-95.84027500011402,40.939941999888504],[-95.8379510000835,40.950618000319125],[-95.82982900012145,40.96385700010974],[-95.82832900044654,40.97237800020149],[-95.82979200031153,40.97734399972968],[-95.83353700037422,40.982659999714926],[-95.83890799961019,40.98648400003577],[-95.86011599996284,40.99524200025375],[-95.86669499969398,41.00073400011669],[-95.86950199959826,41.00942900006677],[-95.8658860003053,41.01741799974074],[-95.85991799959612,41.025402999903214],[-95.8600699999321,41.03701100017318],[-95.87528700000932,41.05059900015352],[-95.88921500029888,41.058443000321205],[-95.91643199957194,41.05994699971916],[-95.94737399971456,41.05761600007739],[-95.9610009997052,41.060770999834624],[-95.96728999990643,41.05944400027524],[-95.97877799981453,41.05336200017845],[-95.98733699961957,41.05271700026852],[-96.00308799962421,41.06051500008213],[-96.01806200002721,41.06148500010742],[-96.03406199955387,41.06600100009209],[-96.05625599974552,41.06535600016876],[-96.07364700006544,41.05804599985711],[-96.10336999984223,41.05194499993943],[-96.10986499990778,41.048403999872434],[-96.11907700036424,41.03856500028801],[-96.13124499978956,41.03138700021633],[-96.14469299968007,41.01759800032034],[-96.15334799974462,41.01587599985667],[-96.2076480001931,40.99562799978568],[-96.21893899955936,40.99430800003105],[-96.23296099956023,41.00085500020132],[-96.2407579998323,41.01339800007622],[-96.24760100005238,41.01777600026672],[-96.27548299967242,41.020078000102146],[-96.29493199988407,41.025744999852314],[-96.31128299993833,41.03642999987058],[-96.31919099964016,41.04499799989455],[-96.34902700029315,41.0449500000673],[-96.34947099980886,41.0152109997799],[-96.46386100024145,41.01606900014584],[-96.46371399992837,40.88547799971179],[-96.56747900026825,40.88526000031294],[-96.56757800000244,40.891950999738135],[-96.57178099982454,40.89341299975583],[-96.60688999980422,40.875026999867046],[-96.60556900022948,40.8727550000425],[-96.60610099960871,40.798830999772846],[-96.62513999974156,40.79877899972994]]]}},{"type":"Feature","properties":{"GEOID":"31010","NAME":"State Senate District 10","BASENAME":"10","STATE":"31","SLDU":"010"},"geometry":{"type":"Polygon","coordinates":[[[-96.1584379996715,41.335571999908545],[-96.15813700027094,41.29213499975231],[-96.10213700013101,41.2922380002647],[-96.07176499990081,41.28520800004184],[-96.05261000031534,41.285066999972265],[-96.05263200005665,41.30668899977919],[-96.10066500004521,41.30661400012492],[-96.10052199993008,41.31877600025808],[-96.12059600030571,41.32103299970374],[-96.13886700015945,41.32110599996336],[-96.13901899959707,41.33562999979246],[-96.1584379996715,41.335571999908545]]]}},{"type":"Feature","properties":{"GEOID":"31043","NAME":"State Senate District 43","BASENAME":"43","STATE":"31","SLDU":"043"},"geometry":{"type":"Polygon","coordinates":[[[-103.50509999993837,43.00076999979408],[-103.50308600042757,42.78491300030019],[-103.48033499984402,42.7849080003095],[-103.480010000154,42.437267000047825],[-103.00046699991576,42.43780100017223],[-102.74943099983292,42.43993399976284],[-102.7515330001056,42.357111999814265],[-102.74768099991279,42.35185000004134],[-102.74646800029305,42.24996699984473],[-102.74158099985743,42.177720999812884],[-102.7422689997706,42.09238799993975],[-102.70238299985847,42.09274700012737],[-102.70210000000125,42.05132300023846],[-102.69882299974368,42.02664299986827],[-102.69783500025487,42.00484300019199],[-102.50047299973333,42.007539000042605],[-102.00856200005322,42.00890099967499],[-102.0064279999935,42.09622699995698],[-101.78825600040089,42.093166000316714],[-101.56813800017123,42.093675000087664],[-100.87542899970336,42.088225000168045],[-100.26762200006796,42.086146999865996],[-100.26547399976455,41.73985599986301],[-100.25122400015805,41.73981699974923],[-100.25293399989523,41.62259700029056],[-100.25127900040964,41.39575400012658],[-100.25109799976136,41.3932979998123],[-100.236105999815,41.39332399976378],[-100.23617899960993,41.32200800019444],[-100.23431999990984,41.27841700020799],[-100.23759600034248,41.16146600009304],[-100.23815500038421,41.0465360002158],[-99.20756399981047,41.04700300002038],[-99.20326100042926,41.39413999979969],[-99.21246499959149,41.39423499966339],[-99.21201600005291,41.74061300009512],[-98.75913299959414,41.74038200004593],[-98.76115500039917,42.08851799970977],[-99.2346289996459,42.08799500014618],[-99.23406399975637,42.43452399981775],[-99.2445909999398,42.43463899981967],[-99.24580299973462,42.78249900015673],[-99.25684600030208,42.78265499994433],[-99.25703899974762,42.804295999970776],[-99.24736799970684,42.809659000076586],[-99.22572699970915,42.81430599991161],[-99.20854100032695,42.822831000236505],[-99.17881199980408,42.82947899994095],[-99.1661129999261,42.83734000003583],[-99.15380300021057,42.84188400019337],[-99.12803800003348,42.844270000155554],[-99.12057499967227,42.848405999997325],[-99.09629300034997,42.8562810000565],[-99.06710799980021,42.86228999988766],[-99.05675999971695,42.862595000278546],[-99.05363599962027,42.86630399987778],[-99.03550500040694,42.87600599996404],[-99.02993699973085,42.87728499975846],[-99.02075799978466,42.88428199978163],[-99.00859500038221,42.88842200023898],[-99.00283799956023,42.88807100013287],[-98.99416300030254,42.8943620000359],[-98.98252700025644,42.89643600032269],[-98.96697999956801,42.896724000020974],[-98.95463399986744,42.89407700019491],[-98.94724199965134,42.885790999846186],[-98.94175599988932,42.88403299974058],[-98.9408749996323,42.88074900016794],[-98.92962400044902,42.87670699989948],[-98.91352899958947,42.861466999773235],[-98.90047400005936,42.854556999907125],[-98.89284599984171,42.84579199994165],[-98.88844100035325,42.843479999684135],[-98.87780000036699,42.84117999971481],[-98.85462100016126,42.843043999890135],[-98.8429650000237,42.8464940003117],[-98.81828299977,42.83015300025226],[-98.81128200026447,42.82774599994719],[-98.79258700008823,42.82427000025584],[-98.77888700030265,42.82738500028813],[-98.76322300033664,42.82789900002979],[-98.73570200039164,42.81588099983977],[-98.72290899990402,42.80789500030131],[-98.71004799964435,42.80347999978075],[-98.68949700014105,42.80429900008004],[-98.67461999982243,42.80270000030636],[-98.65683500021551,42.809021000289206],[-98.63914000012196,42.803632999935964],[-98.6289350001538,42.796511000231774],[-98.61536699971438,42.79382599997066],[-98.58376000012315,42.77973599979841],[-98.56737999975658,42.77886699996132],[-98.55830200009275,42.78142799982694],[-98.54847299986822,42.78164899971667],[-98.53544099990432,42.77748899997671],[-98.53119100022656,42.774617999989964],[-98.52488000028403,42.77606799980896],[-98.51867399992345,42.77309999983456],[-98.511953999727,42.77478400015129],[-98.50616699966612,42.773052999906604],[-98.49092600019773,42.77309999983456],[-98.47577699989255,42.77011499971984],[-98.46567200038183,42.7662060001695],[-98.44579499964968,42.770038999985935],[-98.43399700012021,42.76945900016026],[-98.4287170002225,42.77471500029713],[-98.41602500001723,42.775673999855066],[-98.3806049996929,42.77221699977412],[-98.36560299970084,42.76754100012779],[-98.3598690002417,42.76763600014961],[-98.34927900030907,42.77075299972603],[-98.34060499997796,42.7706610002898],[-98.31944400037929,42.76631900009446],[-98.3152699999712,42.76361600005247],[-98.30514899966865,42.76120699991279],[-98.30505099975935,42.784643000225344],[-98.31027200010583,42.785171000326365],[-98.3097709997904,42.88260499990675],[-98.32966299969284,42.888440999861494],[-98.33798999969432,42.897759999814454],[-98.34622999965715,42.902746999794445],[-98.40782400041245,42.92574999991047],[-98.4207400000254,42.93192399981169],[-98.43093400012289,42.931504000191985],[-98.43728500024841,42.92839300028212],[-98.44527599979091,42.92991399997563],[-98.44830899965099,42.93642799969015],[-98.46735600017975,42.9475560001641],[-98.49048299960863,42.977947999985005],[-98.4957469996128,42.98803200006699],[-98.49855000021742,42.99855899984257],[-99.9629850002188,42.997661000186525],[-100.51558000008485,42.999332000086895],[-101.63300699973762,42.99625499980494],[-101.8754239997409,42.99941499997183],[-103.50509999993837,43.00076999979408]]]}},{"type":"Feature","properties":{"GEOID":"31014","NAME":"State Senate District 14","BASENAME":"14","STATE":"31","SLDU":"014"},"geometry":{"type":"Polygon","coordinates":[[[-96.08139599975861,41.19075599967491],[-96.08046299962304,41.17464400019939],[-96.06196699963843,41.16493299981596],[-96.06354900022741,41.14470300013149],[-96.05248999976642,41.13988000013327],[-96.05246700020021,41.132649999929946],[-96.02368800042964,41.132514000303814],[-96.02367099981288,41.16163899968127],[-95.98689300010389,41.16169099983176],[-95.99495599961641,41.16828700022716],[-95.99771800021315,41.177292000232846],[-96.00913400015119,41.19069999970584],[-96.08139599975861,41.19075599967491]]]}},{"type":"Feature","properties":{"GEOID":"31024","NAME":"State Senate District 24","BASENAME":"24","STATE":"31","SLDU":"024"},"geometry":{"type":"Polygon","coordinates":[[[-97.82827000011785,41.175490000092616],[-97.8279639997961,41.04731500005517],[-97.82627400015039,41.04497499998168],[-97.82572299960627,40.698554999769016],[-96.91111599974967,40.69797499970813],[-96.91094000002258,41.046116000193884],[-97.25311799983697,41.046653000301],[-97.25351899969496,41.384211999777165],[-97.26151500015865,41.386325000319665],[-97.277641000082,41.39737500022889],[-97.28776099966134,41.400637999670934],[-97.30488099981962,41.40098600006971],[-97.34087100005631,41.39108899973174],[-97.36818299976396,41.397627999749055],[-97.37044599969511,41.39551800009192],[-97.38527199996008,41.39297999977136],[-97.39651700019392,41.385070000045445],[-97.43502999975446,41.375538000248994],[-97.45014899992242,41.36877999999527],[-97.47632099980525,41.3650919997965],[-97.49564100014548,41.36560600029516],[-97.52241200025303,41.361933999706785],[-97.57059500002943,41.33728199980416],[-97.58580100023602,41.33389400028137],[-97.59769800039801,41.33345700013535],[-97.59820499966288,41.31724699999995],[-97.60166299967041,41.31517899974323],[-97.60621399964705,41.3132560000085],[-97.6115539998192,41.31352799990886],[-97.6309910003353,41.30674500029256],[-97.64192900042246,41.306055999934486],[-97.64253899961952,41.3096880002202],[-97.6585540001131,41.304862000174985],[-97.65663699978836,41.301461999682026],[-97.66446599984748,41.294747999937826],[-97.66846199998032,41.298278000302744],[-97.67914300014954,41.29256299981937],[-97.71790299958228,41.26293099983997],[-97.73925499987499,41.25083499977699],[-97.74798399955935,41.24827699986676],[-97.76599900021836,41.23489000010794],[-97.79068899996965,41.20626499988249],[-97.8048159995525,41.196901000171835],[-97.80052900006483,41.193314000020045],[-97.81099000012601,41.185353000195725],[-97.82827000011785,41.175490000092616]]]}},{"type":"Feature","properties":{"GEOID":"31026","NAME":"State Senate District 26","BASENAME":"26","STATE":"31","SLDU":"026"},"geometry":{"type":"Polygon","coordinates":[[[-96.68240600010297,40.81358300022089],[-96.60608800008825,40.81349599986446],[-96.60612499989817,40.87414699987277],[-96.6069500000787,40.87514199968135],[-96.62461300038518,40.866223000081426],[-96.62487299977786,40.85126699994179],[-96.65362200030953,40.85111999992476],[-96.65887399971982,40.84839000023492],[-96.65886200002424,40.836340999940425],[-96.653642000401,40.83529899993792],[-96.65372500024169,40.82795700010173],[-96.66332099993939,40.828041000184236],[-96.6633159999165,40.82566600021622],[-96.6702639997186,40.8238690002728],[-96.67020400034245,40.82072600013123],[-96.68237599996574,40.82070400018588],[-96.68240600010297,40.81358300022089]]]}},{"type":"Feature","properties":{"GEOID":"31011","NAME":"State Senate District 11","BASENAME":"11","STATE":"31","SLDU":"011"},"geometry":{"type":"Polygon","coordinates":[[[-95.9902299997376,41.30027200011262],[-95.98546600022392,41.29959799999691],[-95.98549899983588,41.2923959996731],[-95.98282099980305,41.29243000030737],[-95.98355200027223,41.27199300000803],[-95.98218300011858,41.26793900023102],[-95.93225299989678,41.26799400027655],[-95.9248470003353,41.272783000008125],[-95.91818700041328,41.27429999989368],[-95.92864599992635,41.28133200018008],[-95.92961900024487,41.285076999814876],[-95.93263899968616,41.28512000033576],[-95.93234300030846,41.299659000004674],[-95.94214999989336,41.29962999991959],[-95.94216599978688,41.3043000001349],[-95.94529300025661,41.31121199971323],[-95.94538100012015,41.31757300031449],[-95.95634299959845,41.31760199984132],[-95.95655100001092,41.31575500000974],[-95.98539199970575,41.31486799993619],[-95.98542000019316,41.31216000006293],[-95.99021300001914,41.310362999966294],[-95.9902299997376,41.30027200011262]]]}},{"type":"Feature","properties":{"GEOID":"31035","NAME":"State Senate District 35","BASENAME":"35","STATE":"31","SLDU":"035"},"geometry":{"type":"Polygon","coordinates":[[[-98.38445500023593,40.9539519998778],[-98.38323400022026,40.90691799983835],[-98.3815460002244,40.902452999710825],[-98.33979200039133,40.90210400029768],[-98.33977300012475,40.894950999673775],[-98.32089200017566,40.90255999979237],[-98.3207549999083,40.90132900021579],[-98.30168599963825,40.90133400023228],[-98.30180199998921,40.91586399998146],[-98.28254500029648,40.91583000000077],[-98.28246099973258,40.97382099978265],[-98.30159100010202,40.97391499988384],[-98.301779000423,40.98837799996199],[-98.32079199971824,40.98888100003153],[-98.32068700013625,40.98113700029824],[-98.32212400006196,40.97989799978647],[-98.33334500000635,40.977469000035306],[-98.33508999990363,40.974571999846006],[-98.33973899978956,40.97463299970154],[-98.33982699965311,40.96016100031018],[-98.38166300040027,40.96051500010443],[-98.38445500023593,40.9539519998778]]]}},{"type":"Feature","properties":{"GEOID":"31037","NAME":"State Senate District 37","BASENAME":"37","STATE":"31","SLDU":"037"},"geometry":{"type":"Polygon","coordinates":[[[-99.17913900004223,40.728482999844765],[-99.179405000181,40.692302999983596],[-99.16114400037304,40.692285999848735],[-99.1619310000204,40.67187899998479],[-99.13678799963427,40.670663000271695],[-99.14660799963795,40.66827799982275],[-99.14158999968106,40.667176999716915],[-99.15033500015728,40.667020000241024],[-99.14087199963068,40.662827000260435],[-99.1491669998451,40.6611850000012],[-99.14195600027728,40.658848000275256],[-99.14865600038226,40.66036099996817],[-99.15370500030126,40.65885199978864],[-99.11547399987472,40.65479500022082],[-99.0815230001615,40.65700199991596],[-99.05781599987614,40.65565300006169],[-99.05313000018029,40.65400600013874],[-99.04181299997646,40.65525199997091],[-99.03365300037954,40.6525259997505],[-99.00250399964939,40.65371800001285],[-98.99716799967521,40.65213800018729],[-98.97277500002482,40.65703599977964],[-98.94547500001276,40.65381800023529],[-98.9309469996736,40.654855999716816],[-98.92356100020358,40.653090999727375],[-98.90609600026382,40.652722000330314],[-98.89278999976521,40.65447900030785],[-98.89050500009276,40.656788999994895],[-98.8824819998649,40.65765499994052],[-98.87767300014539,40.660284000301864],[-98.86549800014907,40.65960200005861],[-98.84903499994182,40.665375000122175],[-98.84146399962557,40.66997700033543],[-98.83328999978497,40.67027600012149],[-98.82592799970611,40.674967999777294],[-98.80362800010755,40.675678000031155],[-98.79256500034691,40.68054999985391],[-98.78162499971162,40.68022700021256],[-98.77230600002335,40.683358999744286],[-98.75967999994032,40.683972000079244],[-98.75541000017107,40.68694399992163],[-98.74887300027272,40.68872800005733],[-98.73372099959448,40.68738500002811],[-98.72438699983762,40.68977200002757],[-98.72441199995198,40.698890999781604],[-98.72143000014552,40.69890299996963],[-98.72176800025433,40.80070400032892],[-98.75985099964456,40.80069499967602],[-98.75993799968317,40.77335400031057],[-98.81704099983796,40.75771699987928],[-98.81700200037822,40.77157499974148],[-98.87422699983344,40.77160700021906],[-98.8741959998713,40.75539099996982],[-98.87033399963275,40.749815999698924],[-98.87426299981846,40.749810000110145],[-98.87429799997854,40.74204400008559],[-98.95035599970227,40.7249610002322],[-98.95019900024175,40.74993100033279],[-98.9882769996091,40.750002000293414],[-98.9883040002716,40.76443000011069],[-99.10275400008035,40.765364000216685],[-99.1028419999439,40.75013599966748],[-99.12190700001601,40.75010399973995],[-99.1218729996808,40.72836600019386],[-99.17913900004223,40.728482999844765]]]}},{"type":"Feature","properties":{"GEOID":"31040","NAME":"State Senate District 40","BASENAME":"40","STATE":"31","SLDU":"040"},"geometry":{"type":"Polygon","coordinates":[[[-99.25703899974762,42.804295999970776],[-99.25684600030208,42.78265499994433],[-99.24580299973462,42.78249900015673],[-99.2445909999398,42.43463899981967],[-99.23406399975637,42.43452399981775],[-99.2346289996459,42.08799500014618],[-98.29543800034321,42.08887299993059],[-98.29560200037476,41.91495399996944],[-97.83328800007472,41.9162859997899],[-97.83489599970467,42.26373500005595],[-97.36793300041703,42.2648529997603],[-97.36772400017965,42.35186099977746],[-96.72596299955964,42.35112000003177],[-96.72614500003284,42.43740400032499],[-96.72195100043157,42.437460999819756],[-96.72180300029358,42.443729000292706],[-96.72223099991575,42.52465199998889],[-96.63149199969197,42.52431800003887],[-96.633322999803,42.54020999981039],[-96.63803000031355,42.55195899973954],[-96.64806299985426,42.56082400022668],[-96.6587520004194,42.56642399984451],[-96.67594899967224,42.57160100023828],[-96.68405899993876,42.57646199997986],[-96.706232000214,42.599222000195326],[-96.70982400011583,42.60510000015564],[-96.7115480000967,42.614758999990784],[-96.70948699983192,42.6219310003214],[-96.69685300025128,42.63759399983003],[-96.68778999975774,42.645993000027445],[-96.68708000010326,42.652093000033176],[-96.69126799985675,42.65619799982613],[-96.69763900007374,42.65914100020837],[-96.72802700019749,42.66687999976873],[-96.74694800032952,42.66622200031869],[-96.7640609999168,42.66198300000122],[-96.7767820004344,42.66271599986339],[-96.79323499969757,42.66602099974344],[-96.80083699997596,42.6696610000182],[-96.8021769998173,42.67223499993819],[-96.80048299997364,42.69246400029732],[-96.80161600012573,42.698775999738245],[-96.80621300013311,42.70415400006874],[-96.84341900036262,42.7120240000142],[-96.8604359996904,42.72079700014632],[-96.87278899996195,42.724095999758546],[-96.88684500029802,42.725222000233266],[-96.90679699957661,42.73379999982058],[-96.91828200000995,42.73185200000282],[-96.93345399988135,42.72380599998965],[-96.93758899993139,42.71959700004264],[-96.9615759997009,42.719841000174746],[-96.96477599996555,42.72245499987943],[-96.96583299994967,42.72709600028472],[-96.96129100019387,42.736569000039104],[-96.96123000009449,42.74062300021933],[-96.96888000005346,42.75427799969139],[-96.9791200001817,42.76009000001935],[-96.99281999996731,42.75948100019161],[-97.02485000005615,42.76242999971168],[-97.04167899996129,42.76796799986608],[-97.06722999987811,42.77232300024841],[-97.1126459999332,42.76912899997287],[-97.13025700036115,42.77154099973539],[-97.13446100000816,42.77449400005576],[-97.1382160001166,42.78342799982044],[-97.15076299965861,42.795565999836725],[-97.16697800016874,42.80208700019716],[-97.2004309999396,42.80548500002293],[-97.21012600026981,42.80929600011821],[-97.21308399978682,42.81300700021223],[-97.21395699964792,42.82014299969806],[-97.21826900014827,42.82956100023077],[-97.2174110003558,42.84351900009286],[-97.21882499981697,42.84584800016451],[-97.2319289997509,42.85133499994168],[-97.24855599998968,42.85538599980284],[-97.26794599975179,42.85258300017272],[-97.28985899973604,42.855499000229564],[-97.30207499974026,42.86565999981335],[-97.30667699977053,42.86760400026366],[-97.33615600004815,42.856801999832285],[-97.35956899970729,42.854816000227],[-97.36864300007149,42.85841899994352],[-97.37669499971335,42.86519500017747],[-97.39396399983455,42.864249999789436],[-97.39930300018179,42.86483500019903],[-97.40615499972441,42.86829100010643],[-97.41084700016637,42.86798399999658],[-97.42010499975525,42.86373699971024],[-97.42554299983671,42.85665800014046],[-97.43345499973647,42.85039299998664],[-97.43911399975086,42.8471100002158],[-97.44490500000971,42.84593200007434],[-97.45217699967691,42.84604800007566],[-97.47052899972148,42.850454999681524],[-97.48701000037039,42.850582000041214],[-97.49623000032445,42.853230999717944],[-97.50034100008504,42.85722000024594],[-97.50484699985584,42.85847699976964],[-97.52237100024516,42.85197899993398],[-97.55789399960332,42.84753200013281],[-97.57847400031724,42.8505439998676],[-97.60376199957003,42.85832900030976],[-97.61181099973716,42.85836700030282],[-97.65790300000985,42.84440000019896],[-97.68647699974102,42.84221200007214],[-97.72068299972237,42.847316999769006],[-97.77438099957311,42.84974000028145],[-97.81711199992266,42.86177699998335],[-97.82857300006656,42.86880199968932],[-97.84539299975087,42.86771999972328],[-97.86586999963433,42.862814000225676],[-97.87553099962933,42.858656000195246],[-97.8771759999675,42.85432199971943],[-97.87600400035568,42.84765899991646],[-97.87912000005643,42.8436020000363],[-97.88000299996327,42.83532699983172],[-97.88864700015715,42.81717700030931],[-97.90903600017705,42.7948330000387],[-97.91599499984979,42.78982399999297],[-97.92147999978691,42.78827499978254],[-97.9348270002934,42.776877999892974],[-97.950169999869,42.76954999968488],[-97.96206700003101,42.76863699988196],[-97.97761499964604,42.769846999826406],[-97.99087099991593,42.764998999702016],[-98.01307199978028,42.76221900017211],[-98.03507099997825,42.76411399995119],[-98.03869600039036,42.76627399983971],[-98.05668400038684,42.770675999755625],[-98.05990300001977,42.77266299988608],[-98.06299899962904,42.7810009999207],[-98.06748600003158,42.78463499980959],[-98.08291099962298,42.794200000176566],[-98.09472099974633,42.799157999868854],[-98.11243799958116,42.81320199997936],[-98.127673999925,42.819955999877614],[-98.13810300019914,42.83254300005258],[-98.14710899989294,42.83963100021773],[-98.16752300002722,42.836924999958576],[-98.18981099993019,42.841642999982],[-98.21982599978502,42.85315700000198],[-98.23192200013862,42.86114000028831],[-98.2468300004194,42.868396999939925],[-98.2518099998431,42.87282399977381],[-98.25827599959635,42.874390000307436],[-98.28000700000572,42.874995999871146],[-98.3097709997904,42.88260499990675],[-98.31027200010583,42.785171000326365],[-98.30505099975935,42.784643000225344],[-98.30514899966865,42.76120699991279],[-98.3152699999712,42.76361600005247],[-98.31944400037929,42.76631900009446],[-98.34060499997796,42.7706610002898],[-98.34927900030907,42.77075299972603],[-98.3598690002417,42.76763600014961],[-98.36560299970084,42.76754100012779],[-98.3806049996929,42.77221699977412],[-98.41602500001723,42.775673999855066],[-98.4287170002225,42.77471500029713],[-98.43399700012021,42.76945900016026],[-98.44579499964968,42.770038999985935],[-98.46567200038183,42.7662060001695],[-98.47577699989255,42.77011499971984],[-98.49092600019773,42.77309999983456],[-98.50616699966612,42.773052999906604],[-98.511953999727,42.77478400015129],[-98.51867399992345,42.77309999983456],[-98.52488000028403,42.77606799980896],[-98.53119100022656,42.774617999989964],[-98.53544099990432,42.77748899997671],[-98.54847299986822,42.78164899971667],[-98.55830200009275,42.78142799982694],[-98.56737999975658,42.77886699996132],[-98.58376000012315,42.77973599979841],[-98.61536699971438,42.79382599997066],[-98.6289350001538,42.796511000231774],[-98.63914000012196,42.803632999935964],[-98.65683500021551,42.809021000289206],[-98.67461999982243,42.80270000030636],[-98.68949700014105,42.80429900008004],[-98.71004799964435,42.80347999978075],[-98.72290899990402,42.80789500030131],[-98.73570200039164,42.81588099983977],[-98.76322300033664,42.82789900002979],[-98.77888700030265,42.82738500028813],[-98.79258700008823,42.82427000025584],[-98.81128200026447,42.82774599994719],[-98.81828299977,42.83015300025226],[-98.8429650000237,42.8464940003117],[-98.85462100016126,42.843043999890135],[-98.87780000036699,42.84117999971481],[-98.88844100035325,42.843479999684135],[-98.89284599984171,42.84579199994165],[-98.90047400005936,42.854556999907125],[-98.91352899958947,42.861466999773235],[-98.92962400044902,42.87670699989948],[-98.9408749996323,42.88074900016794],[-98.94175599988932,42.88403299974058],[-98.94724199965134,42.885790999846186],[-98.95463399986744,42.89407700019491],[-98.96697999956801,42.896724000020974],[-98.98252700025644,42.89643600032269],[-98.99416300030254,42.8943620000359],[-99.00283799956023,42.88807100013287],[-99.00650800017817,42.888732999766745],[-99.01693900010213,42.88620999992739],[-99.02993699973085,42.87728499975846],[-99.03550500040694,42.87600599996404],[-99.05363599962027,42.86630399987778],[-99.05675999971695,42.862595000278546],[-99.06710799980021,42.86228999988766],[-99.09629300034997,42.8562810000565],[-99.12057499967227,42.848405999997325],[-99.12803800003348,42.844270000155554],[-99.15380300021057,42.84188400019337],[-99.1661129999261,42.83734000003583],[-99.17881199980408,42.82947899994095],[-99.20854100032695,42.822831000236505],[-99.22572699970915,42.81430599991161],[-99.24736799970684,42.809659000076586],[-99.25703899974762,42.804295999970776]]]}},{"type":"Feature","properties":{"GEOID":"31046","NAME":"State Senate District 46","BASENAME":"46","STATE":"31","SLDU":"046"},"geometry":{"type":"Polygon","coordinates":[[[-96.7208979997471,40.85790799977322],[-96.71980499977798,40.857148999781764],[-96.72026099988756,40.84377300014563],[-96.71208100019918,40.84296700023455],[-96.71211200016131,40.82510099992239],[-96.7069850004245,40.81585999974111],[-96.68239600005722,40.81575900000111],[-96.68237599996574,40.82070400018588],[-96.67020400034245,40.82072600013123],[-96.6702639997186,40.8238690002728],[-96.6633159999165,40.82566600021622],[-96.66332099993939,40.828041000184236],[-96.65372500024169,40.82795700010173],[-96.653642000401,40.83529899993792],[-96.65886200002424,40.836340999940425],[-96.65887399971982,40.84839000023492],[-96.65362200030953,40.85111999992476],[-96.62487299977786,40.85126699994179],[-96.62461300038518,40.866223000081426],[-96.60289100019664,40.877120999822395],[-96.60559599999367,40.87833500008463],[-96.60526399973264,40.88826099971814],[-96.60374999981404,40.89092599992636],[-96.6053669996648,40.89712699979552],[-96.66651500035626,40.896143999691205],[-96.68198299960535,40.886521999813496],[-96.68198299960535,40.85700500029507],[-96.70086600010256,40.85739500010579],[-96.70109500043144,40.87071499980432],[-96.7138920002187,40.863734000169714],[-96.7208979997471,40.85790799977322]]]}}]}