{"type":"FeatureCollection","features":[{"type":"Feature","properties":{"GEOID":"49","NAME":"Utah","STATE":"49"},"geometry":{"type":"Polygon","coordinates":[[[-111.04671399958423,42.00170199996529],[-112.1538480003036,41.99722600026852],[-112.17314799965403,42.00151499997327],[-112.7056840001114,42.00015099970423],[-113.24978100027177,41.995968999845786],[-113.87334899995753,41.988181999870925],[-114.04147700042382,41.993872999699974],[-114.0394610003649,41.71887400001755],[-114.04287400016656,40.79507099999265],[-114.04609899964727,40.401848000238004],[-114.05052099975248,38.49611699984123],[-114.04932499985118,38.266059999840394],[-114.05049999983608,37.95334100018089],[-114.04961299973128,37.82354099970852],[-114.04830200020227,37.809424000194824],[-114.05165100042986,37.75165000000167],[-114.05286700042261,37.5882699999227],[-114.0516260003155,37.30390500008679],[-114.05254100000937,37.11288099970166],[-114.05005200012243,37.00019099985032],[-111.1505760000085,37.000949999809755],[-110.62569100023332,37.0037249997718],[-110.49029900021071,37.00362799979258],[-110.46973299974047,36.99765700001516],[-109.04517199995568,36.9989769999816],[-109.04563999976084,37.35972300017304],[-109.04157199965796,37.562138000329526],[-109.04257199974066,38.15701599979706],[-109.04283500040471,38.16626799973214],[-109.060204000085,38.27823799969793],[-109.05982400014341,38.71474599978691],[-109.05402200001389,38.87716100000002],[-109.05116599970583,39.14260300004778],[-109.05124500024685,40.441598999993865],[-109.04776700014786,40.60987900019516],[-109.05002599988103,41.00069099983698],[-109.23250500023617,41.002106999768735],[-109.54369700042534,40.998396000051514],[-110.08696400038232,40.99712799978271],[-110.27411199981658,40.994817000092304],[-111.04681499986657,40.99787500010102],[-111.04671399958423,42.00170199996529]]]}}]}