{"type":"FeatureCollection","features":[{"type":"Feature","properties":{"GEOID":"04","NAME":"Arizona","STATE":"04"},"geometry":{"type":"Polygon","coordinates":[[[-110.49029900021071,37.00362799979258],[-111.1505760000085,37.000949999809755],[-114.05061600018703,37.00016699983864],[-114.04993499994656,36.70952100010287],[-114.04284300020443,36.44817500030192],[-114.04405099980129,36.317627999780825],[-114.04555899987211,36.28883699971788],[-114.04394399967116,36.19335000002779],[-114.05866199998111,36.18783499981812],[-114.0667980001869,36.17908700007748],[-114.07883199971789,36.15743400029922],[-114.08123399956624,36.15020799982534],[-114.0917010003735,36.13730300027746],[-114.09699399979168,36.12082299973032],[-114.10838100031573,36.11915400033712],[-114.1184969996971,36.11389999973545],[-114.12086500010854,36.1108499996413],[-114.12103300033806,36.10388499986965],[-114.115207999744,36.09987800002824],[-114.11199800033191,36.09491000011726],[-114.11964800029087,36.08582200026946],[-114.12401900034244,36.075563000078226],[-114.13338900008434,36.06166499978653],[-114.13620600003436,36.053231999794185],[-114.13484100007868,36.04387300033745],[-114.13711200040572,36.03849099975594],[-114.14466600010522,36.03427200014877],[-114.14590700021236,36.027229000249115],[-114.15138999960134,36.02313299995271],[-114.16440200037206,36.02685199965127],[-114.17468299960986,36.0266699998192],[-114.19122100016018,36.02001899988761],[-114.21193200039538,36.01483400009408],[-114.22479799977963,36.013699000186044],[-114.22801499976269,36.01473100008531],[-114.23344299979841,36.01283500000088],[-114.24386500039985,36.015266000223654],[-114.26437999991813,36.02791099968178],[-114.26858600011329,36.03503399987665],[-114.2708619995649,36.045522999746055],[-114.27963700017835,36.04610300032177],[-114.28799199976892,36.04906999985249],[-114.2985929995722,36.05726299985482],[-114.30862400036139,36.05697599986374],[-114.31359100026462,36.05904800033639],[-114.3143279996833,36.0620159998606],[-114.3124199995794,36.066117000357764],[-114.30438399983106,36.074018999927254],[-114.30693899984024,36.0824870000549],[-114.32086600030487,36.09646300010521],[-114.32581399994156,36.10393300022608],[-114.33463200021271,36.10678399968301],[-114.34509999994658,36.11855600002103],[-114.35896799996166,36.12779499965801],[-114.37018100040844,36.14262399993292],[-114.37527800000804,36.143592000139876],[-114.38147900034573,36.14134900003755],[-114.40562400029897,36.14698300024855],[-114.41525299960864,36.14512299982767],[-114.42311400035312,36.13735000007801],[-114.44504200040598,36.12534600011315],[-114.45133099970889,36.12983100022086],[-114.45648699975803,36.138031999679825],[-114.46260000023217,36.139643999971604],[-114.46867400034823,36.138889000187795],[-114.48382699995308,36.129719999813744],[-114.49884900003664,36.12661200014009],[-114.50471499974027,36.12718799978345],[-114.50846700037397,36.1299130001136],[-114.50920999964042,36.133247000226724],[-114.50514999993345,36.1380780000608],[-114.5003389996658,36.14069999968579],[-114.50023599973363,36.143225999722844],[-114.50810400015081,36.14971300009079],[-114.51121800020174,36.150576000129625],[-114.53109099983762,36.147644000239964],[-114.53923299989115,36.15176400017564],[-114.54874200044853,36.15069699987616],[-114.55616200025374,36.15247000016332],[-114.56117299963958,36.150920999753346],[-114.57108999972766,36.15109899974367],[-114.58070700024005,36.1459869999253],[-114.59647400013822,36.14153700025774],[-114.60928799964391,36.13222900006771],[-114.6154549996464,36.129652999858045],[-114.62060499984779,36.13175899987038],[-114.62707899999694,36.14076100014526],[-114.63047400025525,36.142218000081236],[-114.63580900040452,36.13617000013325],[-114.64012500020452,36.13512600024638],[-114.6555120001611,36.12618699991803],[-114.66434299995274,36.11630000001182],[-114.67186700041329,36.115963999729885],[-114.68184700025057,36.10919200030444],[-114.69365499982577,36.112482000100854],[-114.7037369997703,36.108348000359975],[-114.73485700018811,36.10442600032962],[-114.74891299962586,36.09518299968458],[-114.75450800006612,36.08617099997761],[-114.74889099988454,36.07498099995154],[-114.74354200038988,36.0710370002629],[-114.74006000009291,36.0624370003626],[-114.73528499981028,36.05664800025217],[-114.73570099973689,36.053393000173074],[-114.74247899965967,36.04569699978638],[-114.74126199984198,36.03804399964776],[-114.73341699988936,36.0379130002794],[-114.72209600038587,36.028951999879226],[-114.72887400030862,36.02138699965489],[-114.73855500039515,36.01522300006293],[-114.74300500008945,36.00844999989724],[-114.73931799975307,35.99180400014743],[-114.74363799975102,35.98578499992761],[-114.74053600029397,35.97554500006092],[-114.72866599989617,35.96175699967003],[-114.72976200023835,35.95989500025546],[-114.71331199955158,35.93384399979332],[-114.71341299983392,35.93189999968326],[-114.70760300020679,35.92795000028146],[-114.70739800016737,35.918057000215384],[-114.70918700044558,35.91682700009315],[-114.70811200001982,35.90993299978652],[-114.70571400036947,35.90931600030218],[-114.70025799984636,35.90175699996675],[-114.69492799971994,35.897594000363476],[-114.69606400024507,35.896463999996854],[-114.67897199967591,35.885509999737764],[-114.67200899980521,35.878018000048016],[-114.6632139999986,35.87369200030037],[-114.66163599960757,35.871232999750745],[-114.66967999975184,35.86503600016163],[-114.687798000343,35.860727999886855],[-114.69145600036703,35.858661000192185],[-114.69437000040143,35.854463000098335],[-114.70190400000945,35.85322300012213],[-114.70585599976137,35.850508000345044],[-114.7062879995815,35.84621800016211],[-114.69527699969942,35.8310909998345],[-114.70366499980027,35.81461399995501],[-114.70932399981463,35.81004999990519],[-114.71202600013693,35.80552899973275],[-114.6993180000381,35.790479999703],[-114.70102699995039,35.76967999984003],[-114.69426699957094,35.75663299993846],[-114.6977260003017,35.75096599984524],[-114.69639999980576,35.74265299972407],[-114.69785900037108,35.73165700017854],[-114.70559700019359,35.708274000304655],[-114.70141600011281,35.70108400035608],[-114.68265700036247,35.688570999837594],[-114.68063100025779,35.684045999878975],[-114.68231699970552,35.67782500018715],[-114.69021400043499,35.66515899965715],[-114.68950700025526,35.65142899999577],[-114.67761500011615,35.64177400002574],[-114.66668200005185,35.623072999742256],[-114.6594610004383,35.61955199980374],[-114.65353399973701,35.60967199999097],[-114.65390000033318,35.598491000289336],[-114.65923799995721,35.58747700001496],[-114.67566699982928,35.58003300010464],[-114.66839299961393,35.57433100011637],[-114.6644330003644,35.568426000323676],[-114.66280499974465,35.564268000228275],[-114.66145700040573,35.54406200012115],[-114.65676999998666,35.534964000021354],[-114.65775300035092,35.53074099968811],[-114.66460099969558,35.521519000102124],[-114.66954000000972,35.52078999965675],[-114.67568500027093,35.51562999989211],[-114.67748000039693,35.51094799990501],[-114.67864199996302,35.49762800019905],[-114.67625699983313,35.49310300014167],[-114.67681500004997,35.48978700016939],[-114.67190699969795,35.4820870003636],[-114.67316399969862,35.4748140000432],[-114.66565100000702,35.4669110003465],[-114.66721699980415,35.46036999992319],[-114.66421699955602,35.45584500014456],[-114.66289599998126,35.446448999705474],[-114.6542950003434,35.436853999968704],[-114.65208000009284,35.43013399972315],[-114.62676500017756,35.4096439998946],[-114.62088699988007,35.39686699976254],[-114.6176980003844,35.380130999801615],[-114.61120599979355,35.370118999675284],[-114.60460699997094,35.35523899992858],[-114.59555299969823,35.32654699996372],[-114.59668199965236,35.29455700012195],[-114.58660399990582,35.26238599973244],[-114.58605300026001,35.24889099988138],[-114.58284200012467,35.23870299967282],[-114.58352300036515,35.23034800013771],[-114.58031200022985,35.220095000164534],[-114.5795349997299,35.20891100018818],[-114.57495799981399,35.20671400002208],[-114.57208399996257,35.20079400023595],[-114.56925799979174,35.18342400018934],[-114.56952899995338,35.16231699984324],[-114.57387900008858,35.145350999730134],[-114.57259699997356,35.13955700014484],[-114.57826299966065,35.128810000001394],[-114.58487699955188,35.12519400033527],[-114.59779399988804,35.121734999645916],[-114.61858600031411,35.12155700007158],[-114.62842700023417,35.11894299969341],[-114.63743200010309,35.112489000347146],[-114.64676400021014,35.10186799976946],[-114.64283099982646,35.09650299966913],[-114.62251700014963,35.08870300022019],[-114.61313200033914,35.08309699993614],[-114.60473599984236,35.07483000019739],[-114.60290800010439,35.0685879999082],[-114.60669400017498,35.058940999772055],[-114.6290270002838,35.042530999952255],[-114.63752400016457,35.0270529999579],[-114.63707100042807,35.010371000234805],[-114.63024400010148,34.99463999978727],[-114.62912900039103,34.98613199982633],[-114.63523699994401,34.96514900016618],[-114.63495300026189,34.95891800010212],[-114.62981099955815,34.94480999979762],[-114.6297529998318,34.93868399995768],[-114.63325299967212,34.924607999670265],[-114.63087699976309,34.907263000248975],[-114.63672499992333,34.8891070000245],[-114.63517599984463,34.87500300007463],[-114.63097899987034,34.86680500006225],[-114.62393900000671,34.85973800032415],[-114.60065299967086,34.847361000127655],[-114.58684199955721,34.835672000207055],[-114.57645199964111,34.815299999690914],[-114.57101000026002,34.79429399994109],[-114.5586529997905,34.773851999806055],[-114.55268199960658,34.76687100019022],[-114.52961499955383,34.75082199994299],[-114.51661899957496,34.73674499986073],[-114.49201699968718,34.72570199993473],[-114.48750800044165,34.71662599990958],[-114.4827790001898,34.714511000330255],[-114.47368200025939,34.713963999875915],[-114.47047699997185,34.71136799966876],[-114.46524599957964,34.69120200013724],[-114.45553600007912,34.67733500021061],[-114.45430500001774,34.671233999828836],[-114.45050600042667,34.666835999665196],[-114.45178500016864,34.663891000264435],[-114.45770199992589,34.659328000360304],[-114.45798499978311,34.65711299980356],[-114.4495490000017,34.65142299977064],[-114.44146499967447,34.642530000163184],[-114.44029399988753,34.638240000288285],[-114.44139799972731,34.63017099978531],[-114.43873899996103,34.62145500005755],[-114.42420200029936,34.610453000316596],[-114.42533799992619,34.600841999967],[-114.43680999994072,34.59607400014771],[-114.422382000059,34.58071099999928],[-114.40522799956554,34.56963699987259],[-114.38083800028821,34.52972400027739],[-114.37822300000455,34.5165210003569],[-114.37812400027036,34.507288000041214],[-114.3823580000546,34.49575799963086],[-114.38170100010358,34.4760400002075],[-114.38718699986559,34.462021000184514],[-114.38669899996896,34.457910999700864],[-114.37371899988358,34.446937999796674],[-114.3426150002576,34.45144199981558],[-114.33537200000443,34.450037999641516],[-114.33066899969181,34.445295000235724],[-114.32613000030906,34.43725100020631],[-114.3122510004233,34.43272599974484],[-114.30101600023522,34.426807000208825],[-114.29483599981393,34.42138899966145],[-114.29222599955317,34.41760599987562],[-114.29175100007532,34.41110399971708],[-114.28866299996366,34.4066230003178],[-114.28010800035653,34.40314700020705],[-114.26431700016894,34.40132900016965],[-114.25273899984919,34.39010000000764],[-114.23427499965162,34.376662000079435],[-114.22968600004015,34.368907999761646],[-114.22610699965881,34.36591600032316],[-114.21377400037704,34.36245999995397],[-114.19948200003944,34.36137299999831],[-114.1769089997311,34.34930599987107],[-114.16880699986051,34.33951299988784],[-114.15720599997455,34.31786200012285],[-114.13828200036775,34.30322999991018],[-114.13953400034552,34.29584399963547],[-114.13605000039874,34.28083300030116],[-114.13667100036476,34.27437699975114],[-114.1312109996437,34.26272999987095],[-114.13148900037636,34.260386999670686],[-114.13545000034912,34.257886000144154],[-114.14477900008313,34.259623000151834],[-114.15334600028412,34.25828900000467],[-114.16464800041935,34.25969899986284],[-114.16386699972145,34.25334900033661],[-114.1661239998048,34.250014999897516],[-114.17459700029447,34.24730299998749],[-114.17805000027911,34.239969000009715],[-114.1908760003787,34.230857999729004],[-114.21176099979284,34.21153899988895],[-114.22519399961475,34.20364199973486],[-114.22494099989474,34.19389599972306],[-114.22703399994657,34.18886599989514],[-114.22971500035247,34.18692800026988],[-114.24071199999085,34.18323200009307],[-114.24442100006856,34.17940300036064],[-114.25703399973278,34.172836999888446],[-114.26845999971658,34.170177000070346],[-114.27526699995168,34.17214899979662],[-114.28729399981002,34.1705290001584],[-114.29280600040961,34.1667249999847],[-114.31220600021747,34.14477600002474],[-114.3207769997181,34.13863499984503],[-114.3361119997961,34.134033999825256],[-114.3480509997909,34.13445700036413],[-114.35303000028803,34.13311999982168],[-114.36040200041263,34.12357700014115],[-114.36651699963829,34.11857699989823],[-114.37922300008728,34.115989999929525],[-114.39056500040549,34.11008400035297],[-114.40591600037702,34.111468000347635],[-114.41590799990985,34.107636000180015],[-114.4341810003117,34.08737899974361],[-114.43933999983558,34.05789299983726],[-114.43494899969251,34.037784000362684],[-114.43826600013301,34.02260899992671],[-114.44382100039033,34.01617600010656],[-114.4502059999527,34.01257399990919],[-114.45480700015808,34.01096800030665],[-114.46333599982592,34.01225899982252],[-114.46586700044398,34.01098699981833],[-114.46731000021747,34.00518999983074],[-114.45918400005745,34.00001599967461],[-114.45802800033914,33.997158000341166],[-114.45925799967728,33.994711000269454],[-114.4679320000084,33.99287700028749],[-114.47113800012083,33.98804000016956],[-114.48145500024197,33.98126099982951],[-114.48478400037807,33.975519000347724],[-114.49988299955622,33.96178900004412],[-114.50956799984068,33.95726400028471],[-114.51586000041499,33.95810599979123],[-114.52200200030312,33.95562299985737],[-114.52867999976846,33.947817000251604],[-114.53547799978273,33.93465099998646],[-114.53495100042635,33.925700000347014],[-114.52536099967811,33.92227199971466],[-114.51843399979244,33.917518000175335],[-114.5115110001047,33.91109199989191],[-114.5079200000278,33.90380700034147],[-114.50870800039839,33.900639999697134],[-114.5137149995863,33.89795899963143],[-114.52587200003927,33.90100800001006],[-114.52276800003409,33.892583000052774],[-114.50433999982152,33.876881999907006],[-114.50301699969864,33.867998000008015],[-114.50563799983006,33.86427599982801],[-114.51467299983621,33.858638000135045],[-114.52429199999844,33.86013299995733],[-114.52988300024076,33.85756299975502],[-114.5295970000105,33.84806299974534],[-114.51997000035065,33.82538100035309],[-114.52271399960742,33.81897899994251],[-114.5280499995816,33.814962999961054],[-114.51894199978054,33.797301999707216],[-114.51673400010098,33.78834500026182],[-114.50486299987827,33.76046500018878],[-114.50448299993667,33.75099799963117],[-114.51234799998078,33.73421399981813],[-114.50417599979001,33.728054999944014],[-114.50078800010267,33.722203999793145],[-114.49656500018911,33.71915499993195],[-114.49419699977766,33.707922000262414],[-114.49648900002111,33.696901000083024],[-114.5239589999125,33.68587900018128],[-114.53034799967286,33.679244999683455],[-114.53152299965774,33.67510800014028],[-114.53212299970735,33.669702000132666],[-114.53026700038032,33.666820999769676],[-114.52643899957863,33.66388000026603],[-114.51711200039276,33.662877000275344],[-114.51405699989307,33.66017899996544],[-114.51455900003339,33.65801399997229],[-114.51833699970805,33.65592699990556],[-114.5305829998495,33.65446099997739],[-114.5331939999352,33.65166000020296],[-114.53321499985157,33.64844299966037],[-114.5253940001884,33.64066900015359],[-114.52380199955367,33.634700000009296],[-114.52636999998165,33.63025899974952],[-114.5310339999362,33.62821299980213],[-114.53121499968617,33.62391300027507],[-114.52184499994428,33.61254400003098],[-114.52918600010675,33.606650000186164],[-114.54061700011343,33.59141200023204],[-114.54029999992102,33.58061500011409],[-114.53678400018717,33.570958999794925],[-114.53161300006943,33.56170199983364],[-114.52822000035924,33.55931799982781],[-114.52421500000554,33.5530679997355],[-114.55889800001287,33.53181899978139],[-114.5609629995773,33.51673899990548],[-114.56953300015135,33.50921899983938],[-114.58046799986546,33.506465000000986],[-114.5923690002254,33.49867500016034],[-114.60169399976147,33.48139599982555],[-114.61247200001506,33.47076800016519],[-114.62291800000762,33.45656099981376],[-114.62228299979787,33.44755800001163],[-114.6296399998539,33.428136999650036],[-114.64330200000465,33.41674599964192],[-114.64954000015226,33.413633000216834],[-114.65673499982655,33.41281300025645],[-114.6736909999533,33.41915700025952],[-114.68794999978064,33.417933999699045],[-114.69565800036423,33.4151279996741],[-114.69770799986004,33.41094199963003],[-114.70178799965849,33.408376999804474],[-114.7200650002583,33.40789099993785],[-114.7252820004068,33.40504800019626],[-114.72424999963874,33.40042000018151],[-114.7073089995806,33.382540000007964],[-114.70734799993866,33.37662699978815],[-114.6990560000973,33.3611479996339],[-114.6980350000982,33.35244200036962],[-114.70093800026193,33.337014000141494],[-114.70787000017046,33.32331600024141],[-114.72362299982495,33.312109000176626],[-114.72990399963022,33.30574499978524],[-114.73122299955519,33.302433000220375],[-114.72167000041352,33.28698200006509],[-114.69444900004414,33.27978500030904],[-114.68050700040921,33.27357600017514],[-114.67703199978496,33.270169000230624],[-114.67208800034625,33.25849900017514],[-114.67449100001947,33.255597000014276],[-114.68954099969213,33.24642800022418],[-114.67362599965597,33.22312099980958],[-114.67874900009316,33.203448000124006],[-114.67535899985769,33.185488000051045],[-114.68088999982555,33.16907400015203],[-114.67994499999443,33.15905900017594],[-114.6874049999826,33.14198300031675],[-114.69691399964164,33.131119000202254],[-114.703682000417,33.11376800007516],[-114.70789600010976,33.097430999680995],[-114.70648799959805,33.088160000058586],[-114.68902000018353,33.08403500008699],[-114.68911999974264,33.076120999705886],[-114.68699099970581,33.07096800007293],[-114.67429500020089,33.057169000250255],[-114.67510299976465,33.04752999992626],[-114.67365900016625,33.041895999756754],[-114.67080299985818,33.03798300017147],[-114.66231699984803,33.03267000019643],[-114.6578269999708,33.03382399968945],[-114.64900100020202,33.046761999862085],[-114.64597900021258,33.04890199997234],[-114.63955199991909,33.04529000003269],[-114.62829400016477,33.03105000031002],[-114.61878799998044,33.02720200012409],[-114.6010140002442,33.025410000079745],[-114.58977800023119,33.0262279999847],[-114.5847650002972,33.028230000121965],[-114.57828699995008,33.03537500035148],[-114.57165299996734,33.03662399986211],[-114.523578000146,33.03096000027991],[-114.5113429998752,33.02345499974607],[-114.50636199972824,33.01740300031846],[-114.49979700024082,33.003904999980726],[-114.49293800012717,32.97178099969671],[-114.48862499980191,32.96994600031015],[-114.47538899962352,32.975156999899205],[-114.47051100030704,32.9738580001708],[-114.46837899989714,32.97074499980908],[-114.46727400023245,32.96017200021503],[-114.46853600025597,32.95392200036917],[-114.48092499961425,32.93627600026564],[-114.4766399997764,32.92362800019358],[-114.4644480000616,32.91312799974017],[-114.46292900012014,32.90794399981124],[-114.46897099955083,32.84515500004095],[-114.49411599958681,32.82328699964225],[-114.51032699989896,32.81648799978645],[-114.52203099971712,32.80167499980799],[-114.52963299999551,32.79547699979853],[-114.53166900014592,32.79118500019681],[-114.53243200040217,32.77692199997799],[-114.528442999942,32.76727600011371],[-114.52685600022848,32.757094000045264],[-114.53909200032416,32.756949000335744],[-114.53922399967031,32.749812000336306],[-114.5644470004224,32.74955399977463],[-114.56450799962347,32.74227400021207],[-114.58173599973676,32.74232000013722],[-114.58178400031566,32.73494600036928],[-114.61511200041305,32.734515000088265],[-114.61566999973155,32.72845399981903],[-114.61739500043568,32.72825699971399],[-114.68823000016313,32.73752999970945],[-114.69924699989299,32.74509800024583],[-114.70294000007716,32.74479299988741],[-114.70907399956937,32.7354560001678],[-114.71452199969656,32.73038999984687],[-114.7221070002565,32.71367199968321],[-114.72975499966735,32.70470799968088],[-114.73178599979487,32.695442000075424],[-114.74449700026673,32.67846699962637],[-114.74859899980649,32.66303899966003],[-114.76454800017785,32.6498319998924],[-114.76378400009668,32.64340300029391],[-114.78058100021477,32.632144999859015],[-114.78272500032024,32.624336000191306],[-114.79171500012052,32.62197000011518],[-114.79975099986885,32.62529200028166],[-114.80668500032556,32.622076000024116],[-114.80844000026859,32.619426000206204],[-114.80943699997825,32.61598600033564],[-114.80782599997525,32.603221000266586],[-114.80642800040762,32.60109900009553],[-114.80175299968407,32.59936200008434],[-114.7994019998894,32.59261800020343],[-114.8039510002162,32.58199300004258],[-114.80135600002407,32.57893999963295],[-114.80155199984264,32.57640599991752],[-114.80356500042684,32.57352199997731],[-114.81291599990215,32.56884600005763],[-114.81393400042651,32.56221300011262],[-114.81145700023515,32.55911700033722],[-114.8064919999817,32.559244999639425],[-114.7972829998983,32.56479899998434],[-114.79280800008964,32.5695240001819],[-114.79140799997384,32.55646099973693],[-114.79392799982296,32.55198500016182],[-114.80567799967183,32.54633200019863],[-114.80457100035733,32.54174300019663],[-114.80180200008789,32.53974300028448],[-114.80198200001296,32.53632100022114],[-114.8131660001474,32.5245029998272],[-114.81046100035039,32.52211100033011],[-114.81021799977782,32.51830700020374],[-114.8032370003638,32.51645799986918],[-114.80199500043175,32.51362399982768],[-114.80333000025018,32.51086100028047],[-114.80748000036886,32.508890999925526],[-114.8161570001747,32.50829100028223],[-114.81238600017274,32.50033999988173],[-114.81369199967887,32.49406900027784],[-114.08691900041819,32.273547000310266],[-113.6547759996086,32.139648999912595],[-113.1553260002976,31.9825069997232],[-112.71857799998304,31.84979299977105],[-112.23804800008087,31.701377999800517],[-111.65706400043157,31.518656999964115],[-111.07498000024214,31.33234199999572],[-110.15649799972817,31.33412500023079],[-109.26686199983028,31.33392899980525],[-109.05003299955374,31.332348000358696],[-109.04536299975139,34.785406000077266],[-109.0469539996629,35.39342699992967],[-109.04517199995568,36.9989769999816],[-110.46973299974047,36.99765700001516],[-110.49029900021071,37.00362799979258]]]}}]}