{"type":"FeatureCollection","features":[{"type":"Feature","properties":{"GEOID":"08","NAME":"Colorado","STATE":"08"},"geometry":{"type":"Polygon","coordinates":[[[-105.1550420001321,36.995261999802814],[-105.02922599971569,36.992726999829294],[-104.62455500024394,36.994375000066555],[-104.36888100014585,36.99344500024849],[-103.62550699968732,36.99862900032975],[-103.0023289999889,37.000149999736045],[-102.98697600036753,36.99852400012824],[-102.81507400042453,36.999773999914446],[-102.75214099965282,36.998341000229836],[-102.69814200040153,36.99514900015907],[-102.04208900034224,36.993015999850805],[-102.04160499974526,37.68924199993616],[-102.04470799992554,38.04125699988134],[-102.04535099963286,38.85689699968866],[-102.05166599977335,39.84768900028867],[-102.05171699982698,41.0023589997564],[-104.50571199974398,41.001694000191144],[-104.67599900038435,41.000957000313],[-104.85527299955365,40.9980480002953],[-105.72940600004237,40.99682200018161],[-106.19519199969531,40.9975780002449],[-106.45571499969587,41.00211800011112],[-107.00060600007463,41.00344399977076],[-108.04653900039908,41.00206399970686],[-108.52602900003558,40.999591999817504],[-109.05002599988103,41.00069099983698],[-109.04776700014786,40.60987900019516],[-109.05124500024685,40.441598999993865],[-109.05116599970583,39.14260300004778],[-109.05402200001389,38.87716100000002],[-109.05982400014341,38.71474599978691],[-109.060204000085,38.27823799969793],[-109.04283500040471,38.16626799973214],[-109.04257199974066,38.15701599979706],[-109.04157199965796,37.562138000329526],[-109.04563999976084,37.35972300017304],[-109.04517199995568,36.9989769999816],[-106.87723199968951,37.00010000021425],[-106.86982000028024,36.992496999968346],[-106.83197200016835,36.992449000103086],[-105.70785200008332,36.995918999681464],[-105.1550420001321,36.995261999802814]]]}}]}