{"type":"FeatureCollection","features":[{"type":"Feature","properties":{"GEOID":"21","NAME":"Kentucky","STATE":"21"},"geometry":{"type":"MultiPolygon","coordinates":[[[[-82.59225600011055,37.18303900014311],[-82.55067700017966,37.20454199989364],[-82.54916999993375,37.20281300024927],[-82.54600400000429,37.20307599990477],[-82.54138199988253,37.20661000013604],[-82.53289800042052,37.206663999675875],[-82.53094500011079,37.20839299981343],[-82.53209099978335,37.21219799993689],[-82.52868300000455,37.21388200032604],[-82.52470399959013,37.21498100001366],[-82.52090800037212,37.212173000318764],[-82.50989499994188,37.21899000002848],[-82.50838799969597,37.222657999933915],[-82.49875500018835,37.227029000216135],[-82.49641000024144,37.22757499980186],[-82.4951599999135,37.22540399966997],[-82.49140999982792,37.22507100019551],[-82.48748200036545,37.22768200035392],[-82.4865500000548,37.23118800015854],[-82.47270100030629,37.23567799974587],[-82.46501399963908,37.23574900014571],[-82.46270100037755,37.238506000220966],[-82.45740300003818,37.23829099983856],[-82.44957900000196,37.243602000144634],[-82.44342299987011,37.243365999675504],[-82.43969399970095,37.247123000131076],[-82.43049300001346,37.24685899988052],[-82.41186999980724,37.25346300024822],[-82.39847399979526,37.255530000284516],[-82.3835439997732,37.260141999994524],[-82.37661900043565,37.25994300008618],[-82.34899999968303,37.26797499971382],[-82.34903499984313,37.27194500029521],[-82.34212899987382,37.27404999974046],[-82.34384100015914,37.280738999661146],[-82.34045699977148,37.281225000232666],[-82.33698700006839,37.279610000064544],[-82.33610400016155,37.281559000285476],[-82.32472500003344,37.283041999999156],[-82.31955999976346,37.28703199977621],[-82.31575000030175,37.29502899964633],[-81.96798399971976,37.538054000322035],[-81.96487200021697,37.54293700017519],[-81.96964699960128,37.54658099995927],[-81.9732390004014,37.546577000038404],[-81.98124400018763,37.542245000350725],[-81.9891059998587,37.54277999971919],[-81.99414899992992,37.537744999665634],[-81.99671399998486,37.538616000063904],[-81.99645899971672,37.541753999845774],[-81.99821299983483,37.543317000282414],[-82.00058399972102,37.54220899967354],[-82.00595200038059,37.53457300018249],[-82.01116899963077,37.53288099986063],[-82.01600599983769,37.53395399993455],[-82.01854599977825,37.540358000254464],[-82.0296379998512,37.53784899988663],[-82.0370169996485,37.54245899970407],[-82.0392410001199,37.54779800010466],[-82.04232099983565,37.54822499983329],[-82.04505099974702,37.54567500029247],[-82.04199799979546,37.53419299967712],[-82.04345900001061,37.53003100033496],[-82.0461549995868,37.52793999996349],[-82.04871700016702,37.529274999683466],[-82.04852100034843,37.53369499992996],[-82.05029899985767,37.535436000264426],[-82.06483499969445,37.53719599972553],[-82.0639099999548,37.54312499970556],[-82.07517899957976,37.555853000230556],[-82.08903200042455,37.55610800005422],[-82.10402600002071,37.552872000160214],[-82.10535499999139,37.554261999741286],[-82.10195999973307,37.55842000031647],[-82.10480799964522,37.56019099972058],[-82.11799699996796,37.558987000124425],[-82.12341400013301,37.551529999731365],[-82.13208500009107,37.55236599989434],[-82.13411100019574,37.55362700027233],[-82.13532399981548,37.55735099989363],[-82.13352600021474,37.56034499972287],[-82.13442400019021,37.56292800002686],[-82.14438399993597,37.566311000032144],[-82.14491399966539,37.567654999960595],[-82.14417800007163,37.56996799971803],[-82.14176399962943,37.57108599997751],[-82.12912099982796,37.57213800030533],[-82.12624000030384,37.57373800008394],[-82.12442199971332,37.57735799998225],[-82.12733999994568,37.58654499976845],[-82.13128800039794,37.59270700007992],[-82.13988499983786,37.59496700025217],[-82.14838199971864,37.59072000024981],[-82.15685100001033,37.59272299982097],[-82.15668299978087,37.60896899979851],[-82.16581499987137,37.60769299967252],[-82.1687749999365,37.60907999991336],[-82.16961400036072,37.61302700032244],[-82.16424599970118,37.62029000021313],[-82.16897499995305,37.621906999729134],[-82.17672600019436,37.61815200012884],[-82.18119799962997,37.62151000033543],[-82.18271599974653,37.62436999988218],[-82.18169100044778,37.62714700008131],[-82.17241200004418,37.63263399992357],[-82.17763599986537,37.64084899981281],[-82.17507500000839,37.64783199968656],[-82.18580600040633,37.648595000062535],[-82.19111600044126,37.64458599998378],[-82.18669900035891,37.635141999995774],[-82.18592900042997,37.62891000005005],[-82.18722800026342,37.626984000167994],[-82.19225500044112,37.62565399975272],[-82.20089000041418,37.62799000012593],[-82.20485399986168,37.62523499992996],[-82.21449899996317,37.62540000009962],[-82.21595299960731,37.62620900007242],[-82.21459500022264,37.62743500029828],[-82.22050299975905,37.634768999714396],[-82.21684800010804,37.64159799972474],[-82.22415499993534,37.644713000206714],[-82.22615599992565,37.65291299983837],[-82.23344199983654,37.65568599967728],[-82.23606600034103,37.65963400006753],[-82.2408940003271,37.66153099967873],[-82.25190100001123,37.65684700013746],[-82.25806800001374,37.656883000148206],[-82.27131199968974,37.66361700005767],[-82.28248599977847,37.67592500028076],[-82.28450100001248,37.675235999986576],[-82.28811899985358,37.66810799967733],[-82.2945610002157,37.670432999852636],[-82.29503200039387,37.678053000309404],[-82.30431400027221,37.676092999901336],[-82.30406800022492,37.67830699981105],[-82.29592399962324,37.686181999714464],[-82.3029400000957,37.69361100014478],[-82.30195799955634,37.69680400000753],[-82.2966890004276,37.699859000209706],[-82.29637499970994,37.70218499969892],[-82.30034499990353,37.705815999731904],[-82.30767799967009,37.70800599999899],[-82.31079699974389,37.71325500015574],[-82.3114229997328,37.71847399970243],[-82.31610500012899,37.72108100004432],[-82.31885400030694,37.73369500022286],[-82.32734399961672,37.736409999869636],[-82.33417400031635,37.7427709997678],[-82.32774500037303,37.749216000354366],[-82.32128799994231,37.75156300006918],[-82.3196469998021,37.758290000234624],[-82.31098199969182,37.76124000024074],[-82.31154499993153,37.76457900029905],[-82.31682499982921,37.76545500029612],[-82.32852000032484,37.76211799986012],[-82.33338000009796,37.764413999936075],[-82.33360500022886,37.76715000020657],[-82.32305799995395,37.77267800004322],[-82.3238859996092,37.774995000007735],[-82.33746499991928,37.774913999755775],[-82.33954799992539,37.77709600024016],[-82.34008600005072,37.78562500008821],[-82.3490259996223,37.78693300022109],[-82.35505299988272,37.79335399999973],[-82.36388899969721,37.79500200029646],[-82.36903700024872,37.80125899977652],[-82.37664100017695,37.802206999661465],[-82.3799829998335,37.811188000346476],[-82.38672499977129,37.81822499990734],[-82.39662199976786,37.80893200020677],[-82.4013219997074,37.80951200017593],[-82.40220299996444,37.81293700034766],[-82.39822699992305,37.82137800014832],[-82.39934599983144,37.829523000106185],[-82.4086570000221,37.83606900012885],[-82.4129369998371,37.84480099964533],[-82.42049300008472,37.84643299979447],[-82.41470900039688,37.85596999979562],[-82.4246230001119,37.86144900021629],[-82.42268099967279,37.86385900005196],[-82.40970800015843,37.86554200015805],[-82.40751299999935,37.86729699987028],[-82.41755999978375,37.870278999726374],[-82.41939199971968,37.874614000216134],[-82.41992900002012,37.88486999979136],[-82.43203200004642,37.88987600007151],[-82.43756499966409,37.89978599995293],[-82.44733100013944,37.90385699981038],[-82.45189600035977,37.90855100032196],[-82.4599940000324,37.90953599981834],[-82.46299099990746,37.91481999967379],[-82.46796500038172,37.913927000157216],[-82.46838200013323,37.903206999815886],[-82.47138999987895,37.89908599965867],[-82.47440699984551,37.89995499983944],[-82.47643299995019,37.90272500021741],[-82.47424000033925,37.90736499977721],[-82.47557400033278,37.911842999754896],[-82.47928900025826,37.91470099974917],[-82.4883460000057,37.91772399966829],[-82.48771400016903,37.91999200003513],[-82.480762000169,37.92464599976288],[-82.48065699968869,37.926168999848045],[-82.49594099971308,37.92695399967784],[-82.50219800012727,37.933051999823434],[-82.49995399956438,37.936820999986594],[-82.49134000040604,37.93574300026994],[-82.48927699959312,37.93821699983847],[-82.49696900028319,37.942019999648224],[-82.49757099998264,37.945951999990896],[-82.48555900019292,37.94580600001024],[-82.47177499984343,37.95873899981253],[-82.47221699970929,37.96051700028229],[-82.48445899965277,37.963577999823094],[-82.4844310000637,37.970921000162264],[-82.48122400012635,37.973072000112815],[-82.46885099976329,37.973229999867236],[-82.4645569997046,37.97744099971706],[-82.46456599992543,37.983876000125235],[-82.47218999994512,37.986710000172216],[-82.48359400018761,37.98384400035372],[-82.4860720002039,37.98986599966966],[-82.4860579999602,37.995646999913006],[-82.48865499980221,37.998911999999386],[-82.49985999985304,37.99889600020895],[-82.50842399968099,38.00150699989366],[-82.51363599980661,37.99909499992024],[-82.51919299971375,38.00113100021149],[-82.51554700028358,38.00660699978788],[-82.51975500012855,38.00837500034749],[-82.52506900036143,38.017503000008894],[-82.52631799996615,38.026970999655234],[-82.53192099990405,38.02929200022117],[-82.5387180000934,38.03740000009083],[-82.53709899969448,38.04465099988971],[-82.54415500034992,38.05259199970928],[-82.54484300026309,38.059075999836764],[-82.54949999964663,38.063233999708665],[-82.54984899962608,38.06945200033846],[-82.55963199981986,38.072781000310776],[-82.56598899979315,38.08099699986566],[-82.57385300001235,38.0819190002587],[-82.58335699964853,38.09003200016795],[-82.58554599995983,38.09497299988624],[-82.58534199974534,38.10663399984808],[-82.58700600035009,38.108663999884484],[-82.59241199974615,38.110415999650215],[-82.59869099990165,38.11669499980818],[-82.60616099993555,38.12078499984205],[-82.61922800005955,38.12053999984253],[-82.62090199981172,38.12278700024938],[-82.6218349999473,38.13329100024905],[-82.63657300034872,38.13802000009351],[-82.63862799986741,38.155914999855625],[-82.64453899977686,38.165248999980236],[-82.64295200006333,38.1694459997628],[-82.63885499964815,38.17114899966981],[-82.61936500032691,38.16887699983282],[-82.6116009996668,38.17133899988268],[-82.59913699996548,38.19720499991335],[-82.59829500006651,38.21736100003376],[-82.60861499966241,38.22349899971422],[-82.61221599978505,38.23629699975952],[-82.60812799959069,38.244829999705985],[-82.60462500027563,38.247662000346864],[-82.59450899999595,38.24550299966718],[-82.58331700036388,38.246793000022976],[-82.57451800035929,38.264505000066166],[-82.57409800023473,38.27463500032269],[-82.5787859995804,38.28194400031967],[-82.57950100015607,38.29098699977905],[-82.58303500033158,38.29680699999028],[-82.57900499986354,38.30477899981512],[-82.57192300016715,38.31334700026187],[-82.57175599976256,38.31719499990262],[-82.57539500041835,38.32297999972787],[-82.57672000019109,38.328515000050245],[-82.58458799970994,38.33373300015764],[-82.58916100032619,38.34026000019839],[-82.59550700042882,38.3424890001566],[-82.59812099998925,38.34593300029432],[-82.59759399973457,38.364912000020915],[-82.5927380001594,38.37680699978903],[-82.59945800035585,38.390781000210374],[-82.59873299973445,38.39376199987973],[-82.5945540002018,38.39826899977218],[-82.59704800011161,38.411215000113486],[-82.59597199986094,38.417879999976066],[-82.59340900035413,38.42188000016797],[-82.60054299992906,38.43746000015465],[-82.60364600010932,38.45922299975889],[-82.61260400012257,38.47355600013587],[-82.63922200006925,38.48534400024972],[-82.65769399976442,38.49742599983704],[-82.67608199979401,38.5161250002844],[-82.68941800042984,38.53618999995261],[-82.69828500020648,38.543770000003654],[-82.72790500005111,38.55887099984414],[-82.76671200023783,38.56060700028954],[-82.78150099979459,38.55923199983575],[-82.79587099995,38.5618099998867],[-82.82121400035268,38.57339300030434],[-82.84247200003573,38.5889099998251],[-82.84739299990822,38.59532799970394],[-82.85445500041143,38.6137690002865],[-82.85736900044584,38.63159999997409],[-82.85661299986228,38.64764599982768],[-82.86038300003933,38.66288199974273],[-82.86514999992603,38.672234000158575],[-82.87576199959997,38.684168999915016],[-82.87749300015186,38.68946500022369],[-82.86987300033013,38.7277740002258],[-82.87300099972646,38.74315000016408],[-82.87954000017292,38.751297999809054],[-82.8853599998458,38.75278800012228],[-82.88479300030646,38.754150000146296],[-82.88631100042302,38.75525400005618],[-82.8946819999071,38.75653200019076],[-82.9209190000873,38.75091699972174],[-82.9394719999733,38.744742000015094],[-82.97148899964337,38.72719999979526],[-82.9707789999889,38.72853400000056],[-82.97737100013885,38.726191999810325],[-83.00785100032408,38.73000500001791],[-83.02770999971625,38.72715599968669],[-83.03321100044519,38.723384999659956],[-83.0427450002186,38.70762000019888],[-83.05249099970413,38.6963410001083],[-83.06218000018656,38.68966900002736],[-83.08456900037187,38.68080100032367],[-83.10326199999999,38.67699800021565],[-83.11238400004476,38.67162300010311],[-83.12206699978108,38.66009799974556],[-83.1266930001008,38.644393000300184],[-83.1347539999635,38.63201300025846],[-83.15097899962106,38.61997999986643],[-83.15796400013139,38.618487999967094],[-83.17877400010076,38.6191879997805],[-83.20436400037565,38.616774999691735],[-83.21414500002126,38.61921599993975],[-83.23088699988779,38.62710399989414],[-83.24566399974897,38.628564000093924],[-83.25454099957135,38.62349699981013],[-83.26426299966575,38.62140099986406],[-83.26765499955101,38.61830500023001],[-83.26852599976229,38.61510900012647],[-83.28187599974352,38.603209000236006],[-83.28758900018458,38.59853700002176],[-83.2931810002518,38.59671399977152],[-83.30521899998078,38.59941100029294],[-83.31658700023826,38.60800400017107],[-83.319955999659,38.615268999660245],[-83.32215099981809,38.63008000030584],[-83.32774299988532,38.63783099979038],[-83.36277499987213,38.657219999722095],[-83.38485799973567,38.663111000084704],[-83.41981699992753,38.6671280001418],[-83.41748000037656,38.66773200012348],[-83.41855499990402,38.66811600032837],[-83.4453989998065,38.66999000009942],[-83.45707000001268,38.67396699975282],[-83.46771000017401,38.67534800024088],[-83.49363600000956,38.694518000308484],[-83.50870699959863,38.700796999911944],[-83.5208830003182,38.70306199979134],[-83.54522400009002,38.69992800033721],[-83.56920699966157,38.69294300019435],[-83.59268200014331,38.68855199966723],[-83.6018610000895,38.68398099981342],[-83.61151600023675,38.68465299967928],[-83.62552999984169,38.67887599970664],[-83.63206099989225,38.673903000065934],[-83.63621199983582,38.66792800014199],[-83.64159399984078,38.644067000076426],[-83.64784200003412,38.632404000187265],[-83.65562300041263,38.62831699967976],[-83.66839500008555,38.62645300004987],[-83.71360799975105,38.64176799967741],[-83.7208619998749,38.646673999856695],[-83.74825399994847,38.64927000029343],[-83.7631959996661,38.652241000310966],[-83.76911999999434,38.6550750001899],[-83.7723190004341,38.65848400021436],[-83.77573200023576,38.66671299983386],[-83.78446299956998,38.69672300011988],[-83.79207200041937,38.70230100003798],[-83.82188999973239,38.70953699965195],[-83.83675899965509,38.71771800022875],[-83.84155599967903,38.72391900028356],[-83.84484899983009,38.738022000135956],[-83.84889099999371,38.747476999682746],[-83.8583159999872,38.756325000311094],[-83.86940700023524,38.761300999917815],[-83.88752499992808,38.76577199995368],[-83.92566099992005,38.77120799999165],[-83.92865899962005,38.772330000083535],[-83.92643000002408,38.774097000250165],[-83.94320700005069,38.783175999799475],[-83.96236699965903,38.787521000045665],[-83.97809500009743,38.78736300013092],[-84.04375299985935,38.770670000089716],[-84.07077900023504,38.770413999805214],[-84.09246000041568,38.7744219997931],[-84.14721199987748,38.792861000081615],[-84.19800400008972,38.80090099981325],[-84.21311499986176,38.80583500031143],[-84.22529800025401,38.817461000338355],[-84.23186399956639,38.83271999992358],[-84.23370300007329,38.85402399986224],[-84.23156700036375,38.87251300014922],[-84.23433999993286,38.893265000060666],[-84.25703899973956,38.922649000053106],[-84.26044499986853,38.92471500024908],[-84.28877699975037,38.95564399966273],[-84.29579599969756,38.96920899978208],[-84.29773200028887,38.989742999896514],[-84.30607400035895,39.00775300028295],[-84.31383499974768,39.01658800030154],[-84.3266199998394,39.02726199986142],[-84.3475989998632,39.03758000020145],[-84.36072100023877,39.04156699965513],[-84.37691300028436,39.04416300003016],[-84.40805399972028,39.04593399967382],[-84.42638900004641,39.05313400010749],[-84.42856400011401,39.05557900015252],[-84.42386800037241,39.052860000008316],[-84.43056099990638,39.058739999902286],[-84.432731999776,39.066833999870795],[-84.43371799961501,39.08422499991152],[-84.43546500006042,39.08703299972403],[-84.43373500023176,39.09491899988838],[-84.4351599995636,39.10036199990123],[-84.44321999960137,39.112173999836955],[-84.45253400016507,39.11923900009999],[-84.46455500017562,39.12201599987081],[-84.47579700003641,39.11993800017462],[-84.4852439997712,39.11369999987877],[-84.49702499958222,39.10035799976478],[-84.51033799975352,39.09387299981951],[-84.52562599997589,39.09247800006209],[-84.54066300012806,39.099100999666504],[-84.55081600021768,39.09954800021937],[-84.57190599967123,39.082429999815595],[-84.59489099970821,39.07731499988701],[-84.60385000044468,39.07372700003683],[-84.61834299972541,39.07330399997802],[-84.63253200013088,39.076634000120386],[-84.65037500036243,39.09159800003488],[-84.65851700041597,39.095811999844884],[-84.66659699964693,39.097951999950794],[-84.67953900009748,39.098593999726624],[-84.68647799967871,39.10110900014527],[-84.7198960001878,39.13788999968318],[-84.73208100022987,39.14454700004479],[-84.74335099967973,39.14758500022647],[-84.74996899976895,39.14773200026906],[-84.75630599965076,39.145932999900204],[-84.76617800043131,39.13914999999338],[-84.78776800037535,39.11531299988185],[-84.81067899989417,39.109203999824544],[-84.81254799964002,39.10693599972576],[-84.83243500041792,39.10048900028186],[-84.86101900019482,39.077986000028],[-84.88905899999858,39.06612599967112],[-84.89737099993147,39.057400000345616],[-84.89629899987872,39.05244099983253],[-84.88577400024343,39.03766099999269],[-84.87182400021258,39.027755999918384],[-84.85060699963911,39.00469300029198],[-84.8466559997121,38.99674099969266],[-84.83857899995586,38.989901999823275],[-84.83004899956481,38.97256000034561],[-84.82985500029437,38.96939100023325],[-84.83425200028522,38.958771000313554],[-84.84942900017948,38.948131999923],[-84.85626300017876,38.94067699969784],[-84.86664700024707,38.93322600010956],[-84.87691999998727,38.921668999730855],[-84.87930900031512,38.91610200002177],[-84.87724700022541,38.90941300002321],[-84.87062300028843,38.90090600029118],[-84.86663499965317,38.89880499975872],[-84.81216000020082,38.8949800000884],[-84.79315899970283,38.88741799986958],[-84.78527500029044,38.88042500014305],[-84.78573499969967,38.869959999853016],[-84.7915240003087,38.859973999720914],[-84.8037469999856,38.85043299981044],[-84.82364499973583,38.838921000178594],[-84.83004500026516,38.83013999976505],[-84.82997599976987,38.82571400026768],[-84.82701999990269,38.81852700005581],[-84.81399100031183,38.80021699996907],[-84.81159899961095,38.79196000017488],[-84.81381899988438,38.78507500000066],[-84.8203390000643,38.78318600016129],[-84.82885699986149,38.78327100002862],[-84.85559799983182,38.7899959999501],[-84.88742100023143,38.79483100000277],[-84.89413700022992,38.79371300031361],[-84.91560400015034,38.78404500016423],[-84.94111900008215,38.775687999651474],[-84.97457500022605,38.77894999981455],[-84.99192399981487,38.77828400004059],[-85.01224699971254,38.76597599982657],[-85.02784299990648,38.75889099985073],[-85.04036600005736,38.75543599977233],[-85.05244599961914,38.74814200005374],[-85.0730360003788,38.74103999984984],[-85.10201400034101,38.72629700015109],[-85.11459699986804,38.71535199992903],[-85.13740700000284,38.69986699992608],[-85.15746700013477,38.691731999671575],[-85.173161000238,38.68800700032452],[-85.18887100023473,38.68758499973018],[-85.2130529999979,38.69545300010459],[-85.22641800004774,38.70599300000597],[-85.24645499971516,38.73174600019687],[-85.25881999968227,38.737818000241056],[-85.27237600042614,38.74074000032162],[-85.28925600038491,38.742419999664165],[-85.30610100018357,38.74152800017358],[-85.33532299964493,38.7358419997629],[-85.3380240001423,38.734085999905254],[-85.36444700009531,38.730428999783285],[-85.37265699992092,38.730473999982536],[-85.40416499977796,38.73672800000327],[-85.4141439997903,38.73685900016432],[-85.43594700016969,38.72870999968071],[-85.45027200011928,38.71181500021043],[-85.45154400018853,38.707903999804344],[-85.45178400038806,38.71014999970969],[-85.4559269999357,38.69628700001548],[-85.4567229998039,38.6863570003242],[-85.45466099971422,38.680715999758874],[-85.44463900004418,38.670053999777814],[-85.4386290004005,38.65888999988254],[-85.43756300019555,38.65009200011115],[-85.43959699979784,38.63084600027101],[-85.4380440004195,38.60454700002489],[-85.43523699961692,38.59767699970826],[-85.41755499994215,38.56948700017034],[-85.41565299968605,38.56320900019152],[-85.41555499977676,38.54496899978017],[-85.41953199964304,38.53533000009361],[-85.43423400005948,38.52326399984724],[-85.46391400017855,38.511819999668845],[-85.46968899964557,38.508012000107456],[-85.47608300032711,38.50131400001757],[-85.48163000018849,38.48752999982176],[-85.4888890003352,38.47765200034351],[-85.49711000003147,38.46950799995017],[-85.50570700036968,38.46471700027087],[-85.51929099980433,38.45939000009357],[-85.53435399989577,38.455781000255165],[-85.58275299958223,38.451042999855446],[-85.5974149998157,38.444894000151294],[-85.60695399961197,38.438574000324444],[-85.62033999957822,38.42341399981959],[-85.62305100012132,38.41438799991896],[-85.63183300040747,38.39842700014198],[-85.6374539998887,38.38221899989215],[-85.63938499955883,38.36110599993121],[-85.65226400026016,38.328791999955534],[-85.67022100029455,38.3082669999412],[-85.67376200014273,38.30224700013984],[-85.6799619997572,38.29758499994396],[-85.74347499958873,38.2672940002924],[-85.75147500025038,38.26799799979228],[-85.76092199998514,38.27191400007235],[-85.76691099971242,38.27659100028413],[-85.76639400040177,38.28054599969409],[-85.77307400041526,38.28576100001267],[-85.78118799998141,38.28830699993467],[-85.78799699986632,38.288355000345526],[-85.81840199970848,38.28216899988002],[-85.82906500033437,38.276554000335395],[-85.83658800007171,38.26407199986055],[-85.83892100032305,38.240330999935296],[-85.84359899962298,38.232178999998965],[-85.85203500030273,38.22230000016692],[-85.87498799965435,38.20769700028315],[-85.8826660001007,38.20084700018059],[-85.89828999988373,38.18237400014969],[-85.90618000004221,38.16790599998216],[-85.90909599972642,38.142340999722435],[-85.90438800028925,38.10621599985329],[-85.90505199991297,38.08995700027748],[-85.913867999636,38.071854000157956],[-85.92065200030487,38.032305999742235],[-85.92565400036823,38.021784000066916],[-85.93351400038947,38.01407799966392],[-85.94650899964513,38.00522800029667],[-85.96450599986247,38.00297399967553],[-85.97741499980272,38.00338200028289],[-86.00946699963289,37.99839000025771],[-86.02133899968051,37.99585600005322],[-86.03035799979313,37.99205699982292],[-86.03499900018146,37.984289999938426],[-86.03411000042682,37.965401000048345],[-86.03890599972753,37.958989999720814],[-86.04378200029251,37.95820600002936],[-86.05110500001331,37.961255000300866],[-86.06374500034006,37.9742499996709],[-86.0772790004443,37.99739000023796],[-86.0738580002467,37.99551099977631],[-86.0802930000378,38.00125600024635],[-86.09460200009384,38.008809000142975],[-86.10568800031902,38.01297500006538],[-86.12532900015131,38.01624000004613],[-86.14892900030652,38.014657000290384],[-86.1631859995857,38.010063999948535],[-86.17817800043036,38.01056099990014],[-86.22024199988485,38.027963999848716],[-86.22555399956958,38.03341899984282],[-86.23373599980611,38.03843100013424],[-86.23333900014607,38.03962500008485],[-86.25006000009618,38.04600300033427],[-86.26780500041845,38.057148000352726],[-86.27277300014661,38.06482399973825],[-86.27855400035972,38.08641799969473],[-86.27911599987618,38.10093800034306],[-86.27039600041265,38.12889699993661],[-86.2706049997517,38.13577900029307],[-86.27284699976643,38.14083500034002],[-86.28692099964584,38.15782999973933],[-86.29281999985974,38.16247900013197],[-86.31883000025921,38.173792000273856],[-86.3474009996173,38.19511200013308],[-86.35977200033055,38.19883999981273],[-86.37095200026704,38.19557499983566],[-86.37601299988162,38.19066300013297],[-86.37847099980642,38.18159900031944],[-86.37672799955897,38.16974299993297],[-86.37233099956812,38.16460599966276],[-86.36534199975814,38.16136699978362],[-86.34245899982842,38.15874199985328],[-86.32587400032075,38.15402900009106],[-86.32113300037331,38.14658599987329],[-86.32512000028535,38.136338999682295],[-86.33054699959781,38.13087799983525],[-86.33867100010801,38.127881999848476],[-86.3750830001191,38.13063799982547],[-86.38076800007278,38.12901799996428],[-86.38931600000717,38.122292000240186],[-86.39646300000089,38.10689100002566],[-86.40187900034104,38.10432899966988],[-86.40456800024452,38.105177999743255],[-86.41699299958779,38.11674100030537],[-86.43234399955934,38.12633599974951],[-86.4489909998896,38.12732099996311],[-86.45574200004819,38.12503100022361],[-86.461241000229,38.12092599987577],[-86.46635200007229,38.11347400033005],[-86.46468199961976,38.10250799989158],[-86.45740800030276,38.0950160002755],[-86.43842900044439,38.08882200031771],[-86.43233000021395,38.08480200015778],[-86.43025899990343,38.08003199988171],[-86.43051800036952,38.07556300019965],[-86.43392299977528,38.06570499980085],[-86.44789799992047,38.053171000139514],[-86.45977300034116,38.0481289998142],[-86.47877300011592,38.04561500007987],[-86.50488899992227,38.04548299985271],[-86.51590700037538,38.04309799996685],[-86.52171199997963,38.03961699968066],[-86.52513800020009,38.02873400017527],[-86.52493700035865,37.96649499998569],[-86.52017600031972,37.95382799965777],[-86.50931799970017,37.942296999715204],[-86.50707200038579,37.93637300030363],[-86.5073409999993,37.929504999756155],[-86.51677699986342,37.92334599996722],[-86.53383599992235,37.91715099993982],[-86.54815400019922,37.91782999973855],[-86.56667299975005,37.92223599996291],[-86.57941600000896,37.923175000215586],[-86.58868700001665,37.92108999973255],[-86.59722599973023,37.912921999789205],[-86.60012600041924,37.90517099973628],[-86.59809799976642,37.88473800025377],[-86.59931600030731,37.87488199985701],[-86.59731000029413,37.87031699999689],[-86.59819400002588,37.86716300020434],[-86.60450099977047,37.858445999709275],[-86.60865500008708,37.85570300024125],[-86.62621200008836,37.846769000349],[-86.63827900012966,37.84269000004641],[-86.64854099999921,37.8414239998203],[-86.65523299970826,37.8424809997792],[-86.66027199958154,37.84676400007966],[-86.66224099978481,37.852849999818126],[-86.66065300024637,37.86424699990337],[-86.64425699998627,37.89651700015946],[-86.64400799956591,37.902397000097345],[-86.64785300008604,37.909387000347394],[-86.66065900009414,37.91310500004085],[-86.68078799982305,37.91503500016901],[-86.71743599983569,37.8935039999922],[-86.72238600002052,37.89270000009549],[-86.73254499995791,37.894767999855034],[-86.75112100030846,37.913355999908994],[-86.77099200029451,37.94158200019422],[-86.77392499969716,37.947900999724816],[-86.77783899981426,37.951687999727156],[-86.77998200009479,37.955529000259894],[-86.77856699991041,37.95714399993692],[-86.78734400017369,37.96907999978296],[-86.79496499982032,37.98921299998626],[-86.81407400027335,37.99850500026356],[-86.8196889999068,37.999422000162],[-86.85214800034106,37.98901999985827],[-86.86091399983535,37.98436799972383],[-86.88581399964893,37.963619000158985],[-86.90198300012833,37.94644799977671],[-86.9189219996383,37.93683699984885],[-86.94673999968423,37.93332700022295],[-86.96757899996594,37.932690999747045],[-86.96674299991477,37.93348300030143],[-86.97617999960381,37.93111200017789],[-87.00997499968142,37.91989300033716],[-87.03416599966543,37.90626499984644],[-87.04175600024826,37.89917499990652],[-87.0458779998795,37.8926459997719],[-87.04605899962947,37.88770899996579],[-87.04305099988373,37.87795600014792],[-87.04324000002963,37.86836799986866],[-87.04923299995485,37.85399499998966],[-87.05666399963069,37.82753100013182],[-87.06541400012979,37.80761399972546],[-87.0715329995534,37.79981800001029],[-87.08927899970055,37.78786199964967],[-87.11072999972745,37.782418000213276],[-87.11939300018791,37.78296300016666],[-87.13006799961103,37.78677899978493],[-87.13394099972025,37.79271800005645],[-87.13585499967193,37.803895000349364],[-87.14111500037646,37.815517999961145],[-87.15468899976536,37.834185999796816],[-87.1617040004129,37.8397639998726],[-87.1689910001487,37.84212899967053],[-87.17583600001863,37.841017000205554],[-87.2023340003147,37.844199000210224],[-87.22026000038693,37.84897099976983],[-87.25549999988787,37.867802000300685],[-87.28077299997035,37.885943999964155],[-87.29865499966164,37.89613399989328],[-87.31998199983997,37.90567200019673],[-87.33878699962106,37.90848199999466],[-87.35235000003763,37.91593999999535],[-87.3569160000829,37.92019599989439],[-87.3620849996525,37.92120499966641],[-87.37050200006567,37.92833800016138],[-87.37168799992122,37.931189000016374],[-87.38617899955213,37.93780399989231],[-87.41199099958486,37.944503000188874],[-87.42888700033548,37.944907999921824],[-87.44913099969212,37.94185400030471],[-87.47634899968841,37.926529000241686],[-87.4976309996609,37.910698999964964],[-87.51056700026366,37.90608100020116],[-87.52199900009524,37.91330799986491],[-87.53176700022037,37.916303000028805],[-87.55604500024303,37.928167999771844],[-87.56702299961484,37.93873800000766],[-87.5735670000842,37.951721999724164],[-87.57751100033855,37.95166100032248],[-87.57423300025606,37.96114600033973],[-87.57780900026437,37.97019800001465],[-87.58740800033512,37.975276000078395],[-87.597763999916,37.973896999972204],[-87.60139099997792,37.971306000304295],[-87.60315500014178,37.96765000024887],[-87.60581300008313,37.949610999963504],[-87.62242899955295,37.93620300007297],[-87.61740399992337,37.93826999964635],[-87.61932200007303,37.93318099995859],[-87.62641100034041,37.92792800009504],[-87.62731699981347,37.92040199970617],[-87.61982400021334,37.906846000028295],[-87.59588799959916,37.89200100005181],[-87.58714100037143,37.88485800010102],[-87.58373699989225,37.87808000020267],[-87.58392500021324,37.87248499973095],[-87.58630399959702,37.87249299992323],[-87.58920199973788,37.863744999828015],[-87.59111499986466,37.86213400035395],[-87.59026700011792,37.858589999976395],[-87.59753200011241,37.848047000340976],[-87.61244600024095,37.833608000039554],[-87.62566499980261,37.8290159998074],[-87.64416099978723,37.82618900028861],[-87.67034400043903,37.827961999830904],[-87.6737630000885,37.82962299971603],[-87.67941100023222,37.83652500018301],[-87.68209799958757,37.84678300025021],[-87.6816840002091,37.85627300008691],[-87.66929199957949,37.87532999967248],[-87.66403299959818,37.88747700013396],[-87.66684000040077,37.89576299980279],[-87.67501099986832,37.901642999724324],[-87.68441400012048,37.90366500017392],[-87.70833599959266,37.89468600031251],[-87.7182080003732,37.89260099982643],[-87.7373510002631,37.89473199994609],[-87.75923900013301,37.89166199993493],[-87.7706090000403,37.88659699965222],[-87.78344699983545,37.877784999844295],[-87.79142900005542,37.87566099996858],[-87.82977299956156,37.87642499990733],[-87.8396679999083,37.88078000000063],[-87.84644300035635,37.88799199967855],[-87.8464890003871,37.89353400029983],[-87.85678700024167,37.900192999705226],[-87.86378500027249,37.912397000177464],[-87.87502499958512,37.92286399978903],[-87.88280199976569,37.92619799976789],[-87.89363699992069,37.9280490001865],[-87.90386399963015,37.92553699985401],[-87.93816300039623,37.891059999698676],[-87.94044399987072,37.88620299972123],[-87.9409769999732,37.87947299969348],[-87.93914300038746,37.87248999967394],[-87.9355620003563,37.86710599983335],[-87.92544299970355,37.85689800017129],[-87.9157030000658,37.850365000013106],[-87.90996700005853,37.84302799970372],[-87.90364699989516,37.81678499968242],[-87.90737500023943,37.80712899990728],[-87.93412899973023,37.79641399969101],[-87.93494300004011,37.79121099967264],[-87.93860400043721,37.78762899978445],[-87.9448550001053,37.77481000017881],[-87.9518399997173,37.7716949999038],[-87.95983299980794,37.77313299993711],[-87.97285100042645,37.78537099998452],[-88.00471499993564,37.80010399968045],[-88.01628900005743,37.80197100003698],[-88.02984999992587,37.79825199971696],[-88.0363159996791,37.79115700023925],[-88.04127799955947,37.77031100009945],[-88.04458499995425,37.76312199969868],[-88.05067199959082,37.752953000116705],[-88.05933300040145,37.742967000042775],[-88.07031400014631,37.73332300033654],[-88.08329900025456,37.72934100021665],[-88.0957079997043,37.723215000161886],[-88.10075099977554,37.71861299970453],[-88.12152200028518,37.710242999686514],[-88.13209299995121,37.697482000194526],[-88.13421500031536,37.69154000020095],[-88.15054700010305,37.67675300016201],[-88.15915699996174,37.66261099965086],[-88.1603009999845,37.655774999720435],[-88.15799299984751,37.636947999865406],[-88.15256300016199,37.62261099977271],[-88.14077999980282,37.60025600018482],[-88.14238999998089,37.592977000053935],[-88.140589999832,37.58482999986692],[-88.13428100043761,37.5746359999296],[-88.12317900031891,37.569508999777035],[-88.10574000031842,37.55659400007496],[-88.08944399961743,37.53636599966701],[-88.07443999997551,37.53038700021564],[-88.06901100011491,37.52539900009512],[-88.06282700039397,37.514860999740954],[-88.06111400028374,37.50412200014892],[-88.06307000006821,37.49492400002898],[-88.06784399962763,37.485866999793465],[-88.07312199987548,37.48569100025144],[-88.0742559998525,37.481613999988795],[-88.08089200038336,37.4739109997603],[-88.0854569997054,37.47156399971773],[-88.09387599976837,37.47380300000024],[-88.12841099963771,37.470494999987174],[-88.1351609999714,37.4717539999585],[-88.19653899991832,37.46070299972431],[-88.22796800013263,37.457098999954624],[-88.25513699972515,37.456760999903665],[-88.28163099982326,37.45272899970614],[-88.31197399974116,37.44100100017527],[-88.31812200037538,37.435858999940734],[-88.32363300025176,37.43399200023605],[-88.33350599995889,37.42714800001023],[-88.34839800034612,37.410959999960355],[-88.36446499981993,37.4017359998214],[-88.37213700041852,37.4031060002036],[-88.37714699997947,37.40964400000055],[-88.39521799981667,37.420532999832],[-88.40652400014984,37.424804000338234],[-88.41211399966893,37.42506100028926],[-88.43475999977221,37.418397999682675],[-88.45281300006603,37.41093999970019],[-88.46707899956607,37.39983900006117],[-88.47528300044222,37.38985700020114],[-88.48247300009363,37.36425699995544],[-88.48468300032133,37.3452339997434],[-88.51243500024502,37.29661600032532],[-88.51590300029827,37.28409099980686],[-88.51413699958628,37.27949799972567],[-88.51006400035882,37.275730000267274],[-88.50672699982684,37.264989000223096],[-88.50394199966387,37.26478699973204],[-88.50915499961441,37.26207499969776],[-88.51215400003761,37.26378899997202],[-88.51141000004796,37.26147699991525],[-88.50697299987412,37.25968799974049],[-88.50079099980302,37.25340199976337],[-88.48743699962384,37.244293999999],[-88.479092000079,37.228388000344204],[-88.47217400041413,37.22030699991458],[-88.45851700028626,37.21335400001596],[-88.4480379997834,37.203642000108594],[-88.43785399973164,37.17999799995051],[-88.43306000008077,37.16263700024227],[-88.4246569999113,37.15229100011472],[-88.43466400041106,37.12665100035744],[-88.44298399984152,37.11191800015063],[-88.44342400005756,37.10869399976641],[-88.44062600037414,37.108600000199836],[-88.44577599967717,37.09968300007386],[-88.44458300014894,37.09641900031018],[-88.44561400019379,37.093332000067555],[-88.45994099979318,37.074627999752195],[-88.48262399970636,37.067257000110075],[-88.4894059998271,37.06845599983231],[-88.50297199971838,37.06563999971845],[-88.51668599974768,37.065383999671944],[-88.5469249999085,37.070818999766836],[-88.56569600025274,37.07767300034905],[-88.56514999973146,37.07537299964874],[-88.56650999966429,37.07537400018243],[-88.57286300033793,37.07965599998282],[-88.57451600017372,37.084843999643084],[-88.58379200020427,37.09200000019698],[-88.58986499959713,37.09978500021877],[-88.61868899957354,37.11676800035533],[-88.62905900029644,37.12062199983611],[-88.64404200002195,37.12238899990494],[-88.69260800011298,37.14110499966903],[-88.7043739998554,37.14296999982282],[-88.7062030003166,37.1414930000069],[-88.70757900014294,37.14259100029558],[-88.7194600004114,37.140750999747006],[-88.732499000048,37.14394500016213],[-88.76149999957643,37.159612000055155],[-88.7840250002042,37.174926000043676],[-88.78718899958552,37.178553999682364],[-88.80260599967929,37.18773600033486],[-88.83509000022791,37.196492999732975],[-88.87718800001757,37.21226099973905],[-88.93151299968208,37.227427000265436],[-88.94192199986475,37.22882400009029],[-88.93268400036733,37.22526000009701],[-88.9531539996798,37.22481099991661],[-88.97294799967294,37.228466000041],[-88.96597800012954,37.229669999706196],[-88.97000799969929,37.23000400025024],[-89.00006500028522,37.224759999742986],[-89.01315400015052,37.21647800002892],[-89.02986599987982,37.21106499968231],[-89.08671200011665,37.16545100021481],[-89.09294900043935,37.156437000316664],[-89.09901099996155,37.14040600025601],[-89.10949999961181,37.12309299982706],[-89.12584999984118,37.10847599977004],[-89.14285199999867,37.099018999861734],[-89.14817700010221,37.09841700020535],[-89.15058200032358,37.093698999857594],[-89.14606999980667,37.0910040002428],[-89.15129799982583,37.08899500019385],[-89.15148699997171,37.090553999907115],[-89.15565499963373,37.087729000178],[-89.16707899996769,37.07540900021831],[-89.1738250001034,37.06630799965761],[-89.1778570002213,37.05779599965694],[-89.18246699974915,37.03916399994319],[-89.18015100011456,37.02371499983629],[-89.17017299992713,37.007067000023454],[-89.13655899959947,36.98375799965032],[-89.13291499981912,36.98205700027165],[-89.12344200014508,36.98319299968702],[-89.11094599975837,36.97779700012969],[-89.10103799989115,36.96708499971133],[-89.09898300037246,36.95822200017865],[-89.10164399978855,36.940728000068695],[-89.1088779998209,36.921610000260316],[-89.117115000309,36.88868499997976],[-89.1267739997559,36.871899999763016],[-89.13193400000299,36.857596000148625],[-89.1381090004014,36.847322999829345],[-89.15268100022318,36.84710500025424],[-89.1590049996862,36.84272899971025],[-89.17044300026387,36.84183999971942],[-89.17654400014413,36.83712099967234],[-89.17920100026058,36.82989599967288],[-89.17913299959021,36.81089299976082],[-89.17056299991447,36.797537999702605],[-89.15713699976527,36.78956899982053],[-89.13218699972298,36.78825699995214],[-89.12438000030349,36.785825999726235],[-89.12039699969111,36.78173300029243],[-89.1162430002728,36.77329200030547],[-89.11820200043034,36.762325999803046],[-89.1217750000656,36.755670000064896],[-89.12596700001703,36.75180900030502],[-89.13578899967054,36.75177699969866],[-89.1425020001943,36.755502999850215],[-89.15855399959949,36.7562290000734],[-89.16661100016255,36.75966999973595],[-89.17288699994499,36.75877100002169],[-89.1820270004314,36.755408000156294],[-89.18816699977143,36.75074399985679],[-89.19785600025385,36.73977200021172],[-89.20055199983004,36.73256699990057],[-89.20131199971323,36.722299999666056],[-89.19931099972291,36.715624000351355],[-89.18295299999596,36.69955200009436],[-89.17046199963212,36.69004800004582],[-89.16811000001252,36.68572899989413],[-89.16797100009536,36.67908899968761],[-89.17188400038755,36.67259800018542],[-89.1591179996641,36.66635399980873],[-89.17472700027683,36.65047499983811],[-89.1868560002424,36.642022000253455],[-89.19775300032168,36.62897099995553],[-89.20126499985756,36.61654499999476],[-89.20277100027856,36.60166499973959],[-89.21387400022216,36.57991099968418],[-89.22704599992815,36.56953700004237],[-89.23630799971502,36.566881000266314],[-89.25837700023318,36.564945999754514],[-89.26954600029904,36.56971600034299],[-89.29467500044146,36.5937789999395],[-89.31645000033346,36.624044000236594],[-89.32626399959105,36.63184000014734],[-89.3320339999335,36.63288100001692],[-89.34390199978318,36.631888000290644],[-89.36579700022409,36.6251259997737],[-89.37191499982278,36.62019600006664],[-89.37614399958414,36.614131999929555],[-89.38270999979481,36.58372199998814],[-89.39583299999532,36.55932499991862],[-89.39862599965589,36.54227599993379],[-89.41727499980136,36.49901100006517],[-89.39105699988777,36.49921599984739],[-89.30102200036902,36.507232999929265],[-88.95974599982972,36.5020760001394],[-88.54187400033967,36.502175999753035],[-88.216645000081,36.49982699973383],[-88.05329299972223,36.497057999768],[-88.03906900005501,36.51078400024297],[-88.03743200011274,36.522858000051656],[-88.0346829999348,36.52784499966551],[-88.03267500027178,36.53698500013424],[-88.03264900033253,36.54209499967216],[-88.03509300001363,36.56018899997935],[-88.04049699975988,36.57682399977095],[-88.0448619999637,36.603069999643196],[-88.05562500014867,36.630340000247564],[-88.05701600004362,36.640342999944885],[-88.0668360000473,36.65585599973683],[-88.07054099992705,36.678255000030305],[-88.0122030004112,36.677190000358664],[-87.92687499960638,36.6689359998071],[-87.84954399998848,36.66369499989132],[-87.85331900018842,36.63316000004165],[-87.4746869996318,36.640414999771494],[-87.0704909996379,36.64272999965582],[-86.58990600038246,36.65244300028608],[-86.56390900040181,36.633561999649594],[-86.5512220002194,36.63799800028075],[-86.54994299957913,36.644759000305335],[-86.54335200015241,36.64385499980672],[-86.54382199960737,36.64042699973607],[-86.50778100021535,36.65237899986744],[-86.49342799977839,36.65224000035151],[-86.33212599981375,36.648701000225216],[-86.23615500027118,36.641877999932916],[-86.02481900032767,36.63029299974916],[-85.83243200010529,36.6221000001221],[-85.78885800003185,36.62205500035668],[-85.67652999968895,36.61822299967597],[-85.50150700002231,36.6148550002275],[-85.32479100033694,36.62450799972467],[-85.30041500040501,36.624448999707035],[-85.29390400044593,36.62635499985073],[-85.18627000019478,36.625207999664475],[-85.02686100026544,36.61929899998163],[-84.83003500021943,36.60453599980074],[-84.54047399998218,36.5963040000978],[-84.44889600023251,36.59621099973322],[-84.27154500033743,36.59170299993577],[-83.99994299978437,36.58985699965592],[-83.69078900029375,36.582596000286436],[-83.68265999976067,36.593108999871724],[-83.67621800029687,36.59793300033367],[-83.67443599969134,36.60362100010496],[-83.6635479998329,36.606927999737835],[-83.65710899984384,36.61302800008974],[-83.64931300029502,36.61677399975353],[-83.64770300011695,36.623082999979374],[-83.64072699982745,36.62476300002684],[-83.6341480000963,36.622937000343605],[-83.624016999748,36.625508999702724],[-83.61826099964924,36.628587000017625],[-83.61389600034374,36.634850000030994],[-83.60590099970499,36.637900999858054],[-83.60043199966141,36.63784899997503],[-83.58729599994041,36.642301000333674],[-83.58644900001858,36.64386299966629],[-83.58312400008046,36.6411039999951],[-83.57731600010317,36.64149599965045],[-83.574616000329,36.64433599970807],[-83.56605099977784,36.647165999987344],[-83.56242600026407,36.651249000020805],[-83.54681699965136,36.65413300028989],[-83.53705400044738,36.65893399980095],[-83.53230599992894,36.66196500011594],[-83.53240399983822,36.66468899975997],[-83.53014599992996,36.666049000250624],[-83.51558400015391,36.6677749999738],[-83.51243699959271,36.66960099972253],[-83.50574999990653,36.66894600015715],[-83.49921899985597,36.67043899987287],[-83.49280499998126,36.67018699972271],[-83.48268000037905,36.66618699991215],[-83.4666110003571,36.664709000121434],[-83.44783400016509,36.66531600026069],[-83.44354500012928,36.6671789997625],[-83.43635399975463,36.6662209997177],[-83.42471299968567,36.667340000342314],[-83.39648299991111,36.67690499987391],[-83.39523900032924,36.67770899997035],[-83.39587000034102,36.679425999945465],[-83.38680900039562,36.68661400016347],[-83.38123800024478,36.687326000298796],[-83.37526600023594,36.69072799996285],[-83.37109199982785,36.69068600014645],[-83.36497300040425,36.69409599994598],[-83.35876700004368,36.69350599995749],[-83.34763499978777,36.70019900002617],[-83.3097110004062,36.710638999963685],[-83.29663099986341,36.713604000056506],[-83.28829600036431,36.71371000018173],[-83.24547999962594,36.72594000013131],[-83.22371899997766,36.73025800015678],[-83.19483899992476,36.73944799986055],[-83.17482800019661,36.73917500022274],[-83.16802400033458,36.74064099969259],[-83.16712800000894,36.73933000032611],[-83.16312400037847,36.739298000274715],[-83.15249000006493,36.74270400017574],[-83.14441099976055,36.74163599968642],[-83.1351199996614,36.742629000001706],[-83.13299200034778,36.74609400004088],[-83.13442500007552,36.74935699974702],[-83.12798500026156,36.750645000252284],[-83.12863800001463,36.759655000000905],[-83.1255730003675,36.76162300035308],[-83.13254499956072,36.76439499985624],[-83.12956600012731,36.77018599987563],[-83.13308000021132,36.771678999679544],[-83.1289869999941,36.77578399967471],[-83.13323099982408,36.78458499986643],[-83.12316099957513,36.78669299980547],[-83.11825700031939,36.790415999976965],[-83.11064900019322,36.80048699984044],[-83.10433099967966,36.803997000243065],[-83.10256400004108,36.81126999990316],[-83.09848000004466,36.81351699990429],[-83.09850799963377,36.82379900030175],[-83.10193600040236,36.82823800011336],[-83.09902400001779,36.83181099986914],[-83.09090000040591,36.83459400033623],[-83.08745900011682,36.83822399998236],[-83.0751719999675,36.8407280002749],[-83.0740670003028,36.84579299997262],[-83.07584900001002,36.850693999769575],[-83.07283600024142,36.8544569999339],[-83.06424300010116,36.85158300033067],[-83.06074900010864,36.85394799979246],[-83.0477999999854,36.85167999988195],[-83.04137699988988,36.85495700027637],[-83.03570399963179,36.85411700007547],[-83.02660699970137,36.85555600027481],[-83.02207900018927,36.8499349998164],[-83.01277100037166,36.84692999989162],[-83.00746299998656,36.84748300021682],[-82.99858699998909,36.856567000016135],[-82.98899600031426,36.85915600030771],[-82.97857700008586,36.859812999778626],[-82.97079200040767,36.85764100003944],[-82.95157599982454,36.86618999975179],[-82.93767799967222,36.86731899998009],[-82.93429599983268,36.87023199967759],[-82.92830700010543,36.87041200021974],[-82.92246300014311,36.87389800010891],[-82.90782299965096,36.87476399980237],[-82.90738499998305,36.879298000264825],[-82.89515100043549,36.88223099988184],[-82.88446100004543,36.88849799998903],[-82.8790799998654,36.88925500035284],[-82.87741199996101,36.89550999972542],[-82.8679779997467,36.90004800021222],[-82.87737900034904,36.908471000037295],[-82.86975299978121,36.916496000131716],[-82.86734500008512,36.91726799974877],[-82.86712800035015,36.919090000013355],[-82.85766499982351,36.9286690001736],[-82.86230000036406,36.94133800014924],[-82.85988199972391,36.949172000004836],[-82.8557349999783,36.95381800031728],[-82.86593999994645,36.95833600003737],[-82.86743799997153,36.964162000104466],[-82.87010799960846,36.96497799993794],[-82.87098200019278,36.968482999908645],[-82.86896699995876,36.969654000276286],[-82.86960700019137,36.97334300017735],[-82.86746700028387,36.97804899972205],[-82.86258599969602,36.98026800011099],[-82.86041400000147,36.97837699988929],[-82.85698100010829,36.97884800011368],[-82.85650200043251,36.98204199964853],[-82.85357699962915,36.98529799981684],[-82.84980200032754,36.98358299969745],[-82.84524200013007,36.98376500035762],[-82.84100400014786,36.987098000112695],[-82.8372749999787,36.987280000256746],[-82.83505999972813,36.991476999721165],[-82.83017900003861,36.99435699993731],[-82.82898899998511,36.997869000039],[-82.83058599974439,37.0012190000554],[-82.82872000037159,37.00579800003404],[-82.82513799961721,37.00641899969943],[-82.8225249998817,37.00410600033386],[-82.81996599967455,37.00617200017098],[-82.81717300001398,37.00601300035486],[-82.81686199966934,37.007426999729546],[-82.81345499971545,37.005628999968934],[-82.7978850003591,37.00956200029908],[-82.79366499992025,37.00547099975506],[-82.78849800000047,37.00867200030469],[-82.78286300027554,37.00782100025541],[-82.77716499990309,37.01602299996247],[-82.77185300021836,37.015707000098615],[-82.76640900028912,37.0230840001651],[-82.75947900003038,37.02725500027015],[-82.7525809995587,37.026176999763166],[-82.75035199996273,37.02320099975088],[-82.74786200025088,37.024424999896695],[-82.74275899990519,37.04279599999093],[-82.73350600033918,37.0445210002434],[-82.72582399969484,37.04225200025698],[-82.72236800023545,37.04506800014132],[-82.72220000000597,37.05793599989233],[-82.72282900036792,37.061929000139706],[-82.72562399967829,37.06525499973275],[-82.72673699973892,37.07303900030554],[-82.7235959999238,37.07557600020829],[-82.71807800037473,37.07591799971362],[-82.7166549997944,37.07740600022603],[-82.72284400043651,37.08480099997231],[-82.72276200042077,37.089817000020396],[-82.72501699995598,37.09182199994282],[-82.72205600006593,37.09480499998077],[-82.72167899959908,37.10101500029909],[-82.72343299971719,37.10333100008206],[-82.72202599992869,37.1055699996499],[-82.72668800023341,37.11479399985816],[-82.7214130003586,37.12082999991259],[-82.71514900027174,37.121847999929436],[-82.70467200031702,37.12791400002624],[-82.68785699975726,37.13365900001872],[-82.68289200040215,37.13695099969686],[-82.67669500026243,37.134917000009814],[-82.66766000025628,37.1418940003189],[-82.65672299999403,37.144720000169414],[-82.65330400034458,37.15118799978197],[-82.65023799997422,37.15194300027809],[-82.64718900022062,37.150160000184925],[-82.64278300000893,37.15300300000765],[-82.63338099958169,37.154418000024435],[-82.62064599971868,37.166437999747686],[-82.59746200038842,37.17704500011878],[-82.59301900036678,37.180464000332506],[-82.59225600011055,37.18303900014311]]],[[[-89.57120299999157,36.55214200030341],[-89.56828499975921,36.54175999986424],[-89.55987400009215,36.52346699992536],[-89.53923200035227,36.49793399994869],[-89.48542700037142,36.49749099991454],[-89.47325599967472,36.5124159998464],[-89.46591299986243,36.5300150002719],[-89.46553499957065,36.53598899983624],[-89.46782000014142,36.546973999639434],[-89.47286099966452,36.55883999965504],[-89.47992999984042,36.56908699973943],[-89.48810600022918,36.57292500018443],[-89.51685200038777,36.57739699973262],[-89.52854100013731,36.58158199990622],[-89.54467499955825,36.58018799986298],[-89.55757400035108,36.57429700025614],[-89.56861399964718,36.562464999723694],[-89.57120299999157,36.55214200030341]]]]}}]}