{"type":"FeatureCollection","features":[{"type":"Feature","properties":{"GEOID":"37","NAME":"North Carolina","STATE":"37"},"geometry":{"type":"Polygon","coordinates":[[[-77.20653599970764,36.54436700004715],[-78.04537500026875,36.543549000306065],[-78.24971700037943,36.54448499982839],[-78.51089700033103,36.54104899997577],[-78.93698000036993,36.54219000016136],[-79.54338699988953,36.54085600015168],[-80.29408499989377,36.54403800024428],[-80.70460100005104,36.56230199998649],[-80.77359799999479,36.56037400001338],[-80.79982599995414,36.56109899981636],[-80.8377710001504,36.55913800008091],[-80.93293800032716,36.562964000154224],[-81.0038080002147,36.563655999902394],[-81.17693299982315,36.57188500030078],[-81.44304700006606,36.57683200009427],[-81.52075799962556,36.580547000259266],[-81.60045500000508,36.58694800031386],[-81.6774900002453,36.588137000022726],[-81.68011999969924,36.58561999965831],[-81.67697899988413,36.58112399994237],[-81.67921400022618,36.57866799971413],[-81.6770469996562,36.57075499991694],[-81.68007200001867,36.56867199994997],[-81.69128600029035,36.567716000157674],[-81.69187799994405,36.565940999969776],[-81.68954800006574,36.56144099992253],[-81.69099800041026,36.55539000026938],[-81.69022099991032,36.551686000030514],[-81.69336099990052,36.55099900012711],[-81.69379000024593,36.54797700006954],[-81.69976800010252,36.540315999946316],[-81.6997949998667,36.53672700019682],[-81.70807500001251,36.535687000247655],[-81.70809799957873,36.52411399973824],[-81.702970000017,36.521141000248335],[-81.6983439996973,36.50971700005869],[-81.69839800012396,36.506435999816674],[-81.6970909998946,36.50591999964487],[-81.69742399998053,36.502154999736604],[-81.70025400034935,36.4984570002495],[-81.69724499988038,36.49642399993714],[-81.69594900041999,36.49161900034515],[-81.69792399957272,36.488948999922535],[-81.69635000027799,36.47553700035087],[-81.69460799985544,36.47337200035798],[-81.69617899967544,36.46974500022255],[-81.6950289998049,36.467458000191854],[-81.69900099964833,36.464068000007416],[-81.70811799967024,36.462225999686616],[-81.70966799957385,36.45937899970393],[-81.71679700002421,36.45666900013902],[-81.71378699973036,36.44717299991998],[-81.71782600041924,36.445023000192386],[-81.71449800010805,36.441480000157085],[-81.71480299970658,36.43722700018044],[-81.72131700003871,36.433900000354704],[-81.71784700033564,36.429856999664985],[-81.72072700003484,36.42265100027817],[-81.72715199978018,36.41986900006981],[-81.72944099965059,36.415894999694714],[-81.73365000021877,36.414683999649064],[-81.73451800005702,36.41249700030866],[-81.74031900036162,36.413121000269044],[-81.74192899964137,36.411248999808706],[-81.74002899993339,36.40845499979073],[-81.74140599958464,36.403063999835375],[-81.7382699997924,36.40083400024371],[-81.7393679997844,36.395591000033725],[-81.73195800002496,36.39492900017427],[-81.72881499966171,36.39155000016186],[-81.73051299970332,36.38828500013051],[-81.72949799955201,36.38543899977443],[-81.73466000034723,36.37944200003133],[-81.72606600038206,36.368785000244976],[-81.72711599979519,36.365586000114995],[-81.72288299983585,36.36123699972769],[-81.72251999961269,36.35864000025059],[-81.72437300036333,36.35769499999896],[-81.7215210002532,36.35130400030346],[-81.71679899967403,36.34759500024099],[-81.70824200041712,36.34633299981944],[-81.70611199965704,36.34372399975733],[-81.70532300035984,36.34141499994251],[-81.7074749999629,36.33522499971684],[-81.71849400024091,36.33612199999745],[-81.72783800004353,36.34138299975494],[-81.73602899960255,36.34297199969746],[-81.73960600033409,36.33975699968922],[-81.7457330001536,36.33759200026774],[-81.75447000023392,36.33699900028246],[-81.76113199980574,36.34025399991739],[-81.76495399986132,36.33872199965755],[-81.76917000010222,36.3424630002662],[-81.77407699973101,36.34382400018816],[-81.77888899982355,36.34856600004],[-81.78972999982635,36.34832799992642],[-81.79075599984832,36.355641999893024],[-81.79358799986694,36.35895799977843],[-81.7930849999017,36.36240799964417],[-81.7972800002262,36.35854499969138],[-81.80093200040247,36.3579989997807],[-81.81027600020509,36.35185000014872],[-81.83304899963164,36.34733199964502],[-81.85191100021247,36.33701199964475],[-81.85498799955516,36.337211000187956],[-81.86550899989082,36.32919300021646],[-81.8666279997992,36.3262229999518],[-81.87952000002102,36.313788999708464],[-81.88723600010223,36.3092380000287],[-81.89834599971853,36.30725199964567],[-81.90816700044543,36.30196599994867],[-82.02620099976008,36.13120799965018],[-82.02905100022038,36.124667000190954],[-82.03383900002349,36.12047500002052],[-82.0389239999275,36.12156700006621],[-82.04475500036934,36.125556000216505],[-82.05414100000475,36.12666299995409],[-82.06186899978151,36.11306199974487],[-82.08002800038055,36.10643299983919],[-82.08107899961855,36.10316999975235],[-82.08653199976861,36.1060020000051],[-82.10031000027033,36.10567099981701],[-82.10541799974058,36.10783699996478],[-82.11612300019924,36.10433199974032],[-82.12919799982086,36.10410000001288],[-82.13785600025844,36.11950999965611],[-82.1367759998098,36.128100000127745],[-82.14099100022577,36.13867499995672],[-82.14445199970802,36.14040599967206],[-82.14436800004242,36.144138000121266],[-82.14858099991028,36.14985900028313],[-82.16565000001492,36.14497199997137],[-82.16850899979772,36.146713999959964],[-82.172934000276,36.14650000003695],[-82.1772169995657,36.1423730002261],[-82.18362600031587,36.143911000105625],[-82.18758300009067,36.15099500011627],[-82.19274599981249,36.14903799963836],[-82.19955700024555,36.1528289999735],[-82.20173300013806,36.156384000046714],[-82.21320699980242,36.15905699971515],[-82.22214499972418,36.15692200009522],[-82.22427499958593,36.1508379997828],[-82.22953699994028,36.1445879996805],[-82.24188299964082,36.137125000175864],[-82.24509700014919,36.13124899997624],[-82.25107199963274,36.1320510000648],[-82.25432799997392,36.13605800025182],[-82.2603040001807,36.13353299991503],[-82.26392500039483,36.12729699972654],[-82.26677699960663,36.127000999861245],[-82.2734480002976,36.1293170001274],[-82.28001199996012,36.129094000056156],[-82.28982000026825,36.135595999867235],[-82.30248099961307,36.131464999729914],[-82.32035399998183,36.119800999761495],[-82.32319400039638,36.12024100021162],[-82.33180599990492,36.11745199980834],[-82.33613900032165,36.11467299982507],[-82.35276099963926,36.11645199987441],[-82.36454099962536,36.10751599977625],[-82.37521699977172,36.10586200021194],[-82.37872599983285,36.103253000062246],[-82.3804749999281,36.09934700002608],[-82.38921799985619,36.09709699982628],[-82.40979799967181,36.0830189996775],[-82.46058300021136,36.00772400009047],[-82.47041599973554,36.002887000263364],[-82.47594000003069,35.998220999645774],[-82.48159099964914,35.998029000196645],[-82.48416999994778,35.9933009998416],[-82.49996399961012,35.98244099980904],[-82.50332399970836,35.98215800000632],[-82.50518400013168,35.97754699982877],[-82.51029800034802,35.977292000305624],[-82.51284900015925,35.97530099981895],[-82.51707700009571,35.97582500008855],[-82.52212099999186,35.97401200016978],[-82.52503099982827,35.97105500034427],[-82.5306930002157,35.972225999683886],[-82.54968600031778,35.964049000068954],[-82.55798800020492,35.95387299997515],[-82.57616899964694,35.958719999857],[-82.57779800009159,35.96433400029041],[-82.58046199988073,35.965247999643445],[-82.59198199957584,35.96628899985937],[-82.60010600008604,35.96459400034782],[-82.61070299969137,35.96720299984849],[-82.6109389996929,35.97438000035589],[-82.60441299966521,35.98746300019853],[-82.6071280004063,35.99235999969224],[-82.61289700002554,35.993606000231615],[-82.61492800015309,36.00204599970087],[-82.61382500013822,36.00491700032404],[-82.60687599961291,36.01043000013677],[-82.6094449998658,36.011037999754606],[-82.60776100006788,36.015753999796],[-82.60283900037048,36.01775600005454],[-82.60292300003606,36.02337099999384],[-82.59099499991194,36.03157399979782],[-82.59078599967455,36.03364000015643],[-82.5932090003376,36.036207000174564],[-82.6016590003627,36.036054000305334],[-82.60187600009769,36.03865300002188],[-82.60865900004333,36.04441099995739],[-82.61838399961246,36.046916000337895],[-82.6170420001213,36.053767999981716],[-82.61824200022055,36.05624000031537],[-82.63205499998405,36.06402099976071],[-82.632608000178,36.06591099998537],[-82.63723000029977,36.06582000023777],[-82.65153299960971,36.05736800019232],[-82.65926799995748,36.057117000321604],[-82.66634600035424,36.053035999740914],[-82.6705619996968,36.05297600020509],[-82.67485099973263,36.04883299986411],[-82.68407300023483,36.045794999932],[-82.6859870001865,36.041421000105906],[-82.68958599976102,36.038157000048024],[-82.69722400002442,36.035783000168195],[-82.69818999977193,36.03420000010217],[-82.70122799965488,36.0343590002989],[-82.70179599991744,36.032649999968044],[-82.70863999996246,36.029720999839526],[-82.71514099987581,36.02864199994601],[-82.71646999984647,36.02241000015341],[-82.72546399984473,36.0181610002616],[-82.73911699977465,36.0149789997372],[-82.74028400026195,36.012132000240655],[-82.75078700015592,36.00887099979646],[-82.7502210004415,36.005980999767814],[-82.75256800003822,36.006201999706306],[-82.75469299987711,36.004318000344284],[-82.76256999961679,36.00484399966374],[-82.77207300032639,36.00070400006559],[-82.7757580001146,36.001051000093405],[-82.779213999574,35.9922889999817],[-82.78527599999451,35.98853900005316],[-82.78447599992833,35.98188399990324],[-82.78569000027129,35.977840999753106],[-82.78158700000832,35.97429700005091],[-82.776504999579,35.97405799983249],[-82.77508600009497,35.971828999863554],[-82.7780379997642,35.96677299976833],[-82.78504300036602,35.962483000098935],[-82.78755999984203,35.95201299991177],[-82.79137500022495,35.950996999670906],[-82.79454500035237,35.94693299967725],[-82.79972700034077,35.94466099974774],[-82.80616799997966,35.93775800031961],[-82.80267499981204,35.92957099982255],[-82.80508500005627,35.92713699989757],[-82.81508599980992,35.92554699969258],[-82.8219480002966,35.92183000027376],[-82.82809799968234,35.932412999799034],[-82.83240599998473,35.93281300030904],[-82.83347200018967,35.93559800026371],[-82.83863800028456,35.93727099984683],[-82.84111600030086,35.94174099987709],[-82.84454599982097,35.941986999856205],[-82.84603700017337,35.94616900015526],[-82.85173299999767,35.9493439997396],[-82.86064699962998,35.947479000200985],[-82.8742929998872,35.95282999994484],[-82.87822299989783,35.95011699980498],[-82.8889860000828,35.94834399982833],[-82.89266199965022,35.94500299976977],[-82.89818199974742,35.945230000196254],[-82.90178399969498,35.93785199981146],[-82.89888599955411,35.92987599985675],[-82.90181999968,35.926960000171505],[-82.90594700023242,35.92619699983795],[-82.91062100023271,35.927505000266684],[-82.91219500042577,35.92959400023343],[-82.91983500033899,35.9288859998573],[-82.91924100013715,35.92589200016089],[-82.91353500026709,35.92426099987464],[-82.91162399979015,35.91680800022933],[-82.9143870002118,35.91515000008822],[-82.90973400012791,35.9109680001941],[-82.90803199988834,35.911313999911016],[-82.9069799999271,35.907429000223914],[-82.90810899988124,35.90420400008432],[-82.90104300007835,35.892790999883424],[-82.9068250001164,35.883908000338295],[-82.90362700039988,35.8804579997705],[-82.89828600040282,35.881258000142076],[-82.89623199981071,35.879151999798054],[-82.9008909997424,35.87290899983611],[-82.90655499977964,35.87018000034587],[-82.91077400039359,35.86857299991464],[-82.92083100022374,35.868177999686274],[-82.92143200009829,35.86310499997401],[-82.91821299956703,35.85927200000341],[-82.92103399971501,35.85094500016164],[-82.91634299999629,35.84166299966541],[-82.92021100008262,35.839384999702936],[-82.93406999987688,35.83666199966021],[-82.93334299960564,35.83052899996629],[-82.93603499988218,35.82551699988717],[-82.94584700038828,35.82437800025959],[-82.94819599963482,35.817784000027764],[-82.95176400014552,35.816607999853936],[-82.96181099992991,35.80036599968128],[-82.96289999970108,35.79492400002066],[-82.9617540000285,35.79095900005751],[-82.97087799972309,35.788998999671385],[-82.98380099990706,35.778173999767326],[-82.99211000036519,35.773915000060455],[-83.00116399973957,35.773718999890875],[-83.005988000426,35.77849600017801],[-83.0109029995524,35.778744999748525],[-83.01602500016467,35.78204900008165],[-83.02034799963738,35.78040199968484],[-83.02388600001082,35.783419999856534],[-83.03604199974059,35.78750399984089],[-83.04306200041101,35.78540700008511],[-83.05282100031533,35.78970499988934],[-83.06374699980861,35.78691399969473],[-83.07433599991633,35.790148000048106],[-83.07867199980781,35.78963099966326],[-83.0810639996104,35.787086999875214],[-83.08513000006344,35.785932000144854],[-83.08616100010829,35.78382199974371],[-83.09458000017126,35.77960000022246],[-83.09783999981207,35.77579399973392],[-83.10460299966624,35.774376999798136],[-83.111204000037,35.770623999851466],[-83.11823899987772,35.76978399990253],[-83.12060800011406,35.76643099992741],[-83.12746399985465,35.768085999849646],[-83.1364710002717,35.76513900032698],[-83.1595850001801,35.76465099973646],[-83.164971000383,35.75968000000257],[-83.16478999973472,35.75398800036428],[-83.16832300008531,35.750757999954985],[-83.17028499971758,35.746030000082676],[-83.1777919995614,35.744382999644706],[-83.18590600002588,35.73009700022818],[-83.19774200008847,35.725252999963125],[-83.20738299999202,35.72619100008285],[-83.21419600007489,35.7241130000679],[-83.2180819997046,35.72595800028413],[-83.24082700044036,35.72685600015448],[-83.24324900038017,35.72252000028188],[-83.25150699988637,35.719751999836696],[-83.25535599970613,35.7152439998862],[-83.25156799998574,35.708973999660756],[-83.2574300003897,35.705120000081905],[-83.25432499966129,35.69544499973465],[-83.25761199996458,35.693969000320834],[-83.25929099973963,35.69037099991572],[-83.2706799999135,35.686826999663985],[-83.2711660001603,35.683167999968276],[-83.27446699980898,35.679075999875316],[-83.28134199981615,35.67769900035463],[-83.28398899988684,35.67446299983918],[-83.29030499985225,35.67349800034463],[-83.29354500029987,35.661879000104555],[-83.29824400041453,35.657255000017315],[-83.31207600044459,35.65461200029964],[-83.3216160000658,35.66305399994521],[-83.33465600042561,35.66566199976477],[-83.33872100015545,35.66363399975348],[-83.34106399955422,35.664589000123044],[-83.34500699998364,35.6612090000203],[-83.35081599978587,35.66054199991014],[-83.35596900036026,35.65430500032473],[-83.35593300037525,35.6507569997494],[-83.35827300029928,35.6469979998269],[-83.36605600032763,35.64102799996061],[-83.36779700002695,35.63784100004016],[-83.37182800031992,35.63916299999119],[-83.37808700038393,35.634562000279494],[-83.38872599982203,35.63362200028429],[-83.39167099981854,35.626564000072854],[-83.39614700035044,35.62286600021754],[-83.40553299998585,35.620511999845306],[-83.4150340001473,35.6145040000862],[-83.42013499994485,35.613516999673735],[-83.42203800002588,35.61104900023054],[-83.4323030002685,35.60999000003006],[-83.44567599981593,35.61174699978076],[-83.45164799982477,35.603527999945015],[-83.45501100029605,35.60202200035779],[-83.45658899978875,35.597194000132966],[-83.46145199993492,35.59528600013239],[-83.46269200021715,35.59257000029756],[-83.47129600022805,35.590268000239966],[-83.47285399962927,35.58625200013468],[-83.4790719996854,35.58321799996039],[-83.47863099964442,35.579190000317965],[-83.48535699968868,35.568471000288014],[-83.49331700016734,35.56683000000508],[-83.49854400036159,35.562888000014794],[-83.51656400014514,35.56243800003371],[-83.52129500004683,35.56559200022323],[-83.53198399971366,35.56448500031784],[-83.540716999596,35.56586500006709],[-83.55104299993799,35.56345399967373],[-83.56497899972513,35.56609099988996],[-83.5665250003291,35.56429400019594],[-83.57266300001928,35.56538100028751],[-83.58437400040842,35.562698000152366],[-83.5961169996863,35.5749990001673],[-83.59830199979965,35.57499999969505],[-83.60177400005087,35.57891900026896],[-83.60833600006357,35.58001500023573],[-83.61857100016896,35.5722540000082],[-83.62130799975303,35.57269699984688],[-83.62931300043753,35.56817100004829],[-83.63386199986604,35.5706719999426],[-83.63532899992899,35.56809599981287],[-83.64013000015089,35.56616500017198],[-83.64515200030571,35.56591299966245],[-83.65601400022489,35.570013000308734],[-83.66100200004453,35.568338999882506],[-83.66380499975084,35.56975600005235],[-83.67975699959692,35.57035099984008],[-83.68769699998413,35.56819700021097],[-83.69560999970881,35.57032200015671],[-83.70124199995901,35.56747600004911],[-83.70698999966184,35.568550999675104],[-83.71247499959895,35.56640200024986],[-83.71400699995922,35.56418299971313],[-83.72277199962862,35.56229600013553],[-83.73613699967845,35.565520999811625],[-83.74715799960629,35.56030799998929],[-83.75499199968827,35.56461499971957],[-83.75955100006084,35.562572999708706],[-83.77188900026378,35.561390000120866],[-83.77266599986542,35.5574319996751],[-83.78018199993006,35.55063400022799],[-83.79464599979681,35.545649000145154],[-83.79878500004482,35.54164100013267],[-83.8028039997439,35.54148699986271],[-83.80803799961083,35.53709300017357],[-83.80989300001129,35.53299600008508],[-83.8204670000504,35.525651999935704],[-83.83214300027943,35.52457399995966],[-83.8491439997137,35.518631999651376],[-83.85718100018528,35.521573000359176],[-83.86806900004372,35.520008000303086],[-83.87323599996353,35.52085599991546],[-83.88021499972774,35.518842000282454],[-83.88992699977639,35.504663000279805],[-83.9014659997381,35.4965520001095],[-83.90036500027135,35.49303100010292],[-83.90578099971319,35.488689000282974],[-83.91187499992074,35.47606800032493],[-83.91662099989105,35.473649000158105],[-83.92414100015368,35.47431100008884],[-83.93672299985577,35.4715530000516],[-83.94197000014152,35.46731199964913],[-83.94287899998763,35.46439800029997],[-83.94964900041279,35.46094100017974],[-83.95296400030517,35.4605429997792],[-83.95577200003437,35.46364500013919],[-83.96108000041947,35.464137999919956],[-83.96278099993582,35.45661599990737],[-83.96569300032039,35.45623799972542],[-83.9646239997424,35.454111999987646],[-83.9718550003,35.45484899981514],[-83.97109600024172,35.45300700018675],[-83.97328899985267,35.45276199997361],[-83.97265500036617,35.44729799969835],[-83.97512800035959,35.44801100017518],[-83.97609400010711,35.446537000238884],[-83.97975700015405,35.44826000025349],[-83.98443299980416,35.44014999977987],[-83.98798299987318,35.44092099988357],[-83.98891900038178,35.43908700008057],[-83.9920040001204,35.440522999989845],[-83.99471200029048,35.43518000026601],[-83.99959299998,35.43389300010999],[-83.9993899995904,35.431240999977845],[-83.99795500021283,35.43073199996328],[-84.00128000015096,35.423390999798954],[-84.0144409999863,35.412348999802305],[-84.02342499993881,35.411581000263446],[-84.01871199958046,35.399995999957966],[-84.01386699987593,35.39788499977735],[-84.01251299979091,35.392191999959664],[-84.00822200010526,35.390573999677414],[-84.01139600043065,35.384601000079655],[-84.00830099974797,35.378766000157526],[-84.00874199978894,35.37281799995047],[-84.00739399955168,35.37164899982253],[-84.01505699992944,35.364980999902336],[-84.0233339997022,35.354311999919645],[-84.0380829999743,35.35117999979922],[-84.03888100039065,35.3482080001003],[-84.03400099962772,35.34327599980032],[-84.0361949999619,35.33765800011658],[-84.03147400010593,35.33652900036632],[-84.02925700020555,35.33309999999241],[-84.0344919998974,35.32255700014838],[-84.03588399961725,35.31321499998687],[-84.03411500032885,35.31118300013826],[-84.02696900016007,35.30967199984865],[-84.0262979999653,35.30632099979034],[-84.02141899992561,35.301400999906804],[-84.02337800008314,35.29630799994509],[-84.03623900034282,35.28841800030245],[-84.04081700008363,35.27960000033722],[-84.04688700000176,35.27424999993674],[-84.05100799980809,35.27333799970289],[-84.0525359999704,35.270189000157124],[-84.0808519999587,35.261252000168454],[-84.08252999990883,35.25628800001577],[-84.09231800012547,35.249374000267245],[-84.09750400031183,35.24759799981453],[-84.1025630002766,35.24836500010675],[-84.10647700039368,35.251491000304235],[-84.1135540000672,35.248981000039294],[-84.11992699993402,35.25204899997026],[-84.12522000025051,35.24987100005269],[-84.1267190001005,35.246304999669064],[-84.12572099966762,35.24212099979321],[-84.12711099973765,35.24077000036551],[-84.13361900022201,35.24237699986689],[-84.13940000043512,35.2460969999338],[-84.14776099987347,35.24686399975267],[-84.15922899969006,35.24571999992481],[-84.16146099965907,35.243522999862435],[-84.17002600021023,35.246459999727975],[-84.17853899998455,35.24063800003674],[-84.18351299956049,35.23999599997623],[-84.18895700038803,35.240217000209554],[-84.19337500029528,35.24477900024874],[-84.19951999965816,35.24385400025516],[-84.20298199986364,35.255291000289944],[-84.21139500007884,35.26562100010945],[-84.22412200044423,35.26898499981042],[-84.23250399979896,35.26424500019847],[-84.24252100034445,35.2534869999902],[-84.2508319995541,35.25071999994775],[-84.25837100008329,35.245662999720295],[-84.26040899988351,35.24183299966142],[-84.275908999818,35.23420399982675],[-84.28329699983612,35.22645900025735],[-84.28810300008091,35.22434599998961],[-84.29021399967608,35.225431999753326],[-84.32182100016563,34.98840799978623],[-83.61995000036833,34.9866690003375],[-83.62005099975238,34.99203199996101],[-83.29685000014652,34.996275000258365],[-83.1086130000428,35.000659000054426],[-82.78317200007203,35.08592099995468],[-82.77622799956958,35.081163999758566],[-82.77699699967361,35.077575000316806],[-82.77868300001965,35.077355000161326],[-82.77739400023196,35.07543400024999],[-82.7801149999225,35.07241699976298],[-82.778924999869,35.070561000007864],[-82.782114000263,35.06688799972844],[-82.78173099994835,35.06530499994051],[-82.7741029997307,35.06481299979355],[-82.77009099970431,35.06773899976885],[-82.76457499980506,35.06837999966115],[-82.75651099956933,35.0673600003205],[-82.75267599999326,35.07026599985543],[-82.75111299967085,35.0738930001039],[-82.75135700006832,35.0815290001111],[-82.7389159999332,35.07809499979656],[-82.73970900032668,35.08048899970837],[-82.73506299991548,35.084237999821944],[-82.73528300002351,35.087157999777155],[-82.7303129997472,35.08765499965626],[-82.72997700018655,35.09203100032085],[-82.72673300043927,35.094673000327816],[-82.715760000192,35.092853999928124],[-82.70007000028674,35.10089099981261],[-82.69973399982777,35.0962770001251],[-82.69763400010325,35.09595999980992],[-82.68676499961305,35.10802499968793],[-82.68711500031574,35.110773000052696],[-82.69363399977243,35.11324200011449],[-82.69453599994583,35.116161999692544],[-82.69232800026627,35.11893900025542],[-82.68773799993157,35.119049999834054],[-82.68637999964858,35.12124000034948],[-82.68727799962404,35.125293999856154],[-82.68174699965617,35.12797200004346],[-82.67487800039511,35.12729900019455],[-82.67329499998124,35.122146000062465],[-82.67513899961273,35.118029999981474],[-82.67356299976983,35.1172620001539],[-82.66923799974899,35.120600000006775],[-82.66689000032734,35.11805399981355],[-82.65570799984272,35.11994099992875],[-82.65193600001585,35.12314499999078],[-82.65194299968854,35.12619400030536],[-82.64486099999215,35.126986999765364],[-82.64334799989845,35.13378199984252],[-82.63956000017807,35.12987399973033],[-82.63649100033295,35.13006499975249],[-82.63614499982823,35.12545699989948],[-82.62875599998519,35.125776999986726],[-82.62417700041946,35.13061799987139],[-82.62369000034775,35.133635000309575],[-82.61486000038101,35.13622700011256],[-82.61309500039224,35.13965400029178],[-82.59783200028426,35.13770899983582],[-82.59260900028796,35.138623999674955],[-82.59186799977303,35.141254999870746],[-82.58852299974342,35.14276600000188],[-82.57853000038568,35.14104900014015],[-82.5754620003655,35.14551400002336],[-82.5727440001497,35.14418800028621],[-82.56859599968088,35.145465999641964],[-82.56766300044362,35.14918100017152],[-82.56422499962929,35.15235800031678],[-82.5579029998161,35.15067999980856],[-82.55406700041512,35.15256499969851],[-82.55316000021882,35.15339300003819],[-82.55590100000087,35.15651900029247],[-82.55564099970985,35.1594660001794],[-82.55324600043255,35.1615719998252],[-82.54770399969571,35.16211300031267],[-82.5458860000035,35.16422199965054],[-82.54474100015584,35.16192499986029],[-82.53679999994375,35.16003799963779],[-82.53591100018912,35.15447600005045],[-82.53239299990716,35.1561119998679],[-82.52738199962296,35.15579500027052],[-82.51976299962615,35.159174999727895],[-82.51692499975974,35.16321100011069],[-82.50768300006436,35.162271999828754],[-82.50419900011758,35.16587900009146],[-82.49547600028099,35.16203600032448],[-82.49554200040322,35.164502000211456],[-82.4921880001528,35.16824600014475],[-82.48699899959337,35.16980200015793],[-82.48632699957372,35.174172999747334],[-82.48002999987487,35.17424500023623],[-82.47816100012903,35.175979999986424],[-82.47494499997086,35.17388700029637],[-82.46820600040614,35.174352999748585],[-82.46066799970185,35.17793600036071],[-82.4549679996796,35.17694099981418],[-82.45178000000881,35.172597000241566],[-82.45792500027,35.167007000197366],[-82.45731699982447,35.163923999951216],[-82.45085400044428,35.16565199966992],[-82.43987000032635,35.16574299980826],[-82.43460899979692,35.16798000024142],[-82.43546900013753,35.170489000147896],[-82.43235699973644,35.172371999723865],[-82.4308040003581,35.17792299967423],[-82.42588900033336,35.17940099978944],[-82.42828199996086,35.18377900003567],[-82.42517499958262,35.19004999986473],[-82.42280500041966,35.190817000179834],[-82.4242160004061,35.1930760000086],[-82.42262299994648,35.195887000234215],[-82.4165270000891,35.201028999768795],[-82.41581599971138,35.199235000273646],[-82.41221999961161,35.202365000331454],[-82.40011999995835,35.20519000031839],[-82.39826299990807,35.20686100035072],[-82.39936400027311,35.20934699965456],[-82.39424000001101,35.21509400020091],[-82.39208199966187,35.21539700033335],[-82.38987999983009,35.2154850003125],[-82.38767299997545,35.21243000031078],[-82.38392700008784,35.21084799990516],[-82.3821350003349,35.20342899971709],[-82.37811900011054,35.196568000313874],[-82.38307000012027,35.19423700034773],[-82.38313399969437,35.190831000166135],[-82.38081300003691,35.18745799970969],[-82.37123400005764,35.180648999743184],[-82.36888800028582,35.18087300009751],[-82.36229199993792,35.18634899972449],[-82.36451300003628,35.188620000226614],[-82.36079399991286,35.19027800034038],[-82.35964400004231,35.19248899994458],[-82.35239699959118,35.19015300015563],[-82.3503859995551,35.19291799966941],[-82.34441600009443,35.193687999648795],[-82.33902300021883,35.188557999945175],[-82.33367899984871,35.190838000158415],[-82.33082099989082,35.189600000120244],[-82.32993799998397,35.18677599967687],[-82.32375300043813,35.185087999652005],[-82.31507699955888,35.19071300010099],[-82.29416000035769,35.1954110003385],[-82.29107999974364,35.20008499990519],[-82.1084320002324,35.19136399994879],[-81.76336200012491,35.18049000018236],[-81.40838199960206,35.16721899994457],[-81.14751299999509,35.15596099970869],[-81.0342640001105,35.14925700016986],[-81.0463319999767,35.14672900029585],[-81.05207399983176,35.13348600004739],[-81.05045600015607,35.13110899990374],[-81.04212499995664,35.12825299964451],[-81.03800900017319,35.124472000062894],[-81.03279200002467,35.113787999809475],[-81.03285399994897,35.10737699988058],[-81.03671600018752,35.10273499967712],[-81.05037999998811,35.09837200034559],[-81.05707900026817,35.08568100004996],[-81.05767199974677,35.061866999923275],[-81.05092300013632,35.05670900006156],[-81.04149599959472,35.044712999713376],[-80.93473900030095,35.10731799995978],[-80.88529000030306,35.053956999694535],[-80.8228389995802,34.981033000276135],[-80.78192099979832,34.935848000359],[-80.79748400038027,34.81980299965922],[-80.46244799963839,34.8164800002934],[-79.93125799976846,34.80671099998166],[-79.6764940002397,34.805065000189245],[-79.38984600021195,34.57245300036644],[-79.21820399966163,34.42282900008769],[-78.6252149998953,33.92311000036502],[-78.54108000041535,33.85111999988571],[-78.4993009995696,33.812851999878454],[-78.39900199963316,33.84326200023803],[-78.36712399988026,33.851597000045615],[-78.35450600019315,33.852251999739806],[-78.34120800009046,33.855292999638564],[-78.26233500006654,33.86316300016337],[-78.22377300010221,33.862475000191246],[-78.16916399985723,33.86408899996281],[-78.14535299981482,33.86273400010822],[-78.06658100007326,33.84798499994037],[-78.06275599964461,33.839202999681724],[-78.05289499963305,33.82743199969414],[-78.04098099975263,33.818773999642325],[-78.012859999758,33.80386300009295],[-78.01142799985514,33.788894999939565],[-78.00902699983176,33.78172899974398],[-77.99970999979331,33.76713000033482],[-77.97324500000751,33.75474300021998],[-77.95384799967438,33.752877999797406],[-77.94306100009828,33.753769999804],[-77.9292840003198,33.757984000191406],[-77.91750500015857,33.76381999971721],[-77.90243600021934,33.77851999969322],[-77.89665900020418,33.787547000320245],[-77.89368599972025,33.80470200021625],[-77.89678200022783,33.819709999812524],[-77.89530699976896,33.8353050003288],[-77.89897499983877,33.848528000146786],[-77.89896999981589,33.854638999789785],[-77.8956459997027,33.86390799993455],[-77.8942459995869,33.87865500034692],[-77.88610899955621,33.89119500018095],[-77.88451900036794,33.90367000001127],[-77.86353399959806,33.93467000016134],[-77.86216899964238,33.94860900026747],[-77.85525199980242,33.96009500022267],[-77.8409360000737,34.000172999766946],[-77.84204099973837,34.000172999766946],[-77.83020600039899,34.030282999737445],[-77.8002529995701,34.09071200012643],[-77.78555500024996,34.12517100009477],[-77.77496600014224,34.138665000107366],[-77.75379100029987,34.15502299988982],[-77.74970200028059,34.16121399980139],[-77.74712100033214,34.17102099973029],[-77.74742000008288,34.17559400011823],[-77.73982799985023,34.18054199997623],[-77.73075600003418,34.18978799987754],[-77.72295299991434,34.2099970003278],[-77.70928800028886,34.221813000366666],[-77.70082599966986,34.2359990000294],[-77.69109299970482,34.24574399964258],[-77.68032100019731,34.2501689999253],[-77.66845300034763,34.258301999824326],[-77.65582899991442,34.27399899984581],[-77.62357899971752,34.303161999722455],[-77.60858900031933,34.31013599982672],[-77.59487500029003,34.32373699994217],[-77.55673199972703,34.3536509998754],[-77.5161620000997,34.382442999744256],[-77.4188319995509,34.43592300025596],[-77.34127099977921,34.47166300006923],[-77.2950770002976,34.48896800013706],[-77.26024399960413,34.51101800001733],[-77.2191760000344,34.53965999970242],[-77.16057599967944,34.56902600030834],[-77.12299899972918,34.58437499996781],[-77.09431100019522,34.58859099966821],[-77.07920799992078,34.595973999954445],[-76.99966600025029,34.6170089999525],[-76.90462799994494,34.63233900005225],[-76.81893699981528,34.643253000345894],[-76.74965500036451,34.64766500006052],[-76.72982700003618,34.647209999860806],[-76.69279999990682,34.64295000009518],[-76.67722700017744,34.63430400012469],[-76.6147219999262,34.61827800021877],[-76.61234400036734,34.60012800031684],[-76.59548500032498,34.57784299975024],[-76.59074500020243,34.56313000034946],[-76.58372000040748,34.55262500001006],[-76.57206599991972,34.54254400029478],[-76.56250899968177,34.536912000324875],[-76.54787400011081,34.53283899975104],[-76.52437799971266,34.532155000345966],[-76.51486700040378,34.535141999959286],[-76.49199100014674,34.54653200005889],[-76.48318299992133,34.55636000022847],[-76.47746000033284,34.56620399988398],[-76.46633800012266,34.595738000145005],[-76.43900100030068,34.640288000131584],[-76.37463800017426,34.71599099968864],[-76.31573099967264,34.77603000032371],[-76.24963199986976,34.83463100018704],[-76.21924799994399,34.85642199969277],[-76.12462599956527,34.933081000172486],[-76.03259599990399,35.00016899990468],[-76.02442999956098,35.005363999759155],[-76.00295900034092,35.00639200026991],[-75.99474399959412,35.008793000340496],[-75.98535100028602,35.013977000048264],[-75.96709299995277,35.02860000023615],[-75.95007300025192,35.03961700024373],[-75.93873299958354,35.05144900033953],[-75.92810300036628,35.05952399972799],[-75.90858800003237,35.0715219996916],[-75.87093599973905,35.08981699981699],[-75.80772400020639,35.11590600007342],[-75.7948830000382,35.119228999782585],[-75.73621400008626,35.140705000069694],[-75.70737000001836,35.14611099996822],[-75.67237900003946,35.16021000012118],[-75.63621499972548,35.172204999876904],[-75.5953689999136,35.182827000220925],[-75.58110800043644,35.18378399993973],[-75.56471300000125,35.17329800018302],[-75.54800299992182,35.16818399974263],[-75.5321759997492,35.167149000213854],[-75.51921300028059,35.1690830002127],[-75.50132400001829,35.17613399991789],[-75.48768500033206,35.18499399997615],[-75.48457100028114,35.18757700003099],[-75.47085899990164,35.2087279999099],[-75.45933400018365,35.24655200026657],[-75.44775099984102,35.30979400020535],[-75.4261349999577,35.386923000065536],[-75.42349600028292,35.42765200009213],[-75.4150889999155,35.500179999728125],[-75.40242199982457,35.544210000361545],[-75.40011899971046,35.575411000361434],[-75.40038999987212,35.59351200004291],[-75.41135300007362,35.66006100020412],[-75.41781999965178,35.68608199976483],[-75.43761700001798,35.7469600002988],[-75.45162999979802,35.771556999760065],[-75.46081499959199,35.78452400002302],[-75.46112400028677,35.79017100014356],[-75.4662369997799,35.801314999851236],[-75.48050099963011,35.81420699980324],[-75.51151399991782,35.87517500026122],[-75.5660469999948,35.97561399965886],[-75.58160800002864,36.000164999901415],[-75.66624600037214,36.14892400012653],[-75.70907800010572,36.2449840001508],[-75.7496350002126,36.35360600023014],[-75.79055800001736,36.500155999842036],[-75.79749699959864,36.55091599982094],[-76.74895400003255,36.5507479999891],[-76.91589900011805,36.552149000117296],[-76.9172260004389,36.54625299967956],[-76.91597699993585,36.543884000300785],[-77.1529199998727,36.54412999966115],[-77.17054499964604,36.547280000135075],[-77.20653599970764,36.54436700004715]]]}}]}