{"type":"FeatureCollection","features":[{"type":"Feature","properties":{"GEOID":"31","NAME":"Nebraska","STATE":"31"},"geometry":{"type":"Polygon","coordinates":[[[-95.93779100043564,41.390752000176214],[-95.93675199999488,41.397873000260894],[-95.92967699997119,41.411071000067814],[-95.93277799960333,41.43081499977326],[-95.9208570000502,41.44342800000076],[-95.91998900021198,41.452603999811274],[-95.9245100000514,41.45891400001781],[-95.93634000026624,41.46530399985403],[-95.94500700002634,41.4664850002663],[-95.95837200007618,41.46321800029009],[-95.966688000207,41.463425000227055],[-95.98427899964514,41.4709390000534],[-96.00493600035196,41.4724130000326],[-96.01358499967041,41.478468999693554],[-96.01856300034264,41.4849909997844],[-96.01954300033385,41.491591999726126],[-96.00064899996599,41.5025400002753],[-95.99328000021441,41.51231400029589],[-95.9943079998862,41.523743000330185],[-95.99996600007567,41.539479999972905],[-96.00511200007907,41.54325000017069],[-96.01387599992354,41.54531499998207],[-96.0234900000629,41.543438000068114],[-96.0266569998173,41.54036600031819],[-96.03112699960307,41.52300399972106],[-96.03444099967054,41.5210509998656],[-96.034352999807,41.51276099968624],[-96.03660300021767,41.509046999760315],[-96.04061299969592,41.50689300017595],[-96.05276500012603,41.50843599967528],[-96.07338900032258,41.52352900009455],[-96.08265399958417,41.52597399996701],[-96.09011799977029,41.53170200015554],[-96.09443699994335,41.53946299998343],[-96.09661700003382,41.5456259997303],[-96.09504200001584,41.55476799970909],[-96.09125900031832,41.56224399968078],[-96.08248600025298,41.57114499978572],[-96.08138999991081,41.577900000161826],[-96.08396300036168,41.58368300017683],[-96.08718600019256,41.58655000005762],[-96.10133100021706,41.59141100026515],[-96.10945499982896,41.59677500010568],[-96.11581099997734,41.60565899998981],[-96.11827700029806,41.614967000040316],[-96.11599500010036,41.62202399977368],[-96.09777699995009,41.63962500024283],[-96.09522100011597,41.65011400012904],[-96.10005499994983,41.66107699979277],[-96.11795900028076,41.67331400026483],[-96.12104800021734,41.67700199979772],[-96.12260399996873,41.68303999985784],[-96.11986099963856,41.69264900030638],[-96.11346100000756,41.697569000099726],[-96.10381400025625,41.69940300014488],[-96.08464000040419,41.6977089998682],[-96.07733100002878,41.70023200003157],[-96.07322500029105,41.704062000014815],[-96.07336099983517,41.71019899973271],[-96.07664200029069,41.71565699979602],[-96.08527200024086,41.72131300029728],[-96.10221199957577,41.72764100023968],[-96.10532899999976,41.73150499975498],[-96.10638000013608,41.73776200015972],[-96.1048050001181,41.74301600016622],[-96.1009810004127,41.747572000306185],[-96.08736100009475,41.752175999921114],[-96.08089000031862,41.75752600014354],[-96.07849699979282,41.76263199976196],[-96.07902099967447,41.772350000017155],[-96.07754600011393,41.777822000232845],[-96.06637700004808,41.78898100012895],[-96.06486300012948,41.79188899998931],[-96.06532699973664,41.79717300003344],[-96.06956100041921,41.803217999917635],[-96.07677399963686,41.80853400005288],[-96.09747999984917,41.813916999919705],[-96.106565000084,41.819613000228266],[-96.10938399968384,41.82313499992103],[-96.11096200007486,41.828827000173234],[-96.10761700004525,41.84040000023271],[-96.11054799979807,41.84919899970627],[-96.11659699979981,41.855103000189146],[-96.13495999971502,41.8632520000525],[-96.14190800041543,41.868998999816796],[-96.14597399997017,41.875093000232866],[-96.14878300042257,41.88820499990808],[-96.16175599993694,41.901820000082054],[-96.16198799974053,41.90555300009352],[-96.1590979999956,41.91005699983098],[-96.14226499989249,41.91537900031291],[-96.13674300014546,41.92082600003354],[-96.13661300044912,41.92716699977925],[-96.14349299958083,41.937387000140795],[-96.14458300007522,41.941544000297434],[-96.14259700015351,41.94590799990367],[-96.13539300025838,41.95222300006382],[-96.12997799974316,41.9626420002958],[-96.12889999984264,41.969727000030744],[-96.13035500021003,41.97286299977435],[-96.14271500015428,41.97849100002587],[-96.1580490004074,41.98027499995664],[-96.17720399999286,41.97630800028658],[-96.18721899999022,41.97794600021162],[-96.19060800040077,41.98072900015416],[-96.19214099968764,41.98446099974483],[-96.1842549997271,41.99663399994118],[-96.18400200000713,42.0030629997442],[-96.18591900033185,42.0059139997388],[-96.19455599995474,42.00866200022639],[-96.20608300022087,42.009266999986345],[-96.21522500035712,42.00670099993537],[-96.22264099996436,41.996451000095924],[-96.2271719998495,41.994331999682174],[-96.23495200040313,41.99573599981501],[-96.24071299962644,41.99935100004657],[-96.24237999970593,42.002898000128404],[-96.24083200035045,42.00931499987094],[-96.23885999977412,42.01231500021476],[-96.22361099990982,42.022652000215196],[-96.22190100017265,42.029557999690304],[-96.22565600028109,42.03521699995286],[-96.23503400041889,42.04013699977297],[-96.22697699985584,42.03735300023254],[-96.23025300028849,42.03943299967788],[-96.23435599965315,42.04071199987309],[-96.24683199994837,42.041615999830405],[-96.25835599984144,42.038337999827824],[-96.26806299986724,42.04170499979125],[-96.27439300007636,42.04924399971367],[-96.27804299970448,42.05841200014311],[-96.27947899980528,42.070879999950186],[-96.27675300009187,42.08169599989918],[-96.26773900000214,42.097054999859786],[-96.26698800033978,42.10617200032273],[-96.26945899978506,42.114215999909376],[-96.27458399987205,42.12033699988277],[-96.28300200011013,42.12503099982212],[-96.30015400005546,42.12769600003424],[-96.30975800014907,42.13210100017599],[-96.31404600035998,42.136448999746385],[-96.32073999971885,42.14792799996915],[-96.32685499984281,42.1523240001193],[-96.34022800028858,42.15805700024741],[-96.34860200014572,42.16802700022328],[-96.3503610002867,42.17690299986787],[-96.3472780001979,42.18577399976666],[-96.34737399955905,42.193075000292204],[-96.34956700006832,42.19814100029685],[-96.35986999994576,42.21055300028263],[-96.35659100003839,42.21518200009943],[-96.33699799988668,42.21746599987838],[-96.32372300024853,42.22988700001354],[-96.32286799993078,42.233636999854795],[-96.33000599970367,42.24022499993763],[-96.32770599996259,42.24999199995009],[-96.32889699984102,42.25472300025433],[-96.3359640003671,42.26477699995298],[-96.34138700037994,42.269086999799285],[-96.35655000003051,42.27659400005328],[-96.36575099971799,42.2858139997787],[-96.36846700028399,42.29261900008602],[-96.36921200009854,42.30834399972267],[-96.37530700013103,42.318338999962776],[-96.3841689998848,42.32587399980226],[-96.40799800036888,42.33740800003142],[-96.41389500003463,42.34339300004886],[-96.4177859996872,42.35144899995698],[-96.41709299975115,42.36144299968974],[-96.40843600003679,42.376091999994706],[-96.40915300026228,42.381490999865306],[-96.41497999960782,42.39344199987066],[-96.41518600037047,42.404203000051936],[-96.41030700033077,42.412965000223274],[-96.38760799962574,42.43249400029944],[-96.38070500002951,42.44639299988408],[-96.38130500007914,42.46169499993607],[-96.38600300036887,42.474495999752996],[-96.39612399977311,42.484361000294236],[-96.40196199988763,42.486439999867926],[-96.44548300025762,42.49062999995488],[-96.47877600019491,42.47970199979088],[-96.48949400017403,42.48010899992791],[-96.50131900036601,42.48274900022567],[-96.50858699983523,42.48669800019622],[-96.5158369997611,42.49422300023476],[-96.52062799993728,42.50469300024585],[-96.52877800038674,42.51326700022759],[-96.53798999994487,42.518128999745144],[-96.54878900011488,42.52054699987012],[-96.55777600044043,42.52038000007004],[-96.56789299964672,42.51787499982817],[-96.58435000000617,42.50783600001114],[-96.59111799988321,42.50540700013163],[-96.60347000032986,42.50446000030298],[-96.61148799963654,42.506086000275225],[-96.62596099972411,42.513578000069614],[-96.62818099999755,42.51696400007993],[-96.63279399989847,42.52869800012453],[-96.633322999803,42.54020999981039],[-96.63532999964109,42.54764000002417],[-96.64358499967256,42.55760699980114],[-96.6587520004194,42.56642399984451],[-96.67594899967224,42.57160100023828],[-96.68405899993876,42.57646199997986],[-96.706232000214,42.599222000195326],[-96.70982400011583,42.60510000015564],[-96.7115480000967,42.614758999990784],[-96.70948699983192,42.6219310003214],[-96.69685300025128,42.63759399983003],[-96.68778999975774,42.645993000027445],[-96.68708000010326,42.652093000033176],[-96.69126799985675,42.65619799982613],[-96.69763900007374,42.65914100020837],[-96.72802700019749,42.66687999976873],[-96.74694800032952,42.66622200031869],[-96.7640609999168,42.66198300000122],[-96.7767820004344,42.66271599986339],[-96.79323499969757,42.66602099974344],[-96.80083699997596,42.6696610000182],[-96.8021769998173,42.67223499993819],[-96.80048299997364,42.69246400029732],[-96.80161600012573,42.698775999738245],[-96.80621300013311,42.70415400006874],[-96.84341900036262,42.7120240000142],[-96.8604359996904,42.72079700014632],[-96.87278899996195,42.724095999758546],[-96.88684500029802,42.725222000233266],[-96.90679699957661,42.73379999982058],[-96.91828200000995,42.73185200000282],[-96.93345399988135,42.72380599998965],[-96.93758899993139,42.71959700004264],[-96.9615759997009,42.719841000174746],[-96.96477599996555,42.72245499987943],[-96.96583299994967,42.72709600028472],[-96.96129100019387,42.736569000039104],[-96.96123000009449,42.74062300021933],[-96.96888000005346,42.75427799969139],[-96.9791200001817,42.76009000001935],[-96.99281999996731,42.75948100019161],[-97.02485000005615,42.76242999971168],[-97.04167899996129,42.76796799986608],[-97.06722999987811,42.77232300024841],[-97.1126459999332,42.76912899997287],[-97.13025700036115,42.77154099973539],[-97.13446100000816,42.77449400005576],[-97.1382160001166,42.78342799982044],[-97.15076299965861,42.795565999836725],[-97.16697800016874,42.80208700019716],[-97.2004309999396,42.80548500002293],[-97.21012600026981,42.80929600011821],[-97.21308399978682,42.81300700021223],[-97.21395699964792,42.82014299969806],[-97.21826900014827,42.82956100023077],[-97.2174110003558,42.84351900009286],[-97.21882499981697,42.84584800016451],[-97.2319289997509,42.85133499994168],[-97.24855599998968,42.85538599980284],[-97.26794599975179,42.85258300017272],[-97.28985899973604,42.855499000229564],[-97.30207499974026,42.86565999981335],[-97.30667699977053,42.86760400026366],[-97.33615600004815,42.856801999832285],[-97.35956899970729,42.854816000227],[-97.36864300007149,42.85841899994352],[-97.37669499971335,42.86519500017747],[-97.39396399983455,42.864249999789436],[-97.39930300018179,42.86483500019903],[-97.40615499972441,42.86829100010643],[-97.41084700016637,42.86798399999658],[-97.42010499975525,42.86373699971024],[-97.42554299983671,42.85665800014046],[-97.43345499973647,42.85039299998664],[-97.43911399975086,42.8471100002158],[-97.44490500000971,42.84593200007434],[-97.45217699967691,42.84604800007566],[-97.47052899972148,42.850454999681524],[-97.48701000037039,42.850582000041214],[-97.49623000032445,42.853230999717944],[-97.50034100008504,42.85722000024594],[-97.50484699985584,42.85847699976964],[-97.52237100024516,42.85197899993398],[-97.55789399960332,42.84753200013281],[-97.57847400031724,42.8505439998676],[-97.60376199957003,42.85832900030976],[-97.61181099973716,42.85836700030282],[-97.65790300000985,42.84440000019896],[-97.68647699974102,42.84221200007214],[-97.72068299972237,42.847316999769006],[-97.77438099957311,42.84974000028145],[-97.81711199992266,42.86177699998335],[-97.82857300006656,42.86880199968932],[-97.84539299975087,42.86771999972328],[-97.86586999963433,42.862814000225676],[-97.87553099962933,42.858656000195246],[-97.8771759999675,42.85432199971943],[-97.87600400035568,42.84765899991646],[-97.87912000005643,42.8436020000363],[-97.88000299996327,42.83532699983172],[-97.88864700015715,42.81717700030931],[-97.90903600017705,42.7948330000387],[-97.91599499984979,42.78982399999297],[-97.92147999978691,42.78827499978254],[-97.9348270002934,42.776877999892974],[-97.950169999869,42.76954999968488],[-97.96206700003101,42.76863699988196],[-97.97761499964604,42.769846999826406],[-97.99087099991593,42.764998999702016],[-98.01307199978028,42.76221900017211],[-98.03507099997825,42.76411399995119],[-98.03869600039036,42.76627399983971],[-98.05668400038684,42.770675999755625],[-98.05990300001977,42.77266299988608],[-98.06299899962904,42.7810009999207],[-98.06748600003158,42.78463499980959],[-98.08291099962298,42.794200000176566],[-98.09472099974633,42.799157999868854],[-98.11243799958116,42.81320199997936],[-98.127673999925,42.819955999877614],[-98.13810300019914,42.83254300005258],[-98.14710899989294,42.83963100021773],[-98.16752300002722,42.836924999958576],[-98.18981099993019,42.841642999982],[-98.21982599978502,42.85315700000198],[-98.23192200013862,42.86114000028831],[-98.2468300004194,42.868396999939925],[-98.2518099998431,42.87282399977381],[-98.25827599959635,42.874390000307436],[-98.28000700000572,42.874995999871146],[-98.32586400010177,42.88650000025549],[-98.33242199991653,42.890499999819035],[-98.33798999969432,42.897759999814454],[-98.34622999965715,42.902746999794445],[-98.40782400041245,42.92574999991047],[-98.4207400000254,42.93192399981169],[-98.43093400012289,42.931504000191985],[-98.43728500024841,42.92839300028212],[-98.44414500018695,42.92924200016799],[-98.44830899965099,42.93642799969015],[-98.46735600017975,42.9475560001641],[-98.49048299960863,42.977947999985005],[-98.4957469996128,42.98803200006699],[-98.49855000021742,42.99855899984257],[-99.9629850002188,42.997661000186525],[-100.51558000008485,42.999332000086895],[-101.63300699973762,42.99625499980494],[-101.8754239997409,42.99941499997183],[-103.57656900005063,43.00017800000173],[-103.96619999989545,43.00170700025884],[-104.05315200022372,42.99996799986567],[-104.0532490003081,41.001405999738765],[-102.05171699982698,41.0023589997564],[-102.05174399959115,40.00307800029882],[-99.75683499956332,40.00134199998426],[-98.27401699955524,40.00266199979887],[-95.3082900002008,39.999998000215854],[-95.3111630002273,40.007806000020764],[-95.31527099961484,40.01207000026049],[-95.33624200014103,40.01910400002374],[-95.34877699998748,40.02929700020018],[-95.35687600038332,40.0315219999178],[-95.36398300019405,40.03149800009171],[-95.38295700002958,40.027112000137905],[-95.39152699970529,40.027057999777476],[-95.40726099999148,40.03311199985037],[-95.41510599994412,40.04034099968896],[-95.41999900022752,40.05044000019525],[-95.42133999989376,40.0607459997853],[-95.41889600021264,40.065958000077394],[-95.40936699956379,40.07499800027619],[-95.4083890001207,40.079721999895234],[-95.41042600009604,40.08794800030883],[-95.4100999996828,40.09397500031535],[-95.40659800019266,40.09910599974713],[-95.39421599960878,40.10826300028777],[-95.3928099996452,40.112928999737825],[-95.39334699994565,40.119211999883326],[-95.39654899986012,40.124700999697765],[-95.40026600033373,40.12729299966855],[-95.40769100016179,40.12983900004801],[-95.41954999979063,40.13104899999029],[-95.42740899998697,40.134607999960615],[-95.43216500000301,40.14102500023154],[-95.43382200003674,40.15293499991494],[-95.43634799973363,40.15871999979878],[-95.44281799968482,40.163261000080595],[-95.4638310000438,40.17120100033978],[-95.479192999886,40.1856520000733],[-95.48253999956545,40.19228299996165],[-95.4823189996325,40.20066700007847],[-95.47139300013922,40.21733299983263],[-95.46971799966381,40.22790799968974],[-95.4725480000326,40.23607799975889],[-95.47869400011871,40.24366099999388],[-95.48481699974029,40.24746900024795],[-95.49340499985766,40.249560000029675],[-95.52103499958261,40.25008299973251],[-95.54373699976237,40.26068700005229],[-95.55247300001777,40.26190399986298],[-95.55632500021058,40.267714000001334],[-95.55627499998187,40.27076100030621],[-95.55148800000369,40.28106099975199],[-95.55162000024816,40.28866599972103],[-95.55555299973352,40.29327299968836],[-95.56215699957902,40.29735899986191],[-95.57069299981787,40.299425999972016],[-95.58178700043895,40.29958000024791],[-95.59016499959574,40.303199000219735],[-95.59865700035199,40.30980899988642],[-95.61043899998792,40.31397000007456],[-95.61793099976313,40.31372800005277],[-95.6453289996845,40.3056929996971],[-95.65150699955764,40.30668399997724],[-95.65732799995374,40.31085600004829],[-95.65776399997182,40.3157879997593],[-95.65372900037922,40.322582000255075],[-95.62764799983465,40.33241200030055],[-95.62401499992497,40.33622599978183],[-95.62268400030446,40.34232300026568],[-95.62712399995303,40.35279999994824],[-95.64102700012819,40.36639899993633],[-95.6439350003148,40.38685100018907],[-95.66060199983822,40.412408999822034],[-95.66070999979327,40.41882699978051],[-95.65596399982296,40.429873000103186],[-95.65657499974324,40.438701000296014],[-95.66771399967186,40.4534630002802],[-95.68753199995446,40.4652060003397],[-95.69465100035907,40.47145199981882],[-95.69675600010648,40.47884899996114],[-95.69482299988822,40.49470499980228],[-95.69996899989161,40.50527499999936],[-95.66168099956366,40.517311999757126],[-95.65567400029303,40.523557000113954],[-95.65226899998898,40.53810800028053],[-95.65584800037031,40.546608999840025],[-95.66210700043432,40.54996700003526],[-95.66549500012164,40.556696999924675],[-95.67177599992695,40.56262799984738],[-95.67871500040653,40.5625609999768],[-95.68702099959329,40.560668999841575],[-95.69414699967061,40.55694200025518],[-95.69737700007249,40.54138899980755],[-95.69549499990785,40.53202099975563],[-95.69720200017032,40.52847500015354],[-95.70859100034419,40.521551000024616],[-95.71286199993834,40.52638400020324],[-95.71753699976355,40.52778300028991],[-95.72521400038501,40.52777299998097],[-95.73479500001407,40.52430799976011],[-95.74182800020498,40.52390000016066],[-95.75274299982762,40.52489299981811],[-95.76285699955918,40.52837100026322],[-95.76691999963919,40.531562999931275],[-95.76928100037792,40.53665599981556],[-95.76362400001337,40.54829800014301],[-95.76383300025074,40.55387300015211],[-95.77177600011267,40.56613300015669],[-95.77470400039076,40.573574000170495],[-95.77354899959904,40.578205000247465],[-95.76852700034252,40.58329599992691],[-95.75314799988357,40.592839999916826],[-95.75027400003214,40.59631699985982],[-95.74857199979257,40.60126499975613],[-95.74968499985317,40.60684199997195],[-95.76892599965237,40.62126400032692],[-95.77146999979091,40.639787999757274],[-95.77625099992132,40.64746300010643],[-95.78382200023756,40.65497400015884],[-95.79548900024578,40.66238399987266],[-95.82291300010642,40.667240000001605],[-95.84231600028733,40.67717099989065],[-95.84576500007401,40.68180600022816],[-95.84867999993331,40.69597299999651],[-95.85445600012355,40.70416399970158],[-95.86179800011092,40.70924199988521],[-95.88317799999271,40.71757899972919],[-95.88534899986234,40.721093000136406],[-95.8889070003273,40.73185500016002],[-95.88869700026501,40.73629200002142],[-95.88152900035489,40.75061100031151],[-95.86998199999728,40.75964500005383],[-95.84662000039175,40.768619000223055],[-95.83690300032023,40.77647700030631],[-95.83488100041352,40.7802099999428],[-95.83452300021321,40.78777799981269],[-95.8437449998171,40.80378299996891],[-95.84534199957639,40.811323999846636],[-95.84392100044252,40.81768599970582],[-95.83860100036185,40.82617499978944],[-95.83718600017744,40.83534700012046],[-95.8413089996336,40.845604000309606],[-95.84708399999893,40.85417400017447],[-95.84856500030558,40.85966500023819],[-95.84778500033089,40.864327999892865],[-95.840788000125,40.871236000234425],[-95.8249890004398,40.875000000312866],[-95.81593299961897,40.879845999708685],[-95.81070899979777,40.886681000292356],[-95.80937900000218,40.89327900024909],[-95.8143020004228,40.902935999905324],[-95.83490599962956,40.91957399974274],[-95.83974299983646,40.93278000006764],[-95.84027500011402,40.939941999888504],[-95.8379510000835,40.950618000319125],[-95.82982900012145,40.96385700010974],[-95.82832900044654,40.97237800020149],[-95.82979200031153,40.97734399972968],[-95.83353700037422,40.982659999714926],[-95.83890799961019,40.98648400003577],[-95.86011599996284,40.99524200025375],[-95.86695099978701,41.0010849998842],[-95.86950199959826,41.00942900006677],[-95.8658860003053,41.01741799974074],[-95.85991799959612,41.025402999903214],[-95.85965400000548,41.0356949998882],[-95.86178200021742,41.03942700027653],[-95.88158799990613,41.054378000065775],[-95.88234199994154,41.0594189997622],[-95.88101100032104,41.06630300000173],[-95.86583500025168,41.08007899987579],[-95.86242699957457,41.089686999754754],[-95.86666100025712,41.10497500021665],[-95.86722799979646,41.1214930001758],[-95.88147800030127,41.14214899970988],[-95.88327400025217,41.15006000014564],[-95.88254000030825,41.15588099975895],[-95.87736800036559,41.163914000313135],[-95.87111000012649,41.16763499996292],[-95.865928999963,41.16812900017376],[-95.85345100001797,41.165517999989056],[-95.84695699977733,41.166603999808295],[-95.84203900027788,41.171366999733],[-95.8421880002408,41.17742100023218],[-95.84543299981299,41.18193000006427],[-95.85037399977696,41.18508999995225],[-95.86379699955312,41.1882450002408],[-95.87813300027167,41.18794100024554],[-95.90050999986309,41.18460899991302],[-95.9161189995775,41.185279000300845],[-95.9241519998511,41.191473999670116],[-95.9279749997316,41.20006900011093],[-95.92611699985642,41.21161900021256],[-95.91427199957297,41.223857999877076],[-95.91062899961751,41.234578999898254],[-95.91185999967891,41.24102300024995],[-95.91909299988636,41.2526979996774],[-95.92230400002167,41.26301999980445],[-95.9214970002828,41.26760399975115],[-95.914090999823,41.27242799989608],[-95.92864599992635,41.28133200018008],[-95.92965100003192,41.29226200021656],[-95.92764199964567,41.2984399999916],[-95.92024699995484,41.30119100019801],[-95.90589900043906,41.3010379998699],[-95.90422200031384,41.29759099996295],[-95.90614399976312,41.28748799990213],[-95.91258100010236,41.27952700008588],[-95.90283999974139,41.27437399969438],[-95.88449500026782,41.28068900011749],[-95.87605100009048,41.285739000298506],[-95.87158899980231,41.29273500022229],[-95.87187099983461,41.301812999922305],[-95.87675999992005,41.31153699986359],[-95.88555399990176,41.31809699970877],[-95.89994300032376,41.32148099969384],[-95.91509099990571,41.319917999697324],[-95.9251850004441,41.32135499996576],[-95.94653199981559,41.33313900027469],[-95.95529400001026,41.34189599996613],[-95.95724899996982,41.3488790001896],[-95.95427100036135,41.353508000217175],[-95.9369229996991,41.359246999755484],[-95.92968100016915,41.36705799971541],[-95.92948600017547,41.37532600000663],[-95.93641100041134,41.385876000012544],[-95.93779100043564,41.390752000176214]]]}}]}