{"type":"FeatureCollection","features":[{"type":"Feature","properties":{"GEOID":"42","NAME":"Pennsylvania","STATE":"42"},"geometry":{"type":"Polygon","coordinates":[[[-75.59309900030976,39.83772299995675],[-75.5458830001058,39.83920699974456],[-75.499022999554,39.833517000036856],[-75.45403599984431,39.82066600007499],[-75.43248400043339,39.81144800005558],[-75.41506200015132,39.80191899992594],[-75.3984170003692,39.81046700030591],[-75.35440100042989,39.839917000342616],[-75.34176600012601,39.846081999693915],[-75.32323099978333,39.8498129996647],[-75.27476199977669,39.84897799968126],[-75.25714600022418,39.851828999860146],[-75.23471799968081,39.85673199966643],[-75.22137100007262,39.86154300008399],[-75.20509600018637,39.871969999889714],[-75.18766100038381,39.88045800003657],[-75.14436699979454,39.88442400012718],[-75.13585300019533,39.89126600023934],[-75.1293959997646,39.906629000096935],[-75.13034999981654,39.9174039999709],[-75.13578000040039,39.93157199983308],[-75.1363159999776,39.94584100010088],[-75.13369800021923,39.95461999970051],[-75.12908799979304,39.960708999946824],[-75.10507699973408,39.97159599987158],[-75.07323099976824,39.97955900032996],[-75.06261400007143,39.988155999706564],[-75.05516199958089,40.002395000137405],[-75.048023999808,40.009720000252486],[-75.03658100010577,40.01495399970555],[-75.0148639999401,40.01989499998524],[-74.99875899993314,40.030281000015265],[-74.98059100001157,40.045943999781144],[-74.93889699955464,40.06609900020168],[-74.9240729998378,40.07123499972864],[-74.9073179995525,40.07080000025529],[-74.86175599990754,40.08346200017494],[-74.85460899991382,40.09327000015493],[-74.84221499963436,40.098502000114344],[-74.83586799970682,40.10346600025982],[-74.8294029997785,40.119192000119185],[-74.82253100014438,40.12684400011013],[-74.81547600021219,40.12769399981733],[-74.79942100043395,40.12270299998471],[-74.7841680003717,40.120477000143985],[-74.75972100029465,40.133803999937506],[-74.74055499994019,40.13549199993775],[-74.7243689997424,40.146411999771246],[-74.72157600008182,40.154039999728944],[-74.72232500009436,40.160727000296625],[-74.73380399978161,40.17450900011892],[-74.74410500000923,40.181008999844266],[-74.75170499973947,40.183309000203806],[-74.75560499961287,40.18670899987184],[-74.76060500002639,40.19890900006284],[-74.76727499999414,40.20707600026671],[-74.77143699980836,40.21517600032993],[-74.79530599957707,40.229408000046746],[-74.81950699960683,40.238508000047226],[-74.83630700009796,40.24620799971115],[-74.84230800041911,40.25050800004885],[-74.86049200023419,40.284584000151284],[-74.86820800031539,40.29520599972233],[-74.89160900027899,40.31300699996724],[-74.90831000013759,40.316906999794035],[-74.9397109998645,40.338006000134],[-74.94451700010929,40.345062999978175],[-74.94890099968134,40.36505500023659],[-74.96655200029227,40.39815399995441],[-74.98313099995214,40.40459899979363],[-74.98841300039798,40.4084940002741],[-74.99585999996735,40.410384000022766],[-75.02302799973496,40.40369300009812],[-75.02863300022098,40.40397099970239],[-75.03442699995456,40.406066000133244],[-75.0455259997002,40.41367900018132],[-75.05857500028087,40.418192999772],[-75.06183499992166,40.42410400015617],[-75.06594599968226,40.445266000253284],[-75.07067800030717,40.45679400011246],[-75.06701600008518,40.46530800003551],[-75.067714999869,40.47366900020205],[-75.06266400030016,40.480439000221615],[-75.06510200013348,40.52641300005726],[-75.06809999983346,40.5414880001594],[-75.07804700005875,40.54787599979533],[-75.0998269999736,40.5673979997545],[-75.11553600014544,40.57286000009449],[-75.14017200036837,40.57537000008221],[-75.14841999982883,40.57202100024976],[-75.15904099972357,40.564845999883666],[-75.17045199963876,40.56416499979174],[-75.18490700018299,40.56830800004971],[-75.19410500039574,40.57607900002351],[-75.195221999756,40.58030300026703],[-75.18969199961303,40.58767099987214],[-75.18939799988519,40.59099899988656],[-75.19229100000317,40.602675999951906],[-75.20134799975061,40.614628000204604],[-75.20181200025611,40.61718799993225],[-75.19789099956802,40.61933199968356],[-75.19068800039611,40.619957000133226],[-75.18857899955243,40.6246280002922],[-75.19069099987084,40.63589100028109],[-75.19535099962742,40.643043999687485],[-75.2004680002168,40.64689900007358],[-75.2004520003233,40.64921899967027],[-75.19785999960585,40.65204999993732],[-75.19797799960664,40.654739000198695],[-75.19085200042764,40.66193800028337],[-75.18275200020688,40.66597399970204],[-75.17749099967745,40.67259500016724],[-75.17680299976428,40.67571500032264],[-75.18056399972049,40.67936299988471],[-75.19058000044107,40.67937899982854],[-75.19692099962253,40.68129699984567],[-75.20392100020146,40.69149799977434],[-75.19442000004001,40.71401799990018],[-75.18673999994382,40.7194899999944],[-75.18605200003066,40.725682000255496],[-75.1820840003852,40.73152200031234],[-75.18578000004409,40.73726599981087],[-75.19534899997761,40.74547299966105],[-75.19653499983315,40.75163100017074],[-75.19179600043384,40.755830000109235],[-75.17903999975614,40.76189700009302],[-75.17562000028178,40.77292299987718],[-75.171587000339,40.77774499976364],[-75.16364799977673,40.778385999966254],[-75.14937800007873,40.7747859998865],[-75.13440000037609,40.77377000030115],[-75.12308800019512,40.7867459996609],[-75.10850499960436,40.79109400003635],[-75.10080000029214,40.79979700025126],[-75.10021399958791,40.807663999733016],[-75.09051800033107,40.8159130000682],[-75.08392899965588,40.82447100004867],[-75.08382200042409,40.827804999908494],[-75.08551700009265,40.830085000208655],[-75.09700599982564,40.83933600008243],[-75.09758599978376,40.84304199998393],[-75.09578399998509,40.847082000325614],[-75.0909619998468,40.84918699991583],[-75.07668399975289,40.849875000251544],[-75.07082999974483,40.84739199992347],[-75.06600799960653,40.84759400007355],[-75.06325199975589,40.85019199996273],[-75.0638019995768,40.85559299991845],[-75.05102900007898,40.86566199966461],[-75.05366399955581,40.87365999987459],[-75.07534499973646,40.894166000227074],[-75.07608999955104,40.90703900022571],[-75.07929499983857,40.91387999996059],[-75.09552799989204,40.92414799972211],[-75.10480899994548,40.935246999763585],[-75.1116889999755,40.94812700010577],[-75.11776700028955,40.953013000222896],[-75.12081000019535,40.96288400006385],[-75.12023199988705,40.968702000151474],[-75.12260299977322,40.97015199988392],[-75.13016599969353,40.96896100022156],[-75.13470099977664,40.972038000141005],[-75.13552099993431,40.97686500015285],[-75.13252200040942,40.98123499993549],[-75.13109600035436,40.99046400028405],[-75.1091130000499,41.00410199972948],[-75.09352299970377,41.00944200025932],[-75.08449500026865,41.01592000015498],[-75.07053199981901,41.01862000030361],[-75.04178900003345,41.03169999994037],[-75.033493999819,41.03766599995229],[-75.02710199968563,41.03952900029701],[-75.02714600006655,41.045253999736985],[-75.01757200011015,41.05585299977104],[-75.01241000021322,41.067263999691136],[-75.00685599978085,41.06759600031566],[-74.99484700036417,41.076555999665516],[-74.98259000035208,41.07917200012253],[-74.969123000195,41.08680300003664],[-74.96675899998152,41.09342499980357],[-74.9694339996413,41.09607400033376],[-74.98332099992297,41.08899599980779],[-74.991815000329,41.0891320002385],[-74.99138699980851,41.09315500006704],[-74.98200000034821,41.10849000004425],[-74.97358999960773,41.11318600016185],[-74.96323300020191,41.11467599985561],[-74.94741100005218,41.123732999994964],[-74.94756900023593,41.126705000154374],[-74.94449799984271,41.12997399966337],[-74.93195999962322,41.13340800032295],[-74.92377900010992,41.13801099986892],[-74.90525600036113,41.15566799973042],[-74.89994299995315,41.16630999988169],[-74.88335300042262,41.1795609997858],[-74.87479299989432,41.19723899997625],[-74.85947299988491,41.218772999935894],[-74.86013599968373,41.221641000274396],[-74.86633299982344,41.2258210000528],[-74.86763400020504,41.228620000032],[-74.86214000004709,41.237789000260996],[-74.86111700039817,41.243644999836064],[-74.85635800000908,41.249748999749954],[-74.84709299984915,41.25284099984687],[-74.84491000028397,41.25759399988583],[-74.84608400044394,41.26341899976275],[-74.83836099979173,41.277293999821815],[-74.83002700011757,41.28744100020502],[-74.82247699971772,41.29359500015907],[-74.81560599990853,41.29607299995968],[-74.80742799986996,41.302811999869505],[-74.79217099960975,41.31084100025404],[-74.79199900008061,41.31344199985469],[-74.79610700036648,41.31836799977068],[-74.79557199971586,41.320342000201286],[-74.79158399997891,41.323019000084166],[-74.77347100030894,41.324519999828375],[-74.76728199966682,41.32774399967151],[-74.76300799969961,41.33195700020374],[-74.76032700019204,41.34032800030391],[-74.75509699962475,41.34587200013172],[-74.72837300027118,41.345866000019896],[-74.72074099985556,41.34743800029272],[-74.69774599977283,41.35574799976021],[-74.68995199987383,41.36149300004476],[-74.69002999969163,41.3652290000679],[-74.69410399964231,41.37010499980404],[-74.70799599994682,41.378679000240076],[-74.7125209999842,41.38875900004937],[-74.71635800010841,41.393020000302826],[-74.72902799967406,41.39533100006703],[-74.73681200042564,41.399318999836986],[-74.74176300043536,41.40695399978499],[-74.7410689997761,41.411277999975916],[-74.73818099968098,41.41426799978074],[-74.73466400012222,41.42299300008723],[-74.73513100010246,41.42679999983834],[-74.73873200022511,41.43078099997092],[-74.74477600020396,41.43037600014403],[-74.75858700031763,41.42328699993097],[-74.7727070002278,41.42634200013871],[-74.7890969997418,41.4214090000882],[-74.79509100039023,41.42371300005103],[-74.79925599967919,41.43080600024332],[-74.80113199999604,41.43830299997821],[-74.80824200017983,41.44291999983112],[-74.81799500023637,41.44050500022702],[-74.82634099960609,41.43164600016205],[-74.83203200030584,41.430391000132786],[-74.83747700005998,41.431896999950524],[-74.84786899962589,41.43961900014863],[-74.85765299964454,41.44415600000194],[-74.86314199977961,41.444386999965786],[-74.87830299978037,41.440000000163586],[-74.89262500025521,41.43861700022903],[-74.8956599997651,41.43968799994072],[-74.89639899973191,41.4421790001435],[-74.89485499967607,41.44619099986883],[-74.88915600037704,41.451072000004295],[-74.89016899998022,41.45555800015497],[-74.89476799963744,41.458145000120254],[-74.90655299964642,41.46087599988509],[-74.90918100034888,41.47243600001237],[-74.91303500019151,41.47601700020642],[-74.92409200010437,41.47713800020575],[-74.93312499956235,41.482576999864065],[-74.94286900029638,41.483646999925355],[-74.95823000031368,41.47658100009044],[-74.98282100033076,41.480508000184564],[-74.98564499995346,41.485864999984514],[-74.98226999978662,41.498685000299815],[-74.9842399998148,41.50650899987799],[-74.98800400014407,41.50887899969739],[-75.00025500030839,41.507374999702044],[-75.00357799969838,41.50827700026448],[-75.00366800011007,41.51180800015218],[-75.00074900005279,41.518597000156085],[-75.00321200000047,41.523480999906795],[-75.01113899996888,41.529318000115104],[-75.02454300037678,41.53459299980376],[-75.02469999983731,41.54013100012305],[-75.01597600017578,41.544205000126176],[-75.01880399999645,41.55243600033182],[-75.02805499991267,41.56433900023584],[-75.0335919997283,41.56523800016757],[-75.0404900002,41.569687999674926],[-75.04724600038146,41.583681999675605],[-75.06001200020658,41.59081299983021],[-75.07467799973969,41.60652699990197],[-75.07447500024843,41.608124999670146],[-75.0697209998822,41.610114000201236],[-75.06369799981972,41.6092710001219],[-75.05972799962612,41.610415000192305],[-75.06156499958493,41.61580000019783],[-75.05973099999919,41.61755599973602],[-75.05302000002357,41.61851499998364],[-75.04674500006602,41.615621000011274],[-75.04418099983602,41.618062999769634],[-75.04361000009871,41.62332200017292],[-75.04861700018492,41.63301299971295],[-75.04949699971871,41.64156199985751],[-75.0477080003388,41.645851000273304],[-75.04946400010675,41.66027700026716],[-75.0539959998168,41.66807399973626],[-75.05753300036537,41.668844000126015],[-75.05951599991401,41.672255000129525],[-75.05841799992204,41.674900000277724],[-75.05125199966174,41.68001799982064],[-75.05262699966318,41.68811000012442],[-75.05872300041887,41.69846899990537],[-75.0670679999637,41.70514500016266],[-75.06895699980103,41.70932700016816],[-75.06622199986678,41.71275999999458],[-75.05235899987457,41.71148399991556],[-75.04968699968951,41.71337200031728],[-75.05483000021817,41.73489599987726],[-75.05265299960244,41.74392199992072],[-75.05296899996993,41.75179300015753],[-75.06123700042018,41.764790000042424],[-75.07246400021234,41.76854800002095],[-75.07460999996762,41.77126999981954],[-75.09463300028965,41.76836400004449],[-75.1018949999111,41.76960900024421],[-75.10471100003618,41.774383999923494],[-75.10172599985667,41.78750400026659],[-75.09288300036948,41.79645700018507],[-75.08849700024928,41.797707000122735],[-75.08062200015942,41.79669800005624],[-75.07565199988312,41.79955500015174],[-75.07234299983853,41.8066439996713],[-75.07224800030228,41.81413099981672],[-75.0787690003071,41.81521000022936],[-75.08552499959025,41.811711999900275],[-75.0898799997483,41.81170099986113],[-75.1005650001155,41.81892699991763],[-75.11301899977109,41.8226190000175],[-75.11506800034029,41.82754599973884],[-75.11340499956047,41.84214000013615],[-75.11659499977938,41.84544900010602],[-75.13099099987407,41.84526100021924],[-75.14056099963248,41.85221999984157],[-75.15467999971773,41.848454999982025],[-75.1628789996727,41.85055500008651],[-75.16832599997497,41.858699999732636],[-75.16842399988425,41.86933500028135],[-75.17246000020009,41.87228300032846],[-75.17582699997101,41.872573999781444],[-75.17803200017585,41.87091000019779],[-75.1817040004436,41.86307800007],[-75.18535800026969,41.86006300029323],[-75.18913699976927,41.861667999703215],[-75.19541000007696,41.86783900026492],[-75.20463699970372,41.8699280000236],[-75.21502400014508,41.86734999976296],[-75.21957599994663,41.861188000000325],[-75.22448000010068,41.857590000302444],[-75.23161200002578,41.85945900017552],[-75.24114699962412,41.86725199986086],[-75.25000099988029,41.86221700009753],[-75.2583160001862,41.86227400006945],[-75.26429499986772,41.86952300032026],[-75.25745900021862,41.87609300012935],[-75.2595830002326,41.88232399986407],[-75.26309800014151,41.88504100012558],[-75.27075499977317,41.88684299992909],[-75.271685000434,41.88844699998518],[-75.27297300039679,41.896566000196266],[-75.26777299996671,41.901971000200284],[-75.26727599984926,41.90608999990965],[-75.27663300007066,41.92223599985256],[-75.27694799971493,41.932885999749914],[-75.27876299993243,41.938713000143814],[-75.28951000022388,41.94320399966976],[-75.2916230003672,41.94664699999608],[-75.29146600000836,41.95244400033018],[-75.29331600038594,41.954347000045566],[-75.30114799991978,41.953386000026974],[-75.301326000195,41.94810500029493],[-75.31094100015927,41.94910299981679],[-75.31792999996924,41.95387100024363],[-75.31963800005661,41.96031199970874],[-75.32796900025603,41.96794299983888],[-75.34159100022383,41.97221600022458],[-75.341990000432,41.97500599976344],[-75.33751600044826,41.98682199990364],[-75.342166999984,41.99349700028672],[-75.35964500034258,41.99955399968695],[-75.76468300023545,41.997856000281224],[-76.34482699963561,41.99838300020516],[-76.828976999927,42.00201800029137],[-77.16141900030162,41.99960499967239],[-77.50398799992827,42.00010100018715],[-77.82839600020438,41.99825900026224],[-78.12151500000824,42.00038899972405],[-78.27927399957653,41.999099000167604],[-78.62279700015347,41.999976000221274],[-78.85735900015838,41.99770500013965],[-79.15841300032656,41.99967000014436],[-79.76195400039067,41.99884100032264],[-79.76241799999787,42.516072000324215],[-80.08022200042848,42.394161999903325],[-80.51985100026717,42.32713200000673],[-80.51922799975301,40.53346000018793],[-80.51899000010162,40.47366700002972],[-80.51768899972005,40.462216999786705],[-80.51921500023252,40.26834600032622],[-80.5193419995558,39.72140299998133],[-79.54846500012087,39.72077799993888],[-79.04554799968321,39.72288300027257],[-78.31513900013978,39.722877000200135],[-77.50680999990114,39.71987000000226],[-76.99090300023069,39.71979899992485],[-75.77378600001364,39.72220000018924],[-75.76264999955976,39.743764000230826],[-75.74670699993449,39.765140999875285],[-75.72803699987261,39.783489000037314],[-75.70591600037423,39.79986600031389],[-75.68132500035712,39.8135320003167],[-75.65370399995469,39.8246909998506],[-75.6243469998758,39.832694999748355],[-75.59309900030976,39.83772299995675]]]}}]}