{"type":"FeatureCollection","features":[{"type":"Feature","properties":{"GEOID":"47","NAME":"Tennessee","STATE":"47"},"geometry":{"type":"Polygon","coordinates":[[[-83.98761499962717,36.58947100027034],[-84.27154500033743,36.59170299993577],[-84.44889600023251,36.59621099973322],[-84.54047399998218,36.5963040000978],[-84.83003500021943,36.60453599980074],[-85.02686100026544,36.61929899998163],[-85.17569199995773,36.62500799991839],[-85.27686700012833,36.62682700003239],[-85.29390400044593,36.62635499985073],[-85.30041500040501,36.624448999707035],[-85.32479100033694,36.62450799972467],[-85.50150700002231,36.6148550002275],[-85.83243200010529,36.6221000001221],[-86.16543500017148,36.637763999744074],[-86.33212599981375,36.648701000225216],[-86.49342799977839,36.65224000035151],[-86.50778100021535,36.65237899986744],[-86.54382199960737,36.64042699973607],[-86.54335200015241,36.64385499980672],[-86.54994299957913,36.644759000305335],[-86.5512220002194,36.63799800028075],[-86.56390900040181,36.633561999649594],[-86.58990600038246,36.65244300028608],[-87.0704909996379,36.64272999965582],[-87.4746869996318,36.640414999771494],[-87.85331900018842,36.63316000004165],[-87.84954399998848,36.66369499989132],[-87.92687499960638,36.6689359998071],[-88.0122030004112,36.677190000358664],[-88.07054099992705,36.678255000030305],[-88.0668360000473,36.65585599973683],[-88.05701600004362,36.640342999944885],[-88.05562500014867,36.630340000247564],[-88.0448619999637,36.603069999643196],[-88.04049699975988,36.57682399977095],[-88.03509300001363,36.56018899997935],[-88.03264900033253,36.54209499967216],[-88.03267500027178,36.53698500013424],[-88.0346829999348,36.52784499966551],[-88.03743200011274,36.522858000051656],[-88.03906900005501,36.51078400024297],[-88.05329299972223,36.497057999768],[-88.216645000081,36.49982699973383],[-88.54187400033967,36.502175999753035],[-88.95974599982972,36.5020760001394],[-89.30102200036902,36.507232999929265],[-89.39105699988777,36.49921599984739],[-89.4182199996325,36.49902899977894],[-89.43007199958863,36.48210099984051],[-89.4489640003067,36.46488200030929],[-89.46076699985903,36.45868599982572],[-89.471894999917,36.457559999724644],[-89.48619300010239,36.46211400028987],[-89.49308200035325,36.470500000260856],[-89.49337699990603,36.478959000187274],[-89.48542700037142,36.49749099991454],[-89.53923200035227,36.49793399994869],[-89.5345240000168,36.49143199998666],[-89.520641999758,36.47866799992445],[-89.51972000039143,36.46700199995011],[-89.52519000025991,36.45399099991723],[-89.54340599986203,36.43877000035073],[-89.54506100024595,36.434914999760316],[-89.54525500041471,36.42707900028296],[-89.54233700018237,36.4201030000283],[-89.52529300019206,36.40044599976041],[-89.51037999988844,36.37835599969604],[-89.5097220001125,36.373626000133406],[-89.51317799957188,36.35989699983081],[-89.51899999979288,36.34859999999686],[-89.5318219996945,36.33924600016343],[-89.54500599999437,36.33680899978131],[-89.56043899998168,36.33774599986225],[-89.58163599956536,36.34235700029732],[-89.60566800043902,36.342234000268625],[-89.61068899987063,36.340441999938434],[-89.61584099972181,36.336085000159486],[-89.61980000004475,36.329546000353766],[-89.62025500032942,36.32300600008558],[-89.61181899964969,36.30908800006425],[-89.58982000035002,36.2968139997317],[-89.5784920002755,36.28831699972798],[-89.55429600026864,36.27775300003877],[-89.544796999757,36.28045800033842],[-89.53948699972207,36.27736800035405],[-89.53644100034151,36.2728269999102],[-89.53450700029835,36.26180299982036],[-89.53474499994972,36.252573000048415],[-89.53922899997922,36.24882100023327],[-89.54474300022865,36.2474840002193],[-89.55356300014962,36.25034099969228],[-89.56220599962028,36.25090900003806],[-89.57754400007134,36.24226199984581],[-89.5873260004402,36.239484000061395],[-89.60237399956473,36.238106000244684],[-89.61114499998021,36.23927099979767],[-89.64218199965906,36.24948599983127],[-89.6525199996966,36.250692000152256],[-89.67804300002435,36.24828700016553],[-89.69523500015264,36.2527659998872],[-89.69856799958836,36.25059100007002],[-89.70552499961128,36.23898300002858],[-89.70525000014999,36.236568000094174],[-89.69967700034934,36.230821000003964],[-89.6795479997221,36.21591100023744],[-89.65487600041249,36.20153000026486],[-89.63689400026377,36.18895100029349],[-89.62267700026922,36.18257799983119],[-89.61298299976391,36.17597500018024],[-89.60087100041508,36.16455800034219],[-89.5922060003048,36.15011999987524],[-89.59306999994507,36.129699000072044],[-89.6005009996209,36.12051500021576],[-89.62830500032145,36.10685299977182],[-89.66659799977397,36.095802000226385],[-89.67246299965265,36.0918369999119],[-89.67882100034919,36.084636000359716],[-89.68857699988045,36.02923799996376],[-89.69243699957087,36.02050699981864],[-89.70357100037494,36.00803999965895],[-89.70693200029808,36.00098100021074],[-89.73305599960203,36.00080900023511],[-89.73109599961958,35.99661999983279],[-89.7229159999312,35.9890610000759],[-89.72318700009285,35.97416299984725],[-89.72167700037222,35.96767299989511],[-89.71849700019905,35.963122999999364],[-89.7102289997488,35.95772899993879],[-89.6540269999425,35.930182999778644],[-89.64430700039625,35.92094300028091],[-89.64099699962843,35.90355299988173],[-89.6446069999719,35.88741700019715],[-89.65145400038996,35.88065900032368],[-89.6606860000396,35.87546900036358],[-89.67310299988526,35.87536499964992],[-89.71635200026869,35.90705900011053],[-89.73055199964647,35.91169999966001],[-89.74454699988316,35.9106989996568],[-89.76867900031594,35.88882400000228],[-89.77361699990686,35.87570499990889],[-89.77290399987933,35.86563200013136],[-89.76792299973238,35.86001699975227],[-89.76210899990731,35.857165000244635],[-89.71459800015056,35.843356999705975],[-89.69553100042864,35.835672999665164],[-89.69349899957786,35.831726999770034],[-89.69397800015197,35.82521299987508],[-89.69864499958125,35.81871099995815],[-89.71421499983592,35.808871000283034],[-89.72868200007571,35.80259699996676],[-89.73356899961303,35.80305800025745],[-89.73796800015201,35.806018999865344],[-89.74429699963791,35.80619699990838],[-89.76539100018773,35.81120699989446],[-89.76535900040068,35.80960599974609],[-89.78166199987604,35.80522799981773],[-89.79956500038205,35.788330999893965],[-89.79691699958812,35.781372999847655],[-89.79953500024482,35.77377900023209],[-89.79941600041913,35.75810799982473],[-89.82545100003463,35.74518800009982],[-89.83871700035026,35.74212900012263],[-89.84418899986858,35.7430949999204],[-89.85034900019838,35.74648899975051],[-89.85235900040954,35.75542600007161],[-89.86306399996987,35.75713400011454],[-89.89284100017333,35.75058899973506],[-89.90023300038943,35.75345099971984],[-89.90746099967569,35.75928799972853],[-89.91198400006324,35.75831299973275],[-89.91824200030233,35.753063999733286],[-89.93791999994453,35.74417199979199],[-89.94129299956322,35.73808200004738],[-89.95781199984698,35.72737199968248],[-89.95887700022702,35.723048999887176],[-89.95584099999388,35.690399000312695],[-89.93446699995988,35.6649430001589],[-89.92545299987015,35.658206000250225],[-89.90857499956121,35.65173600007578],[-89.89423600026625,35.65160499978649],[-89.88530300036737,35.65474400002834],[-89.87644599973815,35.66672600027866],[-89.8631150000235,35.67051900028476],[-89.85831799999956,35.66872400023737],[-89.85127499976292,35.657607999767606],[-89.85223100036302,35.64256199991918],[-89.85775300011005,35.633676999741866],[-89.87340600020538,35.62761799968451],[-89.89149600030913,35.61592800021243],[-89.89872399959538,35.61506499985768],[-89.91127500023367,35.61759399965834],[-89.92068900035649,35.611727000139986],[-89.93248699988595,35.60800699971771],[-89.94784700007834,35.60021800007318],[-89.95756800034782,35.58853099965055],[-89.95786799992347,35.5848870000037],[-89.9544690003655,35.57619200000669],[-89.94210299967513,35.55699699969444],[-89.92870900021128,35.551410000352426],[-89.91515400019067,35.54982099991505],[-89.91068100003183,35.547450999872126],[-89.90975499956896,35.5438550001861],[-89.91340300044561,35.536100000074576],[-89.90894500035537,35.53799100001395],[-89.90413999993552,35.53557699965645],[-89.90213200027252,35.52812199965181],[-89.90463799987789,35.519347999998885],[-89.91192299996386,35.512841000174696],[-89.92437300031982,35.51130300017618],[-89.95874900018049,35.52383700034808],[-89.95564099997735,35.53407600030389],[-89.95809200022946,35.541226999656764],[-89.97571100015502,35.55348799971455],[-89.98966700003365,35.56022100023439],[-89.99920699965485,35.56119800023016],[-90.00786599991734,35.560143999708934],[-90.01758700018682,35.55609399972797],[-90.02405100029024,35.55631700005211],[-90.03127600010176,35.55429899981227],[-90.03987599991471,35.54741799972399],[-90.04196399994366,35.537057000146206],[-90.04910000006674,35.52180800026933],[-90.05021200030244,35.51639099991081],[-90.04833299961254,35.504246000113326],[-90.04413800018635,35.494621999998806],[-90.03618399955546,35.48372700012888],[-90.01980999993499,35.473282000248325],[-90.0125309996968,35.463667999970575],[-90.0057999996297,35.450231999801325],[-90.00266800003541,35.42998500018529],[-90.02119099978421,35.42022599963521],[-90.04808599974032,35.4117370001101],[-90.05678199981274,35.40386299987532],[-90.04156300008567,35.39662000024838],[-90.04458199970205,35.39307300023771],[-90.0543220002381,35.389277000150415],[-90.0695280004447,35.40813200025054],[-90.06201800022782,35.41517999999456],[-90.07061600039096,35.42349699976107],[-90.0740979997896,35.4341400003082],[-90.07412799992683,35.43956600012986],[-90.06723899967598,35.46094500031717],[-90.0682689998959,35.46707400008898],[-90.07900699996654,35.47687400005073],[-90.08803299975185,35.47858299998685],[-90.10754499971269,35.47696500027903],[-90.12002400038095,35.46659999988112],[-90.1294350001307,35.4421189998097],[-90.16888000000189,35.42187799971422],[-90.17060999983056,35.41828199978732],[-90.17077700023513,35.409989999831424],[-90.179341999888,35.385313000008935],[-90.17845800015624,35.38214399966822],[-90.16528200025229,35.37398200009809],[-90.1465419998702,35.37399100005462],[-90.13567599975306,35.37669600001013],[-90.143838999723,35.388351999988565],[-90.14614000018729,35.39978799981796],[-90.1443669998026,35.40537499979234],[-90.14136499990467,35.40892999999759],[-90.13481399976263,35.4130550002487],[-90.1293420002443,35.41383000014497],[-90.1131150000386,35.41059500030101],[-90.09926799993993,35.397181000279055],[-90.08419099960476,35.38870300021511],[-90.07974799958315,35.383913999787445],[-90.07826299997687,35.374929999767154],[-90.09535600037096,35.350686000155704],[-90.10996599982757,35.30498800029135],[-90.11686599994907,35.303366000211405],[-90.12357399955165,35.304445000305165],[-90.13864800041208,35.299013000111096],[-90.14958499977601,35.303127000336026],[-90.15732500014666,35.30149199965057],[-90.16409800004656,35.29550999964174],[-90.1689169998118,35.27971099984211],[-90.15972299979701,35.26398799976979],[-90.14885800040311,35.25427300033461],[-90.13818899992945,35.25231000032955],[-90.11734600034809,35.25579599983109],[-90.1084050000533,35.255275999848735],[-90.09433700002168,35.24878999983793],[-90.09109199955118,35.2450039997621],[-90.08635200032697,35.238183000111206],[-90.08454200013236,35.231034999635995],[-90.07545100004972,35.220180000121594],[-90.07584299968688,35.213094000248304],[-90.08025999976923,35.20850800018845],[-90.08879500018315,35.212199000000965],[-90.09679800031955,35.19478100031177],[-90.10807199996738,35.19916399969291],[-90.11590500022444,35.19874199996443],[-90.11719099963909,35.18829700005341],[-90.11364999979091,35.18329299981918],[-90.10813800008961,35.18157099987149],[-90.10630399960556,35.17548099978746],[-90.10068300012432,35.1705770003183],[-90.07955400031271,35.15970799998919],[-90.06823600028393,35.1556699999391],[-90.0645160003356,35.148970000094025],[-90.06674699958138,35.13804999991826],[-90.07249500018254,35.13104199964432],[-90.08453200008661,35.122289999755395],[-90.0955499996414,35.11891499994932],[-90.10746900044302,35.12027800010061],[-90.12499999960671,35.128724000048585],[-90.1366499998965,35.13139200021581],[-90.14760600042533,35.12992400030642],[-90.16256300021156,35.12480400000197],[-90.1740489995715,35.11428399966095],[-90.18778699989024,35.073218000185484],[-90.18223800037903,35.07166200030928],[-90.17931000010094,35.067803000064586],[-90.18265000010769,35.05559800017909],[-90.18049400030665,35.05564599982319],[-90.18115700010547,35.053942999695494],[-90.19121700030868,35.040212999750715],[-90.20677699961927,35.02601299998593],[-90.21444300037008,35.02570900035835],[-90.23783400028792,35.03229599969138],[-90.25179699983924,35.03160999963514],[-90.25674000035137,35.035076000046175],[-90.26170300005666,35.03622599963482],[-90.26554400037882,35.040581999696236],[-90.29234800009833,35.04135600024922],[-90.29696799967195,35.0381750000906],[-90.30064800033564,35.02734800027486],[-90.30529800004648,35.020421999802764],[-90.30509700020502,35.01378700021745],[-90.30964300015879,35.00866499993375],[-90.31012400038273,35.00070500028724],[-90.30836100004379,34.99569400029542],[-90.13788500015585,34.994667000137255],[-89.64428200028189,34.99529300027613],[-89.4349540000014,34.99375399995928],[-88.89390099957176,34.99592000012141],[-88.200063999873,34.99563399976786],[-88.2029589996408,35.00802799983999],[-87.41885999974424,35.00266799986487],[-86.86214700044489,34.991956999986485],[-86.66956400040392,34.99233900003311],[-86.46811500041125,34.990479999723235],[-86.37496599994324,34.9917379996971],[-85.82402300008805,34.98813099977648],[-85.46671299968689,34.982972000097355],[-84.89151500027359,34.98824300010052],[-84.32182100016563,34.98840799978623],[-84.29021399967608,35.225431999753326],[-84.28810300008091,35.22434599998961],[-84.28329699983612,35.22645900025735],[-84.275908999818,35.23420399982675],[-84.26040899988351,35.24183299966142],[-84.25837100008329,35.245662999720295],[-84.2508319995541,35.25071999994775],[-84.24252100034445,35.2534869999902],[-84.23250399979896,35.26424500019847],[-84.22412200044423,35.26898499981042],[-84.21139500007884,35.26562100010945],[-84.20298199986364,35.255291000289944],[-84.19951999965816,35.24385400025516],[-84.19337500029528,35.24477900024874],[-84.18895700038803,35.240217000209554],[-84.18351299956049,35.23999599997623],[-84.17853899998455,35.24063800003674],[-84.17002600021023,35.246459999727975],[-84.16146099965907,35.243522999862435],[-84.15922899969006,35.24571999992481],[-84.14776099987347,35.24686399975267],[-84.13940000043512,35.2460969999338],[-84.13361900022201,35.24237699986689],[-84.12711099973765,35.24077000036551],[-84.12572099966762,35.24212099979321],[-84.1267190001005,35.246304999669064],[-84.12522000025051,35.24987100005269],[-84.11992699993402,35.25204899997026],[-84.1135540000672,35.248981000039294],[-84.10647700039368,35.251491000304235],[-84.1025630002766,35.24836500010675],[-84.09750400031183,35.24759799981453],[-84.09231800012547,35.249374000267245],[-84.08252999990883,35.25628800001577],[-84.0808519999587,35.261252000168454],[-84.0525359999704,35.270189000157124],[-84.05100799980809,35.27333799970289],[-84.04688700000176,35.27424999993674],[-84.04081700008363,35.27960000033722],[-84.03623900034282,35.28841800030245],[-84.02337800008314,35.29630799994509],[-84.02141899992561,35.301400999906804],[-84.0262979999653,35.30632099979034],[-84.02696900016007,35.30967199984865],[-84.03411500032885,35.31118300013826],[-84.03588399961725,35.31321499998687],[-84.0344919998974,35.32255700014838],[-84.02925700020555,35.33309999999241],[-84.03147400010593,35.33652900036632],[-84.0361949999619,35.33765800011658],[-84.03400099962772,35.34327599980032],[-84.03888100039065,35.3482080001003],[-84.0380829999743,35.35117999979922],[-84.0233339997022,35.354311999919645],[-84.01505699992944,35.364980999902336],[-84.00739399955168,35.37164899982253],[-84.00874199978894,35.37281799995047],[-84.00830099974797,35.378766000157526],[-84.01139600043065,35.384601000079655],[-84.00822200010526,35.390573999677414],[-84.01251299979091,35.392191999959664],[-84.01386699987593,35.39788499977735],[-84.01871199958046,35.399995999957966],[-84.02342499993881,35.411581000263446],[-84.0144409999863,35.412348999802305],[-84.00128000015096,35.423390999798954],[-83.99795500021283,35.43073199996328],[-83.9993899995904,35.431240999977845],[-83.99959299998,35.43389300010999],[-83.99471200029048,35.43518000026601],[-83.9920040001204,35.440522999989845],[-83.98891900038178,35.43908700008057],[-83.98798299987318,35.44092099988357],[-83.98443299980416,35.44014999977987],[-83.97975700015405,35.44826000025349],[-83.97609400010711,35.446537000238884],[-83.97512800035959,35.44801100017518],[-83.97265500036617,35.44729799969835],[-83.97328899985267,35.45276199997361],[-83.97109600024172,35.45300700018675],[-83.9718550003,35.45484899981514],[-83.9646239997424,35.454111999987646],[-83.96569300032039,35.45623799972542],[-83.96278099993582,35.45661599990737],[-83.96108000041947,35.464137999919956],[-83.95577200003437,35.46364500013919],[-83.95296400030517,35.4605429997792],[-83.94964900041279,35.46094100017974],[-83.94287899998763,35.46439800029997],[-83.94197000014152,35.46731199964913],[-83.93672299985577,35.4715530000516],[-83.92414100015368,35.47431100008884],[-83.91662099989105,35.473649000158105],[-83.91187499992074,35.47606800032493],[-83.90578099971319,35.488689000282974],[-83.90036500027135,35.49303100010292],[-83.9014659997381,35.4965520001095],[-83.88992699977639,35.504663000279805],[-83.88021499972774,35.518842000282454],[-83.87323599996353,35.52085599991546],[-83.86806900004372,35.520008000303086],[-83.85718100018528,35.521573000359176],[-83.8491439997137,35.518631999651376],[-83.83214300027943,35.52457399995966],[-83.8204670000504,35.525651999935704],[-83.80989300001129,35.53299600008508],[-83.80803799961083,35.53709300017357],[-83.8028039997439,35.54148699986271],[-83.79878500004482,35.54164100013267],[-83.79464599979681,35.545649000145154],[-83.78018199993006,35.55063400022799],[-83.77266599986542,35.5574319996751],[-83.77188900026378,35.561390000120866],[-83.75955100006084,35.562572999708706],[-83.75499199968827,35.56461499971957],[-83.74715799960629,35.56030799998929],[-83.73613699967845,35.565520999811625],[-83.72277199962862,35.56229600013553],[-83.71400699995922,35.56418299971313],[-83.71247499959895,35.56640200024986],[-83.70698999966184,35.568550999675104],[-83.70124199995901,35.56747600004911],[-83.69560999970881,35.57032200015671],[-83.68769699998413,35.56819700021097],[-83.67975699959692,35.57035099984008],[-83.66380499975084,35.56975600005235],[-83.66100200004453,35.568338999882506],[-83.65601400022489,35.570013000308734],[-83.64515200030571,35.56591299966245],[-83.64013000015089,35.56616500017198],[-83.63532899992899,35.56809599981287],[-83.63386199986604,35.5706719999426],[-83.62931300043753,35.56817100004829],[-83.62130799975303,35.57269699984688],[-83.61857100016896,35.5722540000082],[-83.60833600006357,35.58001500023573],[-83.60177400005087,35.57891900026896],[-83.59830199979965,35.57499999969505],[-83.5961169996863,35.5749990001673],[-83.58437400040842,35.562698000152366],[-83.57266300001928,35.56538100028751],[-83.5665250003291,35.56429400019594],[-83.56497899972513,35.56609099988996],[-83.55104299993799,35.56345399967373],[-83.540716999596,35.56586500006709],[-83.53198399971366,35.56448500031784],[-83.52129500004683,35.56559200022323],[-83.51656400014514,35.56243800003371],[-83.49854400036159,35.562888000014794],[-83.49331700016734,35.56683000000508],[-83.48535699968868,35.568471000288014],[-83.47863099964442,35.579190000317965],[-83.4790719996854,35.58321799996039],[-83.47285399962927,35.58625200013468],[-83.47129600022805,35.590268000239966],[-83.46269200021715,35.59257000029756],[-83.46145199993492,35.59528600013239],[-83.45658899978875,35.597194000132966],[-83.45501100029605,35.60202200035779],[-83.45164799982477,35.603527999945015],[-83.44567599981593,35.61174699978076],[-83.4323030002685,35.60999000003006],[-83.42203800002588,35.61104900023054],[-83.42013499994485,35.613516999673735],[-83.4150340001473,35.6145040000862],[-83.40553299998585,35.620511999845306],[-83.39614700035044,35.62286600021754],[-83.39167099981854,35.626564000072854],[-83.38872599982203,35.63362200028429],[-83.37808700038393,35.634562000279494],[-83.37182800031992,35.63916299999119],[-83.36779700002695,35.63784100004016],[-83.36605600032763,35.64102799996061],[-83.35827300029928,35.6469979998269],[-83.35593300037525,35.6507569997494],[-83.35596900036026,35.65430500032473],[-83.35081599978587,35.66054199991014],[-83.34500699998364,35.6612090000203],[-83.34106399955422,35.664589000123044],[-83.33872100015545,35.66363399975348],[-83.33465600042561,35.66566199976477],[-83.3216160000658,35.66305399994521],[-83.31207600044459,35.65461200029964],[-83.29824400041453,35.657255000017315],[-83.29354500029987,35.661879000104555],[-83.29030499985225,35.67349800034463],[-83.28398899988684,35.67446299983918],[-83.28134199981615,35.67769900035463],[-83.27446699980898,35.679075999875316],[-83.2711660001603,35.683167999968276],[-83.2706799999135,35.686826999663985],[-83.25929099973963,35.69037099991572],[-83.25761199996458,35.693969000320834],[-83.25432499966129,35.69544499973465],[-83.2574300003897,35.705120000081905],[-83.25156799998574,35.708973999660756],[-83.25535599970613,35.7152439998862],[-83.25150699988637,35.719751999836696],[-83.24324900038017,35.72252000028188],[-83.24082700044036,35.72685600015448],[-83.2180819997046,35.72595800028413],[-83.21419600007489,35.7241130000679],[-83.20738299999202,35.72619100008285],[-83.19774200008847,35.725252999963125],[-83.18590600002588,35.73009700022818],[-83.1777919995614,35.744382999644706],[-83.17028499971758,35.746030000082676],[-83.16832300008531,35.750757999954985],[-83.16478999973472,35.75398800036428],[-83.164971000383,35.75968000000257],[-83.1595850001801,35.76465099973646],[-83.1364710002717,35.76513900032698],[-83.12746399985465,35.768085999849646],[-83.12060800011406,35.76643099992741],[-83.11823899987772,35.76978399990253],[-83.111204000037,35.770623999851466],[-83.10460299966624,35.774376999798136],[-83.09783999981207,35.77579399973392],[-83.09458000017126,35.77960000022246],[-83.08616100010829,35.78382199974371],[-83.08513000006344,35.785932000144854],[-83.0810639996104,35.787086999875214],[-83.07867199980781,35.78963099966326],[-83.07433599991633,35.790148000048106],[-83.06374699980861,35.78691399969473],[-83.05282100031533,35.78970499988934],[-83.04306200041101,35.78540700008511],[-83.03604199974059,35.78750399984089],[-83.02388600001082,35.783419999856534],[-83.02034799963738,35.78040199968484],[-83.01602500016467,35.78204900008165],[-83.0109029995524,35.778744999748525],[-83.005988000426,35.77849600017801],[-83.00116399973957,35.773718999890875],[-82.99211000036519,35.773915000060455],[-82.98380099990706,35.778173999767326],[-82.97087799972309,35.788998999671385],[-82.9617540000285,35.79095900005751],[-82.96289999970108,35.79492400002066],[-82.96181099992991,35.80036599968128],[-82.95176400014552,35.816607999853936],[-82.94819599963482,35.817784000027764],[-82.94584700038828,35.82437800025959],[-82.93603499988218,35.82551699988717],[-82.93334299960564,35.83052899996629],[-82.93406999987688,35.83666199966021],[-82.92021100008262,35.839384999702936],[-82.91634299999629,35.84166299966541],[-82.92103399971501,35.85094500016164],[-82.91821299956703,35.85927200000341],[-82.92143200009829,35.86310499997401],[-82.92083100022374,35.868177999686274],[-82.91077400039359,35.86857299991464],[-82.90655499977964,35.87018000034587],[-82.9008909997424,35.87290899983611],[-82.89623199981071,35.879151999798054],[-82.89828600040282,35.881258000142076],[-82.90362700039988,35.8804579997705],[-82.9068250001164,35.883908000338295],[-82.90104300007835,35.892790999883424],[-82.90810899988124,35.90420400008432],[-82.9069799999271,35.907429000223914],[-82.90803199988834,35.911313999911016],[-82.90973400012791,35.9109680001941],[-82.9143870002118,35.91515000008822],[-82.91162399979015,35.91680800022933],[-82.91353500026709,35.92426099987464],[-82.91924100013715,35.92589200016089],[-82.91983500033899,35.9288859998573],[-82.91219500042577,35.92959400023343],[-82.91062100023271,35.927505000266684],[-82.90594700023242,35.92619699983795],[-82.90181999968,35.926960000171505],[-82.89888599955411,35.92987599985675],[-82.90178399969498,35.93785199981146],[-82.89818199974742,35.945230000196254],[-82.89266199965022,35.94500299976977],[-82.8889860000828,35.94834399982833],[-82.87822299989783,35.95011699980498],[-82.8742929998872,35.95282999994484],[-82.86064699962998,35.947479000200985],[-82.85173299999767,35.9493439997396],[-82.84603700017337,35.94616900015526],[-82.84454599982097,35.941986999856205],[-82.84111600030086,35.94174099987709],[-82.83863800028456,35.93727099984683],[-82.83347200018967,35.93559800026371],[-82.83240599998473,35.93281300030904],[-82.82809799968234,35.932412999799034],[-82.8219480002966,35.92183000027376],[-82.81508599980992,35.92554699969258],[-82.80508500005627,35.92713699989757],[-82.80267499981204,35.92957099982255],[-82.80616799997966,35.93775800031961],[-82.79972700034077,35.94466099974774],[-82.79454500035237,35.94693299967725],[-82.79137500022495,35.950996999670906],[-82.78755999984203,35.95201299991177],[-82.78504300036602,35.962483000098935],[-82.7780379997642,35.96677299976833],[-82.77508600009497,35.971828999863554],[-82.776504999579,35.97405799983249],[-82.78158700000832,35.97429700005091],[-82.78569000027129,35.977840999753106],[-82.78447599992833,35.98188399990324],[-82.78527599999451,35.98853900005316],[-82.779213999574,35.9922889999817],[-82.7757580001146,36.001051000093405],[-82.77207300032639,36.00070400006559],[-82.76256999961679,36.00484399966374],[-82.75469299987711,36.004318000344284],[-82.75256800003822,36.006201999706306],[-82.7502210004415,36.005980999767814],[-82.75078700015592,36.00887099979646],[-82.74028400026195,36.012132000240655],[-82.73911699977465,36.0149789997372],[-82.72546399984473,36.0181610002616],[-82.71646999984647,36.02241000015341],[-82.71514099987581,36.02864199994601],[-82.70863999996246,36.029720999839526],[-82.70179599991744,36.032649999968044],[-82.70122799965488,36.0343590002989],[-82.69818999977193,36.03420000010217],[-82.69722400002442,36.035783000168195],[-82.68958599976102,36.038157000048024],[-82.6859870001865,36.041421000105906],[-82.68407300023483,36.045794999932],[-82.67485099973263,36.04883299986411],[-82.6705619996968,36.05297600020509],[-82.66634600035424,36.053035999740914],[-82.65926799995748,36.057117000321604],[-82.65153299960971,36.05736800019232],[-82.63723000029977,36.06582000023777],[-82.632608000178,36.06591099998537],[-82.63205499998405,36.06402099976071],[-82.61824200022055,36.05624000031537],[-82.6170420001213,36.053767999981716],[-82.61838399961246,36.046916000337895],[-82.60865900004333,36.04441099995739],[-82.60187600009769,36.03865300002188],[-82.6016590003627,36.036054000305334],[-82.5932090003376,36.036207000174564],[-82.59078599967455,36.03364000015643],[-82.59099499991194,36.03157399979782],[-82.60292300003606,36.02337099999384],[-82.60283900037048,36.01775600005454],[-82.60776100006788,36.015753999796],[-82.6094449998658,36.011037999754606],[-82.60687599961291,36.01043000013677],[-82.61382500013822,36.00491700032404],[-82.61492800015309,36.00204599970087],[-82.61289700002554,35.993606000231615],[-82.6071280004063,35.99235999969224],[-82.60441299966521,35.98746300019853],[-82.6109389996929,35.97438000035589],[-82.61070299969137,35.96720299984849],[-82.60010600008604,35.96459400034782],[-82.59198199957584,35.96628899985937],[-82.58046199988073,35.965247999643445],[-82.57779800009159,35.96433400029041],[-82.57616899964694,35.958719999857],[-82.55798800020492,35.95387299997515],[-82.54968600031778,35.964049000068954],[-82.5306930002157,35.972225999683886],[-82.52503099982827,35.97105500034427],[-82.52212099999186,35.97401200016978],[-82.51707700009571,35.97582500008855],[-82.51284900015925,35.97530099981895],[-82.51029800034802,35.977292000305624],[-82.50518400013168,35.97754699982877],[-82.50332399970836,35.98215800000632],[-82.49996399961012,35.98244099980904],[-82.48416999994778,35.9933009998416],[-82.48159099964914,35.998029000196645],[-82.47594000003069,35.998220999645774],[-82.47041599973554,36.002887000263364],[-82.46058300021136,36.00772400009047],[-82.40979799967181,36.0830189996775],[-82.38921799985619,36.09709699982628],[-82.3804749999281,36.09934700002608],[-82.37872599983285,36.103253000062246],[-82.37521699977172,36.10586200021194],[-82.36454099962536,36.10751599977625],[-82.35276099963926,36.11645199987441],[-82.33613900032165,36.11467299982507],[-82.33180599990492,36.11745199980834],[-82.32319400039638,36.12024100021162],[-82.32035399998183,36.119800999761495],[-82.30248099961307,36.131464999729914],[-82.28982000026825,36.135595999867235],[-82.28001199996012,36.129094000056156],[-82.2734480002976,36.1293170001274],[-82.26677699960663,36.127000999861245],[-82.26392500039483,36.12729699972654],[-82.2603040001807,36.13353299991503],[-82.25432799997392,36.13605800025182],[-82.25107199963274,36.1320510000648],[-82.24509700014919,36.13124899997624],[-82.24188299964082,36.137125000175864],[-82.22953699994028,36.1445879996805],[-82.22427499958593,36.1508379997828],[-82.22214499972418,36.15692200009522],[-82.21320699980242,36.15905699971515],[-82.20173300013806,36.156384000046714],[-82.19955700024555,36.1528289999735],[-82.19274599981249,36.14903799963836],[-82.18758300009067,36.15099500011627],[-82.18362600031587,36.143911000105625],[-82.1772169995657,36.1423730002261],[-82.172934000276,36.14650000003695],[-82.16850899979772,36.146713999959964],[-82.16565000001492,36.14497199997137],[-82.14858099991028,36.14985900028313],[-82.14436800004242,36.144138000121266],[-82.14445199970802,36.14040599967206],[-82.14099100022577,36.13867499995672],[-82.1367759998098,36.128100000127745],[-82.13785600025844,36.11950999965611],[-82.12919799982086,36.10410000001288],[-82.11612300019924,36.10433199974032],[-82.10541799974058,36.10783699996478],[-82.10031000027033,36.10567099981701],[-82.08653199976861,36.1060020000051],[-82.08107899961855,36.10316999975235],[-82.08002800038055,36.10643299983919],[-82.06186899978151,36.11306199974487],[-82.05414100000475,36.12666299995409],[-82.04475500036934,36.125556000216505],[-82.0389239999275,36.12156700006621],[-82.03383900002349,36.12047500002052],[-82.02905100022038,36.124667000190954],[-82.02620099976008,36.13120799965018],[-81.90816700044543,36.30196599994867],[-81.89834599971853,36.30725199964567],[-81.88723600010223,36.3092380000287],[-81.87952000002102,36.313788999708464],[-81.8666279997992,36.3262229999518],[-81.86550899989082,36.32919300021646],[-81.85498799955516,36.337211000187956],[-81.85191100021247,36.33701199964475],[-81.83304899963164,36.34733199964502],[-81.81027600020509,36.35185000014872],[-81.80093200040247,36.3579989997807],[-81.7972800002262,36.35854499969138],[-81.7930849999017,36.36240799964417],[-81.79358799986694,36.35895799977843],[-81.79075599984832,36.355641999893024],[-81.78972999982635,36.34832799992642],[-81.77888899982355,36.34856600004],[-81.77407699973101,36.34382400018816],[-81.76917000010222,36.3424630002662],[-81.76495399986132,36.33872199965755],[-81.76113199980574,36.34025399991739],[-81.75447000023392,36.33699900028246],[-81.7457330001536,36.33759200026774],[-81.73960600033409,36.33975699968922],[-81.73602899960255,36.34297199969746],[-81.72783800004353,36.34138299975494],[-81.71849400024091,36.33612199999745],[-81.7074749999629,36.33522499971684],[-81.70532300035984,36.34141499994251],[-81.70611199965704,36.34372399975733],[-81.70824200041712,36.34633299981944],[-81.71679899967403,36.34759500024099],[-81.7215210002532,36.35130400030346],[-81.72437300036333,36.35769499999896],[-81.72251999961269,36.35864000025059],[-81.72288299983585,36.36123699972769],[-81.72711599979519,36.365586000114995],[-81.72606600038206,36.368785000244976],[-81.73466000034723,36.37944200003133],[-81.72949799955201,36.38543899977443],[-81.73051299970332,36.38828500013051],[-81.72881499966171,36.39155000016186],[-81.73195800002496,36.39492900017427],[-81.7393679997844,36.395591000033725],[-81.7382699997924,36.40083400024371],[-81.74140599958464,36.403063999835375],[-81.7400220002607,36.40830199972553],[-81.7417050002337,36.41242199968054],[-81.73765999969703,36.41351800001789],[-81.73451800005702,36.41249700030866],[-81.73365000021877,36.414683999649064],[-81.72944099965059,36.415894999694714],[-81.72715199978018,36.41986900006981],[-81.72072700003484,36.42265100027817],[-81.71784700033564,36.429856999664985],[-81.72131700003871,36.433900000354704],[-81.71480299970658,36.43722700018044],[-81.71449800010805,36.441480000157085],[-81.71782600041924,36.445023000192386],[-81.71378699973036,36.44717299991998],[-81.71679700002421,36.45666900013902],[-81.70966799957385,36.45937899970393],[-81.70811799967024,36.462225999686616],[-81.69900099964833,36.464068000007416],[-81.6950289998049,36.467458000191854],[-81.69617899967544,36.46974500022255],[-81.69460799985544,36.47337200035798],[-81.69635000027799,36.47553700035087],[-81.69792399957272,36.488948999922535],[-81.69594900041999,36.49161900034515],[-81.69724499988038,36.49642399993714],[-81.70025400034935,36.4984570002495],[-81.69742399998053,36.502154999736604],[-81.6970909998946,36.50591999964487],[-81.69839800012396,36.506435999816674],[-81.6983439996973,36.50971700005869],[-81.702970000017,36.521141000248335],[-81.70809799957873,36.52411399973824],[-81.70802099958584,36.53582999995128],[-81.6997949998667,36.53672700019682],[-81.69976800010252,36.540315999946316],[-81.69379000024593,36.54797700006954],[-81.69336099990052,36.55099900012711],[-81.69022099991032,36.551686000030514],[-81.69099800041026,36.55539000026938],[-81.68954800006574,36.56144099992253],[-81.69187799994405,36.565940999969776],[-81.69128600029035,36.567716000157674],[-81.68007200001867,36.56867199994997],[-81.6770469996562,36.57075499991694],[-81.67921400022618,36.57866799971413],[-81.67697899988413,36.58112399994237],[-81.68001099991929,36.58581799964543],[-81.6468999995569,36.6119180002695],[-81.92264399983266,36.616213000257474],[-81.93414400033461,36.59421299993606],[-82.17378700004559,36.59460700004927],[-82.22261500007745,36.59603000033088],[-82.4665760001366,36.594480000080566],[-82.48723799996797,36.59582099977552],[-82.66349099987106,36.59364400002782],[-83.2489329996106,36.593826999979434],[-83.2610990002844,36.59388699998732],[-83.27629999956982,36.59818700023466],[-83.55692200006038,36.597384999857155],[-83.62200099968905,36.59797399996542],[-83.67501399999968,36.600810000278315],[-83.69078900029375,36.582596000286436],[-83.98761499962717,36.58947100027034]]]}}]}