{"type":"FeatureCollection","features":[{"type":"Feature","properties":{"GEOID":"4903","NAME":"Congressional District 3","BASENAME":"3","STATE":"49","CD119":"03"},"geometry":{"type":"Polygon","coordinates":[[[-111.91428599988515,40.459196000117444],[-111.9113529995842,40.44851500021542],[-111.89828299998544,40.439063999764045],[-111.879088000217,40.42094899999828],[-111.83715799975852,40.39391900022848],[-111.82932600022468,40.3832149999053],[-111.81675399967,40.3758289999481],[-111.80128899989563,40.370836000199276],[-111.80173199958642,40.34693300011468],[-111.80054200043122,40.34236799995043],[-111.79935599967736,40.345627999800975],[-111.79689799975257,40.34557800020747],[-111.79529599997039,40.34301299989283],[-111.78554200008897,40.33952599968435],[-111.78402499979731,40.34192899994856],[-111.78175099999552,40.341930000282446],[-111.78157400044351,40.34767199970921],[-111.77929800009359,40.347660999710705],[-111.77277700008875,40.34103799987241],[-111.77226400007777,40.28014999982462],[-111.7585869998584,40.27992199966743],[-111.75286199972176,40.27125200031876],[-111.73056100029832,40.25665299966949],[-111.73005999998288,40.25295300013236],[-111.73525899968973,40.24365199965783],[-111.73495900011409,40.24125200012557],[-111.73611400000749,40.23958800006907],[-111.73981600041247,40.24035400012864],[-111.74096200008506,40.23698500008964],[-111.73805600044658,40.236842000088124],[-111.739972999873,40.23626300022747],[-111.7380499997005,40.234667999969396],[-111.74004499984301,40.23268099976821],[-111.73903499971458,40.23025400002368],[-111.73169199990227,40.22349800030858],[-111.73159700036604,40.19530000024131],[-111.7257380003351,40.193584000293086],[-111.7288139998529,40.19252399980726],[-111.72723600036018,40.18893299997186],[-111.72246100007756,40.187552999993756],[-111.71822100044555,40.18215100018757],[-111.71874899962684,40.17869999971129],[-111.73094100023992,40.18312499988749],[-111.73486200002972,40.1821909997093],[-111.73913400034708,40.176962999876636],[-111.73741899968871,40.17125900014389],[-111.74756500010564,40.16645099986681],[-111.73383299963469,40.16521700014278],[-111.73066300040557,40.15778200024614],[-111.73050199984878,40.159318999990575],[-111.71972299977028,40.1587389999903],[-111.72008500016852,40.15468999978299],[-111.7113320001947,40.158299999807916],[-111.66323899993166,40.15855299972937],[-111.6572710001208,40.161296999924936],[-111.60065400021281,40.161055000098806],[-111.59849000001587,40.1628719998704],[-111.60037800002829,40.16666500007433],[-111.59800600031721,40.166658000171246],[-111.5979989997462,40.16945199974524],[-111.59379799957392,40.169440000109454],[-111.59379900029715,40.171052000142325],[-111.5846429999172,40.16836599974466],[-111.58466800003156,40.166621000279235],[-111.57460100015567,40.1666899998204],[-111.57456299962251,40.16309599997955],[-111.57204299977343,40.159410000273674],[-111.56963699972714,40.15940500020095],[-111.56956700030527,40.15566200021074],[-111.56501899980334,40.15567600022404],[-111.56502100035149,40.15770399980814],[-111.55992999970135,40.1577070000643],[-111.5599249996785,40.15227699982175],[-111.54621099964919,40.1522839998344],[-111.52587000020817,40.15940700009278],[-111.52159299986792,40.15877000032752],[-111.51629200005382,40.16055900008569],[-111.51112400030914,40.15928700029962],[-111.50992300038497,40.16126499979315],[-111.5104110002816,40.159976000224034],[-111.50883799991344,40.161478999872664],[-111.50118799995451,40.162055000180935],[-111.49277100043965,40.16605800000928],[-111.49420900019027,40.16660399991394],[-111.49345000013199,40.16764899996063],[-111.49809200034522,40.16633400004226],[-111.49677099987215,40.16949900018609],[-111.49804799996429,40.172607999854414],[-111.49491200017206,40.17399599968013],[-111.4944019996358,40.177793000199046],[-111.49844100032469,40.17967700019642],[-111.49531899987782,40.18616700002119],[-111.49399499993004,40.194150999810674],[-111.49452600038268,40.195601000125635],[-111.49569200014673,40.19468699969005],[-111.49887700034277,40.18908899967102],[-111.49849599967797,40.1957109999301],[-111.50311399960174,40.1955959999743],[-111.5021870002123,40.19764600021725],[-111.50552700021902,40.19923100031972],[-111.50225699963417,40.20042000018869],[-111.50464400031218,40.20571499977053],[-111.50250100003166,40.20719900006962],[-111.5025479998873,40.21287399986651],[-111.50821199992455,40.21993000013152],[-111.50878600003492,40.2237769999385],[-111.50759299960836,40.22364599982023],[-111.51057699996296,40.227298999669486],[-111.51210400030035,40.23437600026156],[-111.5175780003668,40.24085199981736],[-111.52248800036867,40.24314300011094],[-111.52573299994083,40.2468750000013],[-111.54237199987517,40.24719600030755],[-111.54241500043119,40.26118699990734],[-111.53691500042547,40.26116599998919],[-111.53690000035687,40.264670999952905],[-111.53467500006055,40.2636550001581],[-111.52496499966172,40.27310700025464],[-111.51663199981245,40.27776500017345],[-111.51309000013936,40.28259200028441],[-111.5092630000609,40.284305000299184],[-111.50074400043879,40.28483800019425],[-111.49469100023911,40.289681999962355],[-111.48779399959233,40.28874299983042],[-111.47181300033226,40.292122999667406],[-111.45731599995524,40.30071400006491],[-111.45197199958513,40.29716699979921],[-111.45159300036676,40.29328999980702],[-111.44183000026447,40.28991000009261],[-111.43365899989861,40.29192199971917],[-111.4266459997992,40.28702000007412],[-111.41273199975338,40.28947499979109],[-111.41031599966135,40.29515100011664],[-111.40250000002104,40.29600699971934],[-111.3969370002661,40.29244500013851],[-111.39252900040461,40.29621700004647],[-111.38151199977641,40.29454699979499],[-111.37726399974845,40.29750700026582],[-111.3740550001613,40.29704300002542],[-111.36854299956168,40.2921159996997],[-111.36075299986067,40.28872699969031],[-111.35233100032292,40.28966600004459],[-111.34606600041114,40.28719799991906],[-111.3367779997867,40.288323999794656],[-111.32844300028763,40.28227199985084],[-111.3254920004433,40.28277199981977],[-111.32199599990265,40.287245000269515],[-111.31343100024979,40.28725500006288],[-111.30707799957614,40.282649000200536],[-111.30902800041115,40.27616099977298],[-111.30796800005399,40.27460299997193],[-111.29791000039894,40.27308000002491],[-111.29435399958382,40.270791000142616],[-111.2942320002834,40.26557500006769],[-111.28989499966868,40.26620300016056],[-111.27901500020613,40.25890200002042],[-111.27671399974187,40.252519000244156],[-111.27164999975423,40.25064300020386],[-111.2648390002195,40.24227100026714],[-111.26773599963713,40.23707199974134],[-111.27367699968383,40.23607900028918],[-111.27180799993798,40.22814100008044],[-111.27344900007817,40.22199399987255],[-111.26711100037146,40.213035000291825],[-111.26179799996349,40.21088600016928],[-111.26490600016665,40.20925899971663],[-111.26323599971411,40.20558100020893],[-111.25636200043019,40.20115699983553],[-111.25823899967365,40.19789099979036],[-111.24800299974333,40.19383299994618],[-111.23901799996592,40.18277500019849],[-111.23547999959247,40.180688000204555],[-111.23533700037567,40.17603999977895],[-111.2252250002939,40.166367000030796],[-111.22922899992439,40.15859100020061],[-111.22672900016677,40.15581299985863],[-111.23146699974117,40.14788800023739],[-111.22502299972922,40.14306500004993],[-111.22152600026197,40.12452299988713],[-111.22538900032545,40.120056999998226],[-111.22977600027056,40.10712700023572],[-111.23469799996796,40.1041909999736],[-111.2346019997085,40.0999689999046],[-111.23719000022797,40.09485000002192],[-111.2414590001723,40.0918180002825],[-111.24234399972897,40.085959999837165],[-111.23798500027127,40.080318999998745],[-111.24069300044133,40.0735030002974],[-111.23588299999861,40.06963499973195],[-111.24107099983479,40.06598400003939],[-111.24174100020463,40.06303299978542],[-111.24936699987411,40.05533400014192],[-111.24643000027352,40.05229699984872],[-111.24620699979242,40.04746600011891],[-111.24082300013767,40.04380300031909],[-111.23798199989821,40.038568000015424],[-111.22650099966283,40.03568600010435],[-111.22295300014194,40.04062399972287],[-111.21389800004432,40.04298400007296],[-111.2038300003435,40.04929800005701],[-111.20384000038926,40.04614399994936],[-111.19898999976357,40.040041000159114],[-111.20029399961987,40.03710699999433],[-111.19770799964854,40.03117900011032],[-111.19186000038661,40.03013699968755],[-111.18962699969437,40.023278999942086],[-111.18662999981932,40.02011200004606],[-111.1770979996957,40.016064000216275],[-111.1748849999933,40.01228300025475],[-111.17166499963713,40.01065700019376],[-111.16796099958233,40.00318400004083],[-111.1698670000364,39.9997330002293],[-111.16781400016755,39.99083200031738],[-111.1651710002948,39.99001200000528],[-111.15955800031118,39.99179400006141],[-111.15189999995631,39.984954999977745],[-111.1430430002254,39.98695500004681],[-111.14166700039905,39.984352000185524],[-111.13426199976416,39.979482999657236],[-111.13503400024125,39.97615299974056],[-111.13324900016099,39.97378100034154],[-111.1300110002615,39.97286100028759],[-111.1295600001748,39.970496999978806],[-111.12405000012332,39.970476000286766],[-111.11892099983838,39.96780000031244],[-111.11804999962709,39.96173799966039],[-111.12085800025459,39.9597029997151],[-111.12023300009061,39.95710400013268],[-111.12916299961644,39.95162299987268],[-111.13124300014778,39.947392999926095],[-111.11956299972077,39.94523900025434],[-111.11842200007108,39.943484000248844],[-111.08306100019632,39.94319800027248],[-111.0831020002042,39.90005900012829],[-110.85764700017543,39.899706999913725],[-110.85778199989466,39.813014000043424],[-111.06577799983143,39.81413799968586],[-111.07905099981976,39.81412799993089],[-111.07905199964466,39.81223099967879],[-111.24749599958014,39.81302800006482],[-111.24774800037352,39.46719899987827],[-111.30090499972587,39.46723700029998],[-111.30125600025346,39.32343900016279],[-111.29972300006827,39.29453599965883],[-111.29938400013458,39.017822000216874],[-111.29817700036263,39.016823999881794],[-111.29843199973244,38.75180399968666],[-111.29913800008727,38.67232900003623],[-111.30701099962899,38.67233100026854],[-111.30570099992488,38.49999800031196],[-110.02528500013653,38.499982000075725],[-110.02061000031134,38.49588899984979],[-110.01952400001491,38.492752999933074],[-110.00197700005937,38.48167799982225],[-110.00327300041808,38.47040700018534],[-110.01139399965692,38.457403000248554],[-110.01075199977451,38.449493999938475],[-110.0133910003476,38.44669100030544],[-110.01855300024452,38.44629300020662],[-110.02494799985263,38.45072100001888],[-110.03044500038364,38.457224000150696],[-110.0354969997774,38.45996100030523],[-110.04393799958166,38.45611000012243],[-110.04431800042158,38.44901099982927],[-110.03878900010353,38.446349000169384],[-110.02658800016795,38.44743200019957],[-110.00665799973235,38.422955000052674],[-110.00312600010498,38.41410300003061],[-110.00661300042484,38.41020300027318],[-110.01780000003401,38.40501599997153],[-110.02382899994426,38.39448699968148],[-110.031456000337,38.39229200023237],[-110.03351800042668,38.38917300016387],[-110.03266200028402,38.38598499997861],[-110.02990800008321,38.38385800033257],[-110.01935499996051,38.3827819998405],[-110.01024899980925,38.377605000227476],[-110.00940400043557,38.37241699984846],[-110.01612100025896,38.365381000262154],[-110.01307199960706,38.364066999671515],[-110.00869300005786,38.36493999985779],[-110.00253399955297,38.36915000033679],[-109.98603600008394,38.38754899973664],[-109.98126099980132,38.38946099998427],[-109.97668200023557,38.38899300004576],[-109.97261800033067,38.38445999984082],[-109.97289600016501,38.376518000276164],[-109.97935699989537,38.365258999876076],[-109.98699599998368,38.36004099968006],[-109.98678599992141,38.35702899995109],[-109.98321300028616,38.35144299974386],[-109.96331999966048,38.33960199987128],[-109.95553900018027,38.343700999943934],[-109.95268100022238,38.35495899997219],[-109.9462270001647,38.3556760002701],[-109.9412090002078,38.35364400007737],[-109.94113899988761,38.35060200004442],[-109.94562700011508,38.34492800024271],[-109.94795600016846,38.33823500032191],[-109.96499900033383,38.3318040000909],[-109.9633489999728,38.31949199966213],[-109.96095299997226,38.31705100013301],[-109.95108699993783,38.31428299988175],[-109.94637899960236,38.30919799981024],[-109.950676999859,38.29515099994097],[-109.94964199961619,38.29077899990707],[-109.94537799969471,38.287515000206554],[-109.935012999893,38.28556899977819],[-109.92823800034328,38.280541999994625],[-109.9279930001209,38.27690700010766],[-109.93600999960267,38.26611699985096],[-109.93553599994975,38.262664999925214],[-109.9308030003982,38.2599639997614],[-109.92639899983634,38.26001300007375],[-109.91306899994662,38.269736999939596],[-109.90750000034392,38.27057200024609],[-109.90354600004386,38.264708999884334],[-109.90187999978927,38.256565000327164],[-109.90599399992293,38.251651000192346],[-109.91759499980888,38.24654500035176],[-109.9182569997828,38.242770999684645],[-109.915946999996,38.239771000063186],[-109.9125259997984,38.23857199992306],[-109.89891100040163,38.2427839998228],[-109.89152300038349,38.23523000005777],[-109.88852200031045,38.22971800003982],[-109.89052999997347,38.228011000001295],[-109.90359000042478,38.22941799977723],[-109.91627599988398,38.22727399997613],[-109.9198829998544,38.22439100022584],[-109.92046600018558,38.22088199988608],[-109.91809000027652,38.216269000142454],[-109.90903400035401,38.21073300029501],[-109.89792899986227,38.20673599989102],[-109.88780400026006,38.20787000028126],[-109.8897850001589,38.2029549996618],[-109.90218799976086,38.19464000023321],[-109.90401999969677,38.19090799977218],[-109.90095400022474,38.18783400008511],[-109.89141700007828,38.1902580002046],[-109.88666100006222,38.18988899998804],[-109.88510500031082,38.18789199978796],[-109.88716599967728,38.18295899971843],[-109.8912649997423,38.18070399964741],[-109.90354000019607,38.178368000004824],[-109.91383800005063,38.16762200024459],[-109.93092600042188,38.15878500013313],[-109.93264000035701,38.15698899974131],[-109.92822400009958,38.15250200031831],[-109.92726599984967,38.14922299965872],[-109.92929199995434,38.140352000110745],[-109.93437699985837,38.136078000102955],[-109.94395699966255,38.13519099998375],[-109.95615000010054,38.130352000066935],[-109.96315099960606,38.118928000140016],[-109.9646729999206,38.11373199986475],[-109.97855199980633,38.10987899994348],[-109.98688300000578,38.10052000027729],[-109.99414399980229,38.100388999705395],[-109.9994439997915,38.103548000238646],[-110.00360300013097,38.10846800007457],[-110.01009999984636,38.1096850001659],[-110.01670299986692,38.10591899972426],[-110.02603999999685,38.09722799980283],[-110.03354099999291,38.08536200020534],[-110.03872600035436,38.08214200004418],[-110.04701800019575,38.070493000017535],[-110.04282200004634,38.05872499991405],[-110.045685999852,38.05027199996348],[-110.04751199994016,38.04866000015476],[-110.05554000019086,38.04835099975368],[-110.06478000023644,38.04227900032612],[-110.07680100024697,38.02158600031246],[-110.07722899986915,38.0183349998153],[-110.07397400025123,38.00808500015143],[-110.0752110001604,38.00215100010414],[-110.07838700013559,37.998173999839224],[-110.08445600022878,37.9950730000478],[-110.09330399973888,37.99468999989861],[-110.11356700026039,38.00821500028355],[-110.13607600009631,38.005258999776665],[-110.1454940004171,37.990704999919814],[-110.16122600015514,37.98209999984204],[-110.16453000017687,37.9699820001554],[-110.16801300029876,37.965018000114014],[-110.18919999983669,37.95196100015515],[-110.20184900038426,37.94687699982753],[-110.20486299997775,37.94241199977646],[-110.20577900039488,37.9344510002551],[-110.203611,37.92708100025635],[-110.19956499963841,37.92223699984281],[-110.19840700027027,37.91592499980315],[-110.20412800020893,37.90602699977106],[-110.20531499988938,37.89773399996622],[-110.2087949996382,37.89407100012307],[-110.2154760003749,37.892497999705895],[-110.22940899978902,37.89572699967155],[-110.24751999980916,37.896425999780675],[-110.26180499957574,37.899269000298325],[-110.269488000045,37.897550999763304],[-110.27420999972587,37.89393900006625],[-110.27829899974515,37.8857619998965],[-110.27887100020568,37.87839399991095],[-110.27701499998031,37.871059000156954],[-110.28327300021942,37.86592300010785],[-110.29109300005767,37.869088999925154],[-110.29367499983104,37.87427399964971],[-110.29477500037119,37.88594699966546],[-110.29810199995912,37.88886900021228],[-110.30344299995619,37.8904970003085],[-110.34351200016644,37.89089299985143],[-110.36211500028116,37.89256399999243],[-110.38833300019478,37.88809299974352],[-110.40422099956845,37.8809459996545],[-110.40550000020872,37.87803700011581],[-110.40274099998503,37.85217800010907],[-110.40623800035061,37.84850999990148],[-110.42425399993621,37.84315100012016],[-110.43147600027301,37.83681300022111],[-110.43425200021512,37.83040499980994],[-110.43548999994918,37.81185299977585],[-110.43748099989376,37.806977999768776],[-110.44176699955655,37.80575899986015],[-110.4508590003624,37.809807999794536],[-110.46967800038722,37.80904699999984],[-110.47262599985848,37.80746499990666],[-110.47696099992504,37.80001699996497],[-110.47731499992737,37.79643999980787],[-110.47347899962809,37.794403999980034],[-110.46958799997552,37.77864100013432],[-110.46199999994084,37.77112999968386],[-110.4457760001082,37.77252399972893],[-110.4294350000997,37.779281000004644],[-110.42609300044312,37.77538000010583],[-110.42919400007527,37.770808999793665],[-110.44527999981565,37.76066500026183],[-110.44740800002758,37.755396999844145],[-110.44792699988636,37.739756999889416],[-110.45021699958167,37.734770000149716],[-110.45356400015942,37.73177099992068],[-110.46727800018873,37.7255420002913],[-110.46952000020347,37.722068000228944],[-110.46895899961358,37.7158069998174],[-110.47038600039187,37.7129649997523],[-110.47744200014898,37.70664200003578],[-110.48835099992385,37.7023229996766],[-110.48355100042515,37.6951589999184],[-110.48442400028625,37.682183999941586],[-110.48634699956048,37.67879900006133],[-110.48633800023795,37.6743689997181],[-110.49447100007067,37.666481000057566],[-110.49733499987633,37.659597000083885],[-110.49676099976598,37.65556600000957],[-110.49824399972245,37.6517379998801],[-110.50154000024658,37.65046699988175],[-110.51098699998136,37.65672600028946],[-110.51356499955678,37.65693999989247],[-110.52426499999255,37.64925400015823],[-110.53225100041048,37.635810999845276],[-110.53779700044697,37.63323700017917],[-110.54232099976113,37.63400300033789],[-110.554082000379,37.6420200001299],[-110.5590400000614,37.64226400013007],[-110.56327600039378,37.637894999663224],[-110.56423499957029,37.62498999986481],[-110.5673889998042,37.61374499968003],[-110.58272800008018,37.60813099973371],[-110.60297099961188,37.60337400024937],[-110.60417900010705,37.59769200004459],[-110.59834500019049,37.576661000089366],[-110.59970699977312,37.56869600025504],[-110.60610899995227,37.56471199994016],[-110.62219800006571,37.56277299990403],[-110.63664000019114,37.55352999990513],[-110.65097699983629,37.534488000237545],[-110.65983399956717,37.527072000274245],[-110.66392400030969,37.518368000029255],[-110.66767799969489,37.49616899974138],[-110.66353400032234,37.49433199997097],[-110.6446569996729,37.492334000233704],[-110.63980799977043,37.48924999997199],[-110.64019799975776,37.48601999995348],[-110.667608000273,37.47765900028405],[-110.69903900013718,37.48162799978374],[-110.71805800017849,37.481513000219216],[-110.72363000015424,37.47652299979055],[-110.72564200001523,37.47230499992168],[-110.72601600010903,37.45951100033322],[-110.73191799979767,37.4582990000367],[-110.74413999964966,37.460237000270794],[-110.74758299958856,37.45848599984668],[-110.74576499989635,37.45267300025293],[-110.72608600042923,37.435733000161164],[-110.72045400017905,37.435020999877615],[-110.70910199981509,37.43737300004211],[-110.70202699979139,37.43562500018124],[-110.69948000017811,37.43209000012885],[-110.70610900013799,37.417882999971745],[-110.70774799973005,37.41037800019645],[-110.71753500012176,37.40107299984988],[-110.72502500024717,37.399769999960036],[-110.73673099971512,37.405915999974944],[-110.74395700024988,37.40764900011596],[-110.75129500003929,37.406377000208934],[-110.75328400033406,37.40452400027565],[-110.7529289996085,37.399024999921124],[-110.7446560000337,37.388226999883535],[-110.72246000019221,37.3722670002224],[-110.72528299999003,37.36625299984011],[-110.73574499987612,37.35857399976761],[-110.73464100003636,37.34950800031126],[-110.73578199968604,37.34639700020021],[-110.73886399994993,37.34486699979448],[-110.7430579995512,37.34523200010658],[-110.7460579997993,37.34732500009619],[-110.74842899968549,37.35195200029394],[-110.75169199969933,37.352849000291776],[-110.75500599976681,37.34920499984588],[-110.756610999922,37.33641300028975],[-110.75906600037209,37.333024999862545],[-110.76792999977567,37.33201900016413],[-110.77389000008894,37.32468500026077],[-110.77737200038591,37.322907000057164],[-110.78740300027678,37.32370899991068],[-110.8045059998183,37.32093099995992],[-110.81837300000848,37.329349000012485],[-110.83351999976551,37.3350680002713],[-110.85740899962575,37.348810000021494],[-110.86553599961069,37.34997699981043],[-110.87326000008781,37.34593000009456],[-110.8732740003315,37.33752400006441],[-110.86724600024617,37.32783699964401],[-110.86140999978149,37.32494600023068],[-110.84942599958084,37.32328600005342],[-110.84079099960779,37.31837599974515],[-110.83789699966489,37.31022699995411],[-110.83859499962381,37.300217999675155],[-110.8411150003712,37.296433999729004],[-110.84746200029878,37.292640000052884],[-110.8672279998045,37.289928999787406],[-110.8730480003757,37.28690400025671],[-110.87326699976049,37.27772600026859],[-110.86138600039034,37.26461599986963],[-110.86074100013487,37.2601160003058],[-110.86412399979933,37.256275999766004],[-110.88113400035274,37.253738999796795],[-110.88833599969973,37.24855800017273],[-110.88722500018724,37.24455500004237],[-110.87976699984891,37.23739500001804],[-110.87505100001583,37.228899000246884],[-110.87965899989389,37.22349499999607],[-110.89328800043269,37.21914500011825],[-110.89815200040378,37.21470500018689],[-110.89742500013251,37.210557999854544],[-110.8893829996381,37.20283499998079],[-110.8904399996222,37.19306900032479],[-110.90237799979208,37.184458000346915],[-110.90126200025674,37.17491100031128],[-110.90294500022975,37.172348000070706],[-110.90958500006026,37.17253800028133],[-110.92133300025932,37.17890100023662],[-110.92507999997184,37.17778999964256],[-110.92665199961678,37.17113399997639],[-110.92484499979521,37.16451700022204],[-110.9253510001335,37.16020900001056],[-110.92828400043446,37.15487800017048],[-110.93582800008821,37.14845500033667],[-110.94155599969956,37.14808000009491],[-110.94983500002047,37.15286499969945],[-110.95449300012723,37.15125399968121],[-110.95607700036604,37.148041000249435],[-110.95569599970123,37.14399300020014],[-110.95065299962998,37.13389499983471],[-110.9577229996308,37.124869999751],[-110.96357099979106,37.123569999648815],[-110.98126699970952,37.12737700025207],[-110.98463400037876,37.12420499986009],[-110.98188900039877,37.116812999766665],[-110.98839000031211,37.111906000250826],[-110.99934699976752,37.1113070000292],[-111.01337200014146,37.11570500003557],[-111.01919400036245,37.11176399997856],[-111.04087800001784,37.10844500034726],[-111.0464790003059,37.1010349999024],[-111.0526399995623,37.09891400016606],[-111.05763499995295,37.09943900005503],[-111.06117400015133,37.10624800009015],[-111.06540200008779,37.107872999939254],[-111.07666800023802,37.10279599965587],[-111.09235999979309,37.105118999707926],[-111.1001610002631,37.1026469997148],[-111.12173899961329,37.10804900024935],[-111.12734800029727,37.10398199987676],[-111.13417800009857,37.090566000323356],[-111.13915900024553,37.08861300018668],[-111.15133300041695,37.091328999898295],[-111.15877499996346,37.101041999833946],[-111.16608299961564,37.105511999672785],[-111.17594799982518,37.103271000209034],[-111.17992700023962,37.1011110003529],[-111.18735799991543,37.0886319998386],[-111.21821600039246,37.056678000071436],[-111.22335300017504,37.05603699972241],[-111.2256689998096,37.05761499994778],[-111.23023400002995,37.06638199993923],[-111.23329600020236,37.069188000041656],[-111.23696599992198,37.070090999793656],[-111.24028400018742,37.067743000312575],[-111.24784899975755,37.04924800027591],[-111.24455999980445,37.04565200024458],[-111.232722000092,37.04305200024617],[-111.22988099985254,37.03889800009338],[-111.23621199988658,37.02617000009179],[-111.23978500042011,37.02207100007341],[-111.24536499989348,37.021441999995545],[-111.24951500001212,37.023708999718565],[-111.26231199979938,37.04749800030924],[-111.26817900022625,37.05407300018514],[-111.28615399980394,37.05962199992033],[-111.29395199990091,37.064988000328555],[-111.30006700002488,37.066744000101934],[-111.30440899976414,37.06396099987437],[-111.3057779999178,37.05748400031272],[-111.30300299980057,37.04683300023916],[-111.29888000034443,37.04365200026253],[-111.28561999987654,37.044653999755454],[-111.28166200027685,37.04172500033768],[-111.28533899966916,37.03711000029597],[-111.30621099956282,37.026628000285164],[-111.30718300005645,37.02370799993799],[-111.30340299983366,37.01626899987744],[-111.30623900005024,37.01255199983813],[-111.31441399971574,37.012017000214925],[-111.32385799997579,37.020258000066654],[-111.32819499969219,37.02118299988431],[-111.33468100043522,37.018280000039816],[-111.34016600037234,37.011810999812965],[-111.34514300032134,37.00874000024313],[-111.35682500039816,37.007141999953355],[-111.36815299957436,37.00203700011012],[-111.37708700019647,37.001801000015334],[-111.40349400025596,37.00519400001316],[-111.40876199955977,37.00444100030123],[-111.41301399978568,37.0015039997974],[-111.1505760000085,37.000949999809755],[-111.06495100000107,37.00234200017496],[-110.49029900021071,37.00362799979258],[-110.46973299974047,36.99765700001516],[-109.04517199995568,36.9989769999816],[-109.04563999976084,37.35972300017304],[-109.04157199965796,37.562138000329526],[-109.04257199974066,38.15701599979706],[-109.04283500040471,38.16626799973214],[-109.060204000085,38.27823799969793],[-109.05982400014341,38.71474599978691],[-109.05402200001389,38.87716100000002],[-109.05116599970583,39.14260300004778],[-109.05124500024685,40.441598999993865],[-109.04776700014786,40.60987900019516],[-109.05002599988103,41.00069099983698],[-109.23250500023617,41.002106999768735],[-109.54369700042534,40.998396000051514],[-110.08696400038232,40.99712799978271],[-110.27411199981658,40.994817000092304],[-110.87205699961548,40.99720899999768],[-110.86799500025872,40.99100999987832],[-110.86376800014718,40.988202999797075],[-110.86475999983396,40.98598200020451],[-110.86027300032974,40.97945900009707],[-110.8609679999156,40.97708299999367],[-110.8579540003221,40.97026200024729],[-110.85393800009773,40.96785399985088],[-110.85182699960426,40.96362999974997],[-110.85680199990342,40.95861099972393],[-110.85796099999479,40.9497120001817],[-110.85652700044213,40.94724399983342],[-110.85902100035194,40.94004500011956],[-110.86456800021334,40.934849999756814],[-110.87248000011311,40.91853400011806],[-110.87608899973337,40.914492000054665],[-110.88893699957427,40.90740700029555],[-110.89536800006572,40.90118800013827],[-110.90286800023684,40.89782100032379],[-110.90983399958229,40.87930000021899],[-110.91979800042434,40.86729900008831],[-110.9215979996749,40.86140900015749],[-110.92769400043058,40.862475999828696],[-110.943487000268,40.85478299975245],[-110.95685399996766,40.8529059998077],[-110.96768099972675,40.84805399978617],[-110.96495099981536,40.845755000170634],[-110.96008199982141,40.84567199972705],[-110.96833400037814,40.83845799967661],[-110.96722299996736,40.83806900027341],[-110.97204900030358,40.83689699979438],[-110.9785970000726,40.839218999820645],[-110.99471999962292,40.85029399981523],[-111.00573399987805,40.844342999917544],[-111.02150499997416,40.84372899990937],[-111.03890799998966,40.8476590000346],[-111.04651899959056,40.846915000338],[-111.05765300039462,40.84319199990761],[-111.06348999978592,40.84448899969997],[-111.07583899985953,40.83336100024166],[-111.08834699994178,40.832733000309034],[-111.0912049998997,40.83010500004927],[-111.09891199976005,40.8313549998672],[-111.12298200026856,40.82873600029649],[-111.12982999961322,40.83025199978019],[-111.13689200011643,40.827889000183546],[-111.16113199960591,40.82440000012902],[-111.1816729999618,40.80885299974431],[-111.1904729997913,40.8085700002342],[-111.19824800032204,40.812164999982556],[-111.24610700023334,40.81105600010539],[-111.2580660003196,40.806852999745786],[-111.26827999961026,40.80618399967176],[-111.27571399965916,40.80853399984235],[-111.29107700022456,40.80406999980798],[-111.29173199962747,40.80532900007505],[-111.29464999985981,40.80515900028985],[-111.29973300011403,40.80038899987204],[-111.3039779997689,40.807134000054376],[-111.30903599990877,40.80096099987062],[-111.31450499995233,40.80330600009243],[-111.31522100035292,40.806128999977496],[-111.31666099975335,40.803296999792366],[-111.32789000009366,40.799840000087976],[-111.33827599981178,40.806494000124765],[-111.34263199979476,40.804189000024046],[-111.35404600008299,40.806186000104816],[-111.35543500032813,40.8096439998807],[-111.36314700021137,40.80902200009189],[-111.38450700000166,40.8127539997534],[-111.3902959997124,40.811912000154],[-111.39341399996128,40.81480200011773],[-111.39510799980492,40.81308400032341],[-111.40118500029406,40.813079999873075],[-111.40765000022238,40.808484999787645],[-111.40891800009369,40.801848000167794],[-111.40979099995478,40.792494999899745],[-111.4078279995993,40.77361899980933],[-111.4059200003937,40.77122899997129],[-111.40131900018837,40.76967300022595],[-111.39744100005628,40.763424999967434],[-111.39066700033145,40.757947999736935],[-111.3760250001895,40.75286900015765],[-111.37925999971591,40.752841000181846],[-111.37932800038631,40.737891000251366],[-111.43392000001452,40.739012000119814],[-111.4342430000547,40.684683999809664],[-111.43720499976968,40.68536099972416],[-111.43687000003392,40.680587000166376],[-111.45119900018146,40.68178600000408],[-111.45922800025708,40.68404200024444],[-111.46239500001148,40.68314200010706],[-111.47233300001595,40.69755099969537],[-111.47289100023276,40.682781000297446],[-111.4917400003948,40.682898999703056],[-111.4917119999074,40.686500999672305],[-111.5085240000941,40.6866400000937],[-111.51091400024684,40.685721999864775],[-111.51085800017036,40.682950999813514],[-111.52040000033969,40.68298199999111],[-111.52039899961646,40.67923699968185],[-111.5299550000295,40.67925499982273],[-111.52995300037969,40.683019000316044],[-111.53266099965144,40.68300699999196],[-111.53266200037467,40.68191699969361],[-111.53717599964307,40.683500999965744],[-111.54720900008208,40.683250000002275],[-111.5504550003775,40.67901800007644],[-111.55825400029937,40.67739100022497],[-111.55928299979607,40.678257999837534],[-111.5573279998365,40.68159700000874],[-111.55810100013849,40.682757000242646],[-111.55635799989103,40.683318000199705],[-111.55774600031124,40.686906999732116],[-111.56896899990547,40.6902479996899],[-111.58730199968346,40.6897630000155],[-111.58664100043279,40.69943600023787],[-111.5927260004195,40.69912000004539],[-111.59474499995318,40.703685000201425],[-111.60634400018934,40.71286200019525],[-111.64650700011092,40.71269399989185],[-111.66330400022899,40.71103600029758],[-111.76818699975405,40.71089799999141],[-111.78152500003971,40.70900699982879],[-111.78152400021479,40.70780000019672],[-111.77695099959854,40.707806000169434],[-111.7767370002366,40.69053400027295],[-111.79726400034876,40.6892509999769],[-111.79814399988257,40.686999000183775],[-111.86551800012775,40.6870570002996],[-111.86456499990071,40.66343400007788],[-111.86594999994787,40.65910899988039],[-111.86599299960558,40.6221839999229],[-111.87186099985735,40.620723999746865],[-111.90393799980185,40.620711999805636],[-111.90570100014082,40.6151320001854],[-111.90352100005035,40.598720000030326],[-111.89997400035438,40.58670700002053],[-111.89935300038836,40.563452999866584],[-111.89103499970939,40.5290259998933],[-111.89094900039397,40.49371900004562],[-111.91214799962748,40.465877000287044],[-111.91428599988515,40.459196000117444]]]}},{"type":"Feature","properties":{"GEOID":"4901","NAME":"Congressional District 1","BASENAME":"1","STATE":"49","CD119":"01"},"geometry":{"type":"Polygon","coordinates":[[[-114.0394610003649,41.71887400001755],[-114.04202899989457,40.999896000112805],[-112.79935900011084,40.999939000233184],[-112.45162100001627,41.08733400024096],[-112.12677099987431,41.089215999686836],[-112.12488799988475,41.084715000118315],[-112.1250800004037,41.079381000088375],[-112.11968599980484,41.0642500001798],[-112.10432599961247,41.04942899981011],[-112.09749099978829,41.0352880003078],[-112.09328999961602,41.03256100019494],[-112.08675299971767,41.03233699970834],[-112.07614299969356,41.024748999727436],[-112.06569099985319,41.02181500031394],[-112.05731600017116,41.01085399990655],[-112.05609000013263,41.00763100019412],[-112.05784900027362,41.007026999992746],[-112.05122199996359,40.994632999998885],[-112.04429400025299,40.98962199995035],[-112.00450000040236,40.98531400020895],[-111.99777400035812,40.99097899966356],[-111.98044800033551,40.994038000153715],[-111.97630999991244,40.992650999671056],[-111.9740820001414,40.98648699997736],[-111.97033399970564,40.98627199997615],[-111.96651099982515,40.991779999880016],[-111.96285699999905,40.98871299969905],[-111.9500250000517,40.994249000242704],[-111.9309320003905,40.99617600012559],[-111.92956999990955,40.99751099967915],[-111.93090899992596,40.99980899978349],[-111.92601200034292,40.99980899978349],[-111.92597999965754,41.002206000072505],[-111.9310520000411,41.00555799968059],[-111.93088800000956,41.00859899977598],[-111.92229400004439,41.009702000182145],[-111.91965600019452,41.01277100022698],[-111.9128120001495,41.01183299966504],[-111.90648600013834,41.01642100000031],[-111.90168099971851,41.01643900028505],[-111.90168999993934,41.01285099971174],[-111.89696099968745,41.01401999975916],[-111.89695900003765,41.01648000027517],[-111.89222800013596,41.016527999850915],[-111.89211699980785,41.00384000019512],[-111.8903660000628,41.0020619997664],[-111.88730100041565,41.002080999876576],[-111.88732800017985,40.99841399983696],[-111.88017799981309,40.998396000051514],[-111.88013500015538,40.98745500021937],[-111.87786700020135,40.98748399967391],[-111.87775699969818,40.9765690002797],[-111.87304500006306,40.974777000237445],[-111.87292399968925,40.96571299982419],[-111.8800039997358,40.96483199976854],[-111.88001999962933,40.95216599987779],[-111.87588200010455,40.95264599969012],[-111.8727439997642,40.94862900031945],[-111.86996399962409,40.9315059999158],[-111.86843499963686,40.93165299993413],[-111.86986300024007,40.929328000229646],[-111.86795599996108,40.92935599972696],[-111.86769599967009,40.92206100030542],[-111.86554700044006,40.92206500028635],[-111.86486899967434,40.91476500009961],[-111.85340000003283,40.914829999976455],[-111.8535249997063,40.90752300023992],[-111.86311999957908,40.90748499985917],[-111.86303300043878,40.90351700024804],[-111.85148699990606,40.903513999929835],[-111.85128100004172,40.900005999816706],[-111.84760999959887,40.900021000165104],[-111.84766499985045,40.8982850002729],[-111.84379500011428,40.89513099973059],[-111.84457199971592,40.891257999717226],[-111.84225400043151,40.89125599981347],[-111.84226299975403,40.88978700019007],[-111.84375400010643,40.88976700002613],[-111.8438650004345,40.88201700000212],[-111.8390769997331,40.88199500002283],[-111.83915799992394,40.878387000244224],[-111.83442700002225,40.87836600022389],[-111.83419299967049,40.88556099985809],[-111.81537100017096,40.88557499970884],[-111.81555399957075,40.8711400001973],[-111.83462700003878,40.871175999887924],[-111.83446899985503,40.863921999738835],[-111.83919499973385,40.863922999764],[-111.8391400003806,40.86003799995023],[-111.8343759999686,40.85991100005095],[-111.83428999975489,40.85612200020279],[-111.85344299969051,40.856436000185994],[-111.85338900016217,40.849243999738015],[-111.84858700011534,40.849136000176436],[-111.84852500019109,40.84175699997857],[-111.85334300013142,40.8419309998341],[-111.85338199959116,40.8346679999706],[-111.87236299999766,40.83459799988206],[-111.87235299995194,40.82741599985308],[-111.89101700016604,40.82728100009553],[-111.89115400043339,40.82182600033251],[-111.90090599976669,40.82182700031328],[-111.9009069995916,40.81988199971657],[-111.90566900035377,40.81987799967615],[-111.9056650001558,40.82182299971035],[-111.91555499958136,40.82181599984432],[-111.91876200041702,40.81307899976049],[-111.91828500039107,40.80746900032421],[-111.90369699977745,40.79443500024755],[-111.89968399992613,40.78673299983816],[-111.89682400031843,40.785372000284354],[-111.89110099983164,40.774250000193476],[-111.89108099974014,40.74977500022967],[-111.8386759998751,40.74980300013552],[-111.8386759998751,40.74775300006851],[-111.83252599959103,40.74775200033294],[-111.83032100028451,40.745492000049815],[-111.83076599962513,40.73198600010124],[-111.83362600013115,40.73199799977114],[-111.83365700009328,40.72549699979815],[-111.83576500021374,40.72012699969301],[-111.83362600013115,40.7193720000309],[-111.83407600039295,40.69670100010372],[-111.83087399958015,40.687082000134275],[-111.79742099980928,40.68704000018867],[-111.79726400034876,40.6892509999769],[-111.7767370002366,40.69053400027295],[-111.77695099959854,40.707806000169434],[-111.78152400021479,40.70780000019672],[-111.78152500003971,40.70900699982879],[-111.76818699975405,40.71089799999141],[-111.66330400022899,40.71103600029758],[-111.64650700011092,40.71269399989185],[-111.60634400018934,40.71286200019525],[-111.59474499995318,40.703685000201425],[-111.5927260004195,40.69912000004539],[-111.58664100043279,40.69943600023787],[-111.58730199968346,40.6897630000155],[-111.56896899990547,40.6902479996899],[-111.55774600031124,40.686906999732116],[-111.55635799989103,40.683318000199705],[-111.55810100013849,40.682757000242646],[-111.5573279998365,40.68159700000874],[-111.55928299979607,40.678257999837534],[-111.55825400029937,40.67739100022497],[-111.5504550003775,40.67901800007644],[-111.54720900008208,40.683250000002275],[-111.53717599964307,40.683500999965744],[-111.53266200037467,40.68191699969361],[-111.53266099965144,40.68300699999196],[-111.52995300037969,40.683019000316044],[-111.5299550000295,40.67925499982273],[-111.52039899961646,40.67923699968185],[-111.52040000033969,40.68298199999111],[-111.51085800017036,40.682950999813514],[-111.51091400024684,40.685721999864775],[-111.5085240000941,40.6866400000937],[-111.4917119999074,40.686500999672305],[-111.4917400003948,40.682898999703056],[-111.47289100023276,40.682781000297446],[-111.47233300001595,40.69755099969537],[-111.46239500001148,40.68314200010706],[-111.45922800025708,40.68404200024444],[-111.45119900018146,40.68178600000408],[-111.43687000003392,40.680587000166376],[-111.43720499976968,40.68536099972416],[-111.4342430000547,40.684683999809664],[-111.43392000001452,40.739012000119814],[-111.37932800038631,40.737891000251366],[-111.37925999971591,40.752841000181846],[-111.3760250001895,40.75286900015765],[-111.39066700033145,40.757947999736935],[-111.39744100005628,40.763424999967434],[-111.40131900018837,40.76967300022595],[-111.4059200003937,40.77122899997129],[-111.4078279995993,40.77361899980933],[-111.40979099995478,40.792494999899745],[-111.40891800009369,40.801848000167794],[-111.40765000022238,40.808484999787645],[-111.40118500029406,40.813079999873075],[-111.39510799980492,40.81308400032341],[-111.39341399996128,40.81480200011773],[-111.3902959997124,40.811912000154],[-111.38450700000166,40.8127539997534],[-111.36314700021137,40.80902200009189],[-111.35543500032813,40.8096439998807],[-111.35404600008299,40.806186000104816],[-111.34263199979476,40.804189000024046],[-111.33827599981178,40.806494000124765],[-111.32789000009366,40.799840000087976],[-111.31666099975335,40.803296999792366],[-111.31522100035292,40.806128999977496],[-111.31450499995233,40.80330600009243],[-111.30903599990877,40.80096099987062],[-111.3039779997689,40.807134000054376],[-111.29973300011403,40.80038899987204],[-111.29464999985981,40.80515900028985],[-111.29173199962747,40.80532900007505],[-111.29107700022456,40.80406999980798],[-111.27571399965916,40.80853399984235],[-111.26827999961026,40.80618399967176],[-111.2580660003196,40.806852999745786],[-111.24610700023334,40.81105600010539],[-111.19824800032204,40.812164999982556],[-111.1904729997913,40.8085700002342],[-111.1816729999618,40.80885299974431],[-111.16113199960591,40.82440000012902],[-111.13689200011643,40.827889000183546],[-111.12982999961322,40.83025199978019],[-111.12298200026856,40.82873600029649],[-111.09891199976005,40.8313549998672],[-111.0912049998997,40.83010500004927],[-111.08834699994178,40.832733000309034],[-111.07583899985953,40.83336100024166],[-111.06348999978592,40.84448899969997],[-111.05765300039462,40.84319199990761],[-111.04651899959056,40.846915000338],[-111.03890799998966,40.8476590000346],[-111.02150499997416,40.84372899990937],[-111.00573399987805,40.844342999917544],[-110.99471999962292,40.85029399981523],[-110.9785970000726,40.839218999820645],[-110.97204900030358,40.83689699979438],[-110.96722299996736,40.83806900027341],[-110.96833400037814,40.83845799967661],[-110.96008199982141,40.84567199972705],[-110.96495099981536,40.845755000170634],[-110.96768099972675,40.84805399978617],[-110.95685399996766,40.8529059998077],[-110.943487000268,40.85478299975245],[-110.92769400043058,40.862475999828696],[-110.9215979996749,40.86140900015749],[-110.91979800042434,40.86729900008831],[-110.90983399958229,40.87930000021899],[-110.90286800023684,40.89782100032379],[-110.89536800006572,40.90118800013827],[-110.88302400001497,40.911282999786245],[-110.87817900031047,40.91253999998312],[-110.87248000011311,40.91853400011806],[-110.86456800021334,40.934849999756814],[-110.85869300028888,40.94071699995749],[-110.85651200037351,40.947385000066674],[-110.85796099999479,40.9497120001817],[-110.85680199990342,40.95861099972393],[-110.85182699960426,40.96362999974997],[-110.85393800009773,40.96785399985088],[-110.8579540003221,40.97026200024729],[-110.8609679999156,40.97708299999367],[-110.86027300032974,40.97945900009707],[-110.86475999983396,40.98598200020451],[-110.86376800014718,40.988202999797075],[-110.86799500025872,40.99100999987832],[-110.87205699961548,40.99720899999768],[-111.04681499986657,40.99787500010102],[-111.04671399958423,42.00170199996529],[-112.1538480003036,41.99722600026852],[-112.17314799965403,42.00151499997327],[-112.7056840001114,42.00015099970423],[-113.24978100027177,41.995968999845786],[-113.87334899995753,41.988181999870925],[-114.04147700042382,41.993872999699974],[-114.0394610003649,41.71887400001755]]]}},{"type":"Feature","properties":{"GEOID":"4904","NAME":"Congressional District 4","BASENAME":"4","STATE":"49","CD119":"04"},"geometry":{"type":"Polygon","coordinates":[[[-112.32915499965235,39.59246800026775],[-112.3544670000929,39.5536839997574],[-112.21204500025243,39.55398700032117],[-112.21202900035891,39.547729999838715],[-112.20735299981047,39.54769600003493],[-112.20734600013779,39.54407999975638],[-112.20267200013748,39.5440480001327],[-112.20266600028971,39.54043400026342],[-112.19329200034987,39.540450999868185],[-112.19324200012115,39.526023000005615],[-112.2119730002824,39.52604200008421],[-112.21196099968853,39.511579000212045],[-112.20728500003842,39.511566000041434],[-112.20730000010703,39.50433399985197],[-112.20263299977944,39.504323000053645],[-112.20262600010673,39.48985799973264],[-112.19327700028124,39.48983400033991],[-112.19359600012348,39.37309000028626],[-112.18890700005457,39.37308900031267],[-112.1889220001232,39.329391999908914],[-112.07210800010095,39.32969500013044],[-112.0722179997058,39.31492300011279],[-112.01600300037904,39.314560999946465],[-112.01408299968128,39.04551800026205],[-111.84988599994881,39.04557700032942],[-111.84628300017634,39.042381999755364],[-111.85322500013064,39.040646000152655],[-111.8516740004021,39.039562000131156],[-111.8536660001716,39.03749300034805],[-111.85329700010067,39.032983999760624],[-111.29936300021816,39.032310999713154],[-111.30090499972587,39.46723700029998],[-111.24774800037352,39.46719899987827],[-111.24749599958014,39.81302800006482],[-111.07905199964466,39.81223099967879],[-111.07905099981976,39.81412799993089],[-111.06577799983143,39.81413799968586],[-110.85778199989466,39.813014000043424],[-110.85764700017543,39.899706999913725],[-111.0831020002042,39.90005900012829],[-111.08306100019632,39.94319800027248],[-111.11842200007108,39.943484000248844],[-111.11956299972077,39.94523900025434],[-111.13124300014778,39.947392999926095],[-111.12916299961644,39.95162299987268],[-111.12023300009061,39.95710400013268],[-111.12085800025459,39.9597029997151],[-111.11804999962709,39.96173799966039],[-111.11892099983838,39.96780000031244],[-111.12405000012332,39.970476000286766],[-111.1295600001748,39.970496999978806],[-111.1300110002615,39.97286100028759],[-111.13324900016099,39.97378100034154],[-111.13503400024125,39.97615299974056],[-111.13426199976416,39.979482999657236],[-111.14166700039905,39.984352000185524],[-111.1430430002254,39.98695500004681],[-111.15189999995631,39.984954999977745],[-111.15955800031118,39.99179400006141],[-111.1651710002948,39.99001200000528],[-111.16781400016755,39.99083200031738],[-111.1698670000364,39.9997330002293],[-111.16796099958233,40.00318400004083],[-111.17166499963713,40.01065700019376],[-111.1748849999933,40.01228300025475],[-111.1770979996957,40.016064000216275],[-111.18662999981932,40.02011200004606],[-111.18962699969437,40.023278999942086],[-111.19186000038661,40.03013699968755],[-111.19770799964854,40.03117900011032],[-111.20029399961987,40.03710699999433],[-111.19898999976357,40.040041000159114],[-111.20384000038926,40.04614399994936],[-111.2038300003435,40.04929800005701],[-111.21389800004432,40.04298400007296],[-111.22295300014194,40.04062399972287],[-111.22650099966283,40.03568600010435],[-111.23798199989821,40.038568000015424],[-111.24082300013767,40.04380300031909],[-111.24620699979242,40.04746600011891],[-111.24643000027352,40.05229699984872],[-111.24936699987411,40.05533400014192],[-111.24174100020463,40.06303299978542],[-111.24107099983479,40.06598400003939],[-111.23588299999861,40.06963499973195],[-111.24069300044133,40.0735030002974],[-111.23798500027127,40.080318999998745],[-111.24234399972897,40.085959999837165],[-111.2414590001723,40.0918180002825],[-111.23719000022797,40.09485000002192],[-111.2346019997085,40.0999689999046],[-111.23469799996796,40.1041909999736],[-111.22977600027056,40.10712700023572],[-111.22538900032545,40.120056999998226],[-111.22152600026197,40.12452299988713],[-111.22502299972922,40.14306500004993],[-111.23146699974117,40.14788800023739],[-111.22672900016677,40.15581299985863],[-111.22922899992439,40.15859100020061],[-111.2252250002939,40.166367000030796],[-111.23533700037567,40.17603999977895],[-111.23547999959247,40.180688000204555],[-111.23901799996592,40.18277500019849],[-111.24800299974333,40.19383299994618],[-111.25823899967365,40.19789099979036],[-111.25636200043019,40.20115699983553],[-111.26323599971411,40.20558100020893],[-111.26490600016665,40.20925899971663],[-111.26179799996349,40.21088600016928],[-111.26711100037146,40.213035000291825],[-111.27344900007817,40.22199399987255],[-111.27180799993798,40.22814100008044],[-111.27367699968383,40.23607900028918],[-111.26773599963713,40.23707199974134],[-111.2648390002195,40.24227100026714],[-111.27164999975423,40.25064300020386],[-111.27671399974187,40.252519000244156],[-111.27901500020613,40.25890200002042],[-111.28989499966868,40.26620300016056],[-111.2942320002834,40.26557500006769],[-111.29435399958382,40.270791000142616],[-111.29791000039894,40.27308000002491],[-111.30796800005399,40.27460299997193],[-111.30902800041115,40.27616099977298],[-111.30707799957614,40.282649000200536],[-111.31343100024979,40.28725500006288],[-111.32199599990265,40.287245000269515],[-111.3254920004433,40.28277199981977],[-111.32844300028763,40.28227199985084],[-111.3367779997867,40.288323999794656],[-111.34606600041114,40.28719799991906],[-111.35233100032292,40.28966600004459],[-111.36075299986067,40.28872699969031],[-111.36854299956168,40.2921159996997],[-111.3740550001613,40.29704300002542],[-111.37726399974845,40.29750700026582],[-111.38151199977641,40.29454699979499],[-111.39252900040461,40.29621700004647],[-111.3969370002661,40.29244500013851],[-111.40250000002104,40.29600699971934],[-111.41031599966135,40.29515100011664],[-111.41273199975338,40.28947499979109],[-111.4266459997992,40.28702000007412],[-111.43365899989861,40.29192199971917],[-111.44183000026447,40.28991000009261],[-111.45159300036676,40.29328999980702],[-111.45197199958513,40.29716699979921],[-111.45731599995524,40.30071400006491],[-111.47181300033226,40.292122999667406],[-111.48779399959233,40.28874299983042],[-111.49469100023911,40.289681999962355],[-111.50074400043879,40.28483800019425],[-111.5092630000609,40.284305000299184],[-111.51309000013936,40.28259200028441],[-111.51663199981245,40.27776500017345],[-111.52496499966172,40.27310700025464],[-111.53467500006055,40.2636550001581],[-111.53690000035687,40.264670999952905],[-111.53691500042547,40.26116599998919],[-111.54241500043119,40.26118699990734],[-111.54237199987517,40.24719600030755],[-111.52573299994083,40.2468750000013],[-111.52248800036867,40.24314300011094],[-111.5175780003668,40.24085199981736],[-111.51210400030035,40.23437600026156],[-111.51057699996296,40.227298999669486],[-111.50759299960836,40.22364599982023],[-111.50878600003492,40.2237769999385],[-111.50821199992455,40.21993000013152],[-111.5025479998873,40.21287399986651],[-111.50250100003166,40.20719900006962],[-111.50464400031218,40.20571499977053],[-111.50225699963417,40.20042000018869],[-111.50552700021902,40.19923100031972],[-111.5021870002123,40.19764600021725],[-111.50311399960174,40.1955959999743],[-111.49849599967797,40.1957109999301],[-111.49835400028604,40.19432400014643],[-111.49889400006121,40.19171500010968],[-111.49887700034277,40.18908899967102],[-111.49569200014673,40.19468699969005],[-111.49452600038268,40.195601000125635],[-111.49399499993004,40.194150999810674],[-111.49531899987782,40.18616700002119],[-111.49844100032469,40.17967700019642],[-111.4944019996358,40.177793000199046],[-111.49491200017206,40.17399599968013],[-111.49804799996429,40.172607999854414],[-111.49677099987215,40.16949900018609],[-111.49809200034522,40.16633400004226],[-111.49345000013199,40.16764899996063],[-111.49420900019027,40.16660399991394],[-111.49277100043965,40.16605800000928],[-111.50118799995451,40.162055000180935],[-111.50883799991344,40.161478999872664],[-111.5104110002816,40.159976000224034],[-111.50992300038497,40.16126499979315],[-111.51112400030914,40.15928700029962],[-111.51629200005382,40.16055900008569],[-111.52159299986792,40.15877000032752],[-111.52587000020817,40.15940700009278],[-111.54621099964919,40.1522839998344],[-111.5599249996785,40.15227699982175],[-111.55992999970135,40.1577070000643],[-111.56502100035149,40.15770399980814],[-111.56501899980334,40.15567600022404],[-111.56956700030527,40.15566200021074],[-111.56963699972714,40.15940500020095],[-111.57204299977343,40.159410000273674],[-111.57456299962251,40.16309599997955],[-111.57460100015567,40.1666899998204],[-111.58466800003156,40.166621000279235],[-111.5846429999172,40.16836599974466],[-111.59379900029715,40.171052000142325],[-111.59379799957392,40.169440000109454],[-111.5979989997462,40.16945199974524],[-111.59800600031721,40.166658000171246],[-111.60037800002829,40.16666500007433],[-111.59849000001587,40.1628719998704],[-111.60065400021281,40.161055000098806],[-111.6572710001208,40.161296999924936],[-111.66323899993166,40.15855299972937],[-111.7113320001947,40.158299999807916],[-111.72008500016852,40.15468999978299],[-111.71972299977028,40.1587389999903],[-111.73050199984878,40.159318999990575],[-111.73066300040557,40.15778200024614],[-111.73383299963469,40.16521700014278],[-111.74756500010564,40.16645099986681],[-111.73741899968871,40.17125900014389],[-111.73913400034708,40.176962999876636],[-111.73486200002972,40.1821909997093],[-111.73094100023992,40.18312499988749],[-111.71874899962684,40.17869999971129],[-111.71822100044555,40.18215100018757],[-111.72246100007756,40.187552999993756],[-111.72723600036018,40.18893299997186],[-111.7288139998529,40.19252399980726],[-111.7257380003351,40.193584000293086],[-111.73159700036604,40.19530000024131],[-111.73169199990227,40.22349800030858],[-111.73903499971458,40.23025400002368],[-111.74004499984301,40.23268099976821],[-111.7380499997005,40.234667999969396],[-111.739972999873,40.23626300022747],[-111.73805600044658,40.236842000088124],[-111.74096200008506,40.23698500008964],[-111.73981600041247,40.24035400012864],[-111.73611400000749,40.23958800006907],[-111.73495900011409,40.24125200012557],[-111.73525899968973,40.24365199965783],[-111.73005999998288,40.25295300013236],[-111.73056100029832,40.25665299966949],[-111.75286199972176,40.27125200031876],[-111.7585869998584,40.27992199966743],[-111.77226400007777,40.28014999982462],[-111.77277700008875,40.34103799987241],[-111.77929800009359,40.347660999710705],[-111.78157400044351,40.34767199970921],[-111.78175099999552,40.341930000282446],[-111.78402499979731,40.34192899994856],[-111.78554200008897,40.33952599968435],[-111.79529599997039,40.34301299989283],[-111.79689799975257,40.34557800020747],[-111.79935599967736,40.345627999800975],[-111.80054200043122,40.34236799995043],[-111.80173199958642,40.34693300011468],[-111.80128899989563,40.370836000199276],[-111.81675399967,40.3758289999481],[-111.82995899988626,40.38362599980597],[-111.83715799975852,40.39391900022848],[-111.87368600012057,40.416758000240016],[-111.89828299998544,40.439063999764045],[-111.91051400005827,40.447757000157196],[-111.91322499970306,40.45170099996804],[-111.91428599988515,40.459196000117444],[-111.91271400024023,40.46492599980238],[-111.89094900039397,40.49371900004562],[-111.89103499970939,40.5290259998933],[-111.89935300038836,40.563452999866584],[-111.89997400035438,40.58670700002053],[-111.90352100005035,40.598720000030326],[-111.90570100014082,40.6151320001854],[-111.90393799980185,40.620711999805636],[-111.87186099985735,40.620723999746865],[-111.86599299960558,40.6221839999229],[-111.86594999994787,40.65910899988039],[-111.86456499990071,40.66343400007788],[-111.86551800012775,40.6870570002996],[-111.91779900014424,40.68698300002551],[-111.93826799963178,40.682130999792214],[-112.02474299993408,40.68207799968221],[-112.02464199965175,40.66105599981129],[-112.02709899975163,40.65911500014914],[-112.02711600036841,40.656373000334845],[-112.02531899969426,40.65486000015103],[-112.02728500042281,40.65498800028986],[-112.02728399969958,40.65409000005486],[-112.02455700016125,40.65452500009492],[-112.02463400015414,40.638551000312034],[-112.03138500031274,40.63855599969081],[-112.03501900004736,40.631229000176006],[-112.07671799962884,40.63111999976434],[-112.07947299965457,40.62895900008012],[-112.19033800013251,40.62801099973695],[-112.196392999982,40.62933999971921],[-112.1976740002721,40.62546199979672],[-112.1958990002376,40.62123300009986],[-112.18815700021712,40.61392799979622],[-112.18170900000722,40.612055000043874],[-112.17854999975047,40.60547299992599],[-112.17533699996534,40.60398100022367],[-112.17753799997217,40.596089999822745],[-112.17495700002372,40.58532000012059],[-112.18146899980772,40.58038299999568],[-112.18037699966352,40.57734599973559],[-112.18362499960872,40.57339400006684],[-112.18199199986445,40.570707999830475],[-112.18290699955833,40.56218999967306],[-112.17823400028128,40.55625100013302],[-112.17919500000593,40.54630599972683],[-112.18278899955756,40.540980000326954],[-112.17919500000593,40.53161199975197],[-112.1787420002694,40.521910000214945],[-112.18521100039567,40.51777800021028],[-112.18765000005392,40.51389900029904],[-112.18037099981574,40.50272200028697],[-112.17584499995343,40.5001420001909],[-112.18058199970292,40.49756700027618],[-112.18132800024073,40.49265099992327],[-112.17701599974038,40.485382999722674],[-112.17821400018978,40.48233500026324],[-112.17627400029883,40.476763999731055],[-112.17360200011379,40.47595499969424],[-112.1716320000856,40.47049299998478],[-112.1736049995885,40.4669270000401],[-112.19020000004025,40.4685410001856],[-112.19568599980227,40.462259000302836],[-112.21221900032971,40.45928200003393],[-112.21417799958891,40.45230999972581],[-112.20952500040335,40.43226000030605],[-112.20499000032024,40.43114100031876],[-112.19463899986388,40.42110900032859],[-112.19791199992348,40.41493200025718],[-112.19985400036256,40.40349699975109],[-112.19849400042976,40.40025400021576],[-112.20005100000607,40.39735599972848],[-112.19933999962835,40.3908190000597],[-112.20160500010765,40.387991999762185],[-112.19916899992414,40.38254499982259],[-112.19441100025826,40.37954400007242],[-112.18873399980221,40.372486999927084],[-112.19366600044368,40.36801999976761],[-112.19471900022984,40.361330000331684],[-112.18807600002627,40.35488499985609],[-112.18508300034915,40.34799600010589],[-112.18136599987555,40.34588499982422],[-112.1755329997839,40.33583700021644],[-112.17993499979762,40.33213500031716],[-112.19076800030281,40.329515000059196],[-112.19627599980615,40.325836000037626],[-112.19268200025448,40.3228910002711],[-112.1937020004287,40.3183450000855],[-112.19748099992826,40.316082000253374],[-112.19850399957718,40.31230600011243],[-112.19735200005684,40.30880400034253],[-112.19860499985951,40.306915000103544],[-112.19207999965674,40.304099999792214],[-112.18644999995468,40.28672899988012],[-112.18843900024943,40.285701999972595],[-112.18905000016971,40.27354099967622],[-112.19289800016458,40.26893899987356],[-112.19219600000771,40.26449999983497],[-112.18384300006696,40.258131999944624],[-112.183910999839,40.24996299991017],[-112.1793260004255,40.249365000331885],[-112.17973800015415,40.23242000001225],[-112.17692899970174,40.23003499980305],[-112.17668799967731,40.22771699990789],[-112.17059500019298,40.225720000180466],[-112.16844100004177,40.22170800004825],[-112.16896099972546,40.21953800011035],[-112.16693299997094,40.21814899987112],[-112.16153199969945,40.21705899967204],[-112.15688899966128,40.21940299966377],[-112.15345999996607,40.21783800018237],[-112.15493899972458,40.2150029996948],[-112.14948599957452,40.212173999774464],[-112.15854099967216,40.20671900011029],[-112.1572419998387,40.20323200004875],[-112.16049900000476,40.19924500026636],[-112.158036999882,40.197329000004785],[-112.14862000028445,40.19567799980162],[-112.14877500009514,40.190605000232225],[-112.14687100018921,40.18948799973692],[-112.15049900007602,40.18768200013852],[-112.15336100023188,40.18184699975726],[-112.1527500003116,40.17905599983053],[-112.14671200018054,40.17834999984384],[-112.14597999988644,40.17427599997617],[-112.14438700032512,40.17348699980869],[-112.14570100022718,40.17095900012507],[-112.15579700041538,40.170381000290234],[-112.15507900036499,40.168550999738805],[-112.15868499961219,40.16338699972549],[-112.16462400000907,40.16186499975407],[-112.17395000026832,40.15449100020964],[-112.17173900021572,40.14914699977321],[-112.16776900002213,40.14666599982584],[-112.17241899973298,40.140897999734676],[-112.1730199996075,40.13532800031357],[-112.17625099983431,40.13099899965873],[-112.1729700002771,40.12754899990814],[-112.16373100005649,40.123441999825864],[-112.1641689997244,40.11874899978293],[-112.1612830001774,40.11690799990349],[-112.16081299982412,40.11423800019113],[-112.1561570002655,40.11329100014411],[-112.15488199982317,40.108745999736044],[-112.15089200043641,40.107297999716465],[-112.15104999972183,40.105290999664206],[-112.15701400023306,40.098490000313085],[-112.1579459996454,40.08910699986424],[-112.17141000032775,40.085551000316066],[-112.1745479997698,40.08183399993712],[-112.17405999987318,40.07969899994199],[-112.1759610003044,40.07771599974452],[-112.17197900041523,40.069053999926155],[-112.17314900037724,40.0662389997486],[-112.17998400020143,40.067219999791874],[-112.1837690004471,40.059963999825165],[-112.17871999962976,40.053380000172126],[-112.17761400014018,40.04735600020357],[-112.17198000024013,40.03957999988624],[-112.17485099971852,40.03543899994832],[-112.17397100018474,40.03285599990074],[-112.17751100020801,40.02969800006999],[-112.17689400043993,40.01942999998804],[-112.17980000007842,40.01165600030816],[-112.17435899962393,40.01104400002675],[-112.17040199984913,40.007823000182846],[-112.16032300027767,40.00698200004168],[-112.15493600024985,40.00052000018055],[-112.15071900018407,39.9980600000352],[-112.15086499977393,39.99345499987928],[-112.14198700012662,39.98964199988971],[-112.14206699959425,39.986707999681904],[-112.13623900042379,39.98243699973245],[-112.1327289996394,39.977470999982096],[-112.12433800006384,39.97410600031505],[-112.10986699962609,39.9737990002894],[-112.10980100040216,39.97056600020005],[-112.10400400029552,39.96531899990076],[-112.10242400025467,39.95888800006111],[-112.0957240001497,39.956773000249285],[-112.09400299964354,39.95390400007237],[-112.10342099996434,39.94699000013287],[-112.10313200025932,39.94251499997406],[-112.10625899983073,39.93930499982334],[-112.10250000042264,39.93484499997474],[-112.10430800006912,39.930804999978584],[-112.10359000001873,39.9287670000239],[-112.09886999998767,39.928109000264165],[-112.09327899974537,39.93016200029096],[-112.09210899978335,39.92761799985002],[-112.0852480000199,39.92549399996011],[-112.08513900023995,39.92304400000613],[-112.0829039998979,39.92148399979927],[-112.08343399962733,39.91846999979448],[-112.08060099978378,39.91707499967339],[-112.081256000085,39.91314699990225],[-112.07839200027932,39.91145699969117],[-112.07221299968295,39.91131700020903],[-112.06255199968793,39.90467999984397],[-112.06150399992465,39.89859400026172],[-112.0577709995575,39.8947049996574],[-112.05352400025279,39.89348199970701],[-112.05955599963777,39.88716999984214],[-112.06039400023707,39.88424799973107],[-112.05913100038865,39.88005199975111],[-112.06638200013944,39.875958000092446],[-112.07057900011375,39.86986500031971],[-112.08129100024509,39.86476899982937],[-112.07950500033994,39.85747100016105],[-112.0806090001797,39.85325899983713],[-112.07692199984334,39.85283599985939],[-112.0739850002427,39.847296999791325],[-112.07521499958088,39.83969299970886],[-112.07049700009797,39.83812199980118],[-112.06983400029917,39.83469299974014],[-112.06545300020183,39.82988999968728],[-112.06826199975592,39.82753100031563],[-112.07270899997549,39.81214199989154],[-112.07775600024468,39.809152000195404],[-112.08002300037379,39.80210099967967],[-112.07675600016199,39.80012599978801],[-112.08153499974426,39.79426100007976],[-112.08726499990374,39.79062599984157],[-112.0871760002153,39.78644200021525],[-112.08984300037748,39.78192800015509],[-112.11490399984953,39.75709999978047],[-112.18003100005711,39.75739800028049],[-112.20048100017637,39.71760299994743],[-112.20688800037838,39.709591999927824],[-112.25865499966069,39.6761520001506],[-112.3008699996262,39.6461699997938],[-112.32915499965235,39.59246800026775]]]}},{"type":"Feature","properties":{"GEOID":"4902","NAME":"Congressional District 2","BASENAME":"2","STATE":"49","CD119":"02"},"geometry":{"type":"Polygon","coordinates":[[[-114.05288499996597,37.55313699984919],[-114.0516260003155,37.30390500008679],[-114.05254100000937,37.11288099970166],[-114.05005200012243,37.00019099985032],[-111.41301399978568,37.0015039997974],[-111.40876199955977,37.00444100030123],[-111.40349400025596,37.00519400001316],[-111.37143800022783,37.00158900019328],[-111.35506299988413,37.00763399981074],[-111.34514300032134,37.00874000024313],[-111.34016600037234,37.011810999812965],[-111.33468100043522,37.018280000039816],[-111.32939800016449,37.02101299978552],[-111.32385799997579,37.020258000066654],[-111.31394099988773,37.01184200001012],[-111.30972999966971,37.011398000260684],[-111.30549300041075,37.0130179997246],[-111.30340299983366,37.01626899987744],[-111.30718300005645,37.02370799993799],[-111.30621099956282,37.026628000285164],[-111.28533899966916,37.03711000029597],[-111.28166200027685,37.04172500033768],[-111.28561999987654,37.044653999755454],[-111.29888000034443,37.04365200026253],[-111.30300299980057,37.04683300023916],[-111.30578499959049,37.056053000153774],[-111.30517100019547,37.06136199986874],[-111.30388200040777,37.06472399985671],[-111.29975800022838,37.0667550000561],[-111.29395199990091,37.064988000328555],[-111.28615399980394,37.05962199992033],[-111.26817900022625,37.05407300018514],[-111.26231199979938,37.04749800030924],[-111.24982499963353,37.024078000336615],[-111.24687200013939,37.02180800001529],[-111.24218300007047,37.02135400013154],[-111.23697799961755,37.024897999914835],[-111.22988099985254,37.03889800009338],[-111.232722000092,37.04305200024617],[-111.24455999980445,37.04565200024458],[-111.24784899975755,37.04924800027591],[-111.24028400018742,37.067743000312575],[-111.23696599992198,37.070090999793656],[-111.23389200005403,37.06948400024714],[-111.23023400002995,37.06638199993923],[-111.2256689998096,37.05761499994778],[-111.22335300017504,37.05603699972241],[-111.21786700041302,37.05687199994063],[-111.18778999973557,37.08813600016089],[-111.18093099962195,37.099823999858586],[-111.17751699999536,37.10271900000664],[-111.16608299961564,37.105511999672785],[-111.15877499996346,37.101041999833946],[-111.15133300041695,37.091328999898295],[-111.13915900024553,37.08861300018668],[-111.13417800009857,37.090566000323356],[-111.12734800029727,37.10398199987676],[-111.12173899961329,37.10804900024935],[-111.1001610002631,37.1026469997148],[-111.09235999979309,37.105118999707926],[-111.07666800023802,37.10279599965587],[-111.06540200008779,37.107872999939254],[-111.06117400015133,37.10624800009015],[-111.05791100013748,37.099646000071644],[-111.0535839995685,37.098883999919224],[-111.0464790003059,37.1010349999024],[-111.04087800001784,37.10844500034726],[-111.01919400036245,37.11176399997856],[-111.01337200014146,37.11570500003557],[-111.001823000134,37.11168600007893],[-110.98907099965427,37.111703000284365],[-110.98188900039877,37.116812999766665],[-110.98464500024942,37.123746000004125],[-110.98184699966767,37.12719300023322],[-110.9630030004268,37.12352499995621],[-110.95662399981389,37.12577100032942],[-110.95065299962998,37.13389499983471],[-110.95588200037237,37.14483600015435],[-110.95576099999853,37.14932899984051],[-110.95369800008392,37.15192100004118],[-110.94957599955437,37.15281100035077],[-110.94216400014511,37.148319000177494],[-110.93799800013294,37.1478390001037],[-110.92858900003299,37.154563000356966],[-110.92484200032047,37.16282200005653],[-110.92664300029425,37.17054800032988],[-110.92507999997184,37.17778999964256],[-110.92133300025932,37.17890100023662],[-110.90958500006026,37.17253800028133],[-110.90227400003502,37.17276500008365],[-110.9012739999523,37.1752800003074],[-110.90266599967217,37.18398000035183],[-110.89085800009696,37.19256500035755],[-110.88897199973435,37.19882299994756],[-110.8901080002595,37.20454800000885],[-110.89742500013251,37.210557999854544],[-110.8980350002279,37.21494799964425],[-110.89328800043269,37.21914500011825],[-110.87965899989389,37.22349499999607],[-110.87508000032815,37.228534000261035],[-110.87944100033401,37.236965999997345],[-110.88722500018724,37.24455500004237],[-110.8881719996682,37.24890499997655],[-110.88113400035274,37.253738999796795],[-110.86412399979933,37.256275999766004],[-110.86074100013487,37.2601160003058],[-110.86138600039034,37.26461599986963],[-110.87290799973529,37.27695499994864],[-110.873246999669,37.286504999972045],[-110.86815900029025,37.28970399979743],[-110.85205099991023,37.2913119997168],[-110.84540100003397,37.29352600021688],[-110.84005599983895,37.29777799974342],[-110.83774199985419,37.30338600000581],[-110.8382630002611,37.312932000200576],[-110.84079099960779,37.31837599974515],[-110.84942599958084,37.32328600005342],[-110.86140999978149,37.32494600023068],[-110.86724600024617,37.32783699964401],[-110.8732740003315,37.33752400006441],[-110.87326000008781,37.34593000009456],[-110.86553599961069,37.34997699981043],[-110.85740899962575,37.348810000021494],[-110.83351999976551,37.3350680002713],[-110.81837300000848,37.329349000012485],[-110.8045059998183,37.32093099995992],[-110.78740300027678,37.32370899991068],[-110.77737200038591,37.322907000057164],[-110.77389000008894,37.32468500026077],[-110.76792999977567,37.33201900016413],[-110.75906600037209,37.333024999862545],[-110.756610999922,37.33641300028975],[-110.75500599976681,37.34920499984588],[-110.75169199969933,37.352849000291776],[-110.74842899968549,37.35195200029394],[-110.7460579997993,37.34732500009619],[-110.7430579995512,37.34523200010658],[-110.73886399994993,37.34486699979448],[-110.73578199968604,37.34639700020021],[-110.73464100003636,37.34950800031126],[-110.73574499987612,37.35857399976761],[-110.72528299999003,37.36625299984011],[-110.72246000019221,37.3722670002224],[-110.7446560000337,37.388226999883535],[-110.7529289996085,37.399024999921124],[-110.75328400033406,37.40452400027565],[-110.75129500003929,37.406377000208934],[-110.74395700024988,37.40764900011596],[-110.73673099971512,37.405915999974944],[-110.72502500024717,37.399769999960036],[-110.71753500012176,37.40107299984988],[-110.70774799973005,37.41037800019645],[-110.70610900013799,37.417882999971745],[-110.69948000017811,37.43209000012885],[-110.70202699979139,37.43562500018124],[-110.70910199981509,37.43737300004211],[-110.72045400017905,37.435020999877615],[-110.72608600042923,37.435733000161164],[-110.74576499989635,37.45267300025293],[-110.74758299958856,37.45848599984668],[-110.74413999964966,37.460237000270794],[-110.73191799979767,37.4582990000367],[-110.72601600010903,37.45951100033322],[-110.72564200001523,37.47230499992168],[-110.72363000015424,37.47652299979055],[-110.71805800017849,37.481513000219216],[-110.69903900013718,37.48162799978374],[-110.667608000273,37.47765900028405],[-110.64019799975776,37.48601999995348],[-110.63980799977043,37.48924999997199],[-110.6446569996729,37.492334000233704],[-110.66353400032234,37.49433199997097],[-110.66767799969489,37.49616899974138],[-110.66392400030969,37.518368000029255],[-110.65983399956717,37.527072000274245],[-110.65097699983629,37.534488000237545],[-110.63664000019114,37.55352999990513],[-110.62219800006571,37.56277299990403],[-110.60610899995227,37.56471199994016],[-110.59970699977312,37.56869600025504],[-110.59834500019049,37.576661000089366],[-110.60417900010705,37.59769200004459],[-110.60297099961188,37.60337400024937],[-110.58272800008018,37.60813099973371],[-110.5673889998042,37.61374499968003],[-110.56423499957029,37.62498999986481],[-110.56327600039378,37.637894999663224],[-110.5590400000614,37.64226400013007],[-110.554082000379,37.6420200001299],[-110.54232099976113,37.63400300033789],[-110.53779700044697,37.63323700017917],[-110.53225100041048,37.635810999845276],[-110.52426499999255,37.64925400015823],[-110.51356499955678,37.65693999989247],[-110.51098699998136,37.65672600028946],[-110.50154000024658,37.65046699988175],[-110.49824399972245,37.6517379998801],[-110.49676099976598,37.65556600000957],[-110.49733499987633,37.659597000083885],[-110.49447100007067,37.666481000057566],[-110.48633800023795,37.6743689997181],[-110.48634699956048,37.67879900006133],[-110.48442400028625,37.682183999941586],[-110.48355100042515,37.6951589999184],[-110.48835099992385,37.7023229996766],[-110.47744200014898,37.70664200003578],[-110.47038600039187,37.7129649997523],[-110.46895899961358,37.7158069998174],[-110.46952000020347,37.722068000228944],[-110.46727800018873,37.7255420002913],[-110.45356400015942,37.73177099992068],[-110.45021699958167,37.734770000149716],[-110.44792699988636,37.739756999889416],[-110.44740800002758,37.755396999844145],[-110.44527999981565,37.76066500026183],[-110.42919400007527,37.770808999793665],[-110.42609300044312,37.77538000010583],[-110.4294350000997,37.779281000004644],[-110.4457760001082,37.77252399972893],[-110.46199999994084,37.77112999968386],[-110.46958799997552,37.77864100013432],[-110.47347899962809,37.794403999980034],[-110.47731499992737,37.79643999980787],[-110.47696099992504,37.80001699996497],[-110.47262599985848,37.80746499990666],[-110.46967800038722,37.80904699999984],[-110.4508590003624,37.809807999794536],[-110.44176699955655,37.80575899986015],[-110.43748099989376,37.806977999768776],[-110.43548999994918,37.81185299977585],[-110.43425200021512,37.83040499980994],[-110.43147600027301,37.83681300022111],[-110.42425399993621,37.84315100012016],[-110.40623800035061,37.84850999990148],[-110.40274099998503,37.85217800010907],[-110.40531500026079,37.87497200010511],[-110.40468500007394,37.88046599982857],[-110.38893700044235,37.88792499990994],[-110.36211500028116,37.89256399999243],[-110.32720799996785,37.8903189999884],[-110.30751600008195,37.890989000085845],[-110.29852600028167,37.88906100016247],[-110.29510000006118,37.88641899982929],[-110.29367499983104,37.87427399964971],[-110.29120500021067,37.869275000334206],[-110.28327300021942,37.86592300010785],[-110.27701499998031,37.871059000156954],[-110.27887100020568,37.87839399991095],[-110.27829899974515,37.8857619998965],[-110.27420999972587,37.89393900006625],[-110.269488000045,37.897550999763304],[-110.26180499957574,37.899269000298325],[-110.24751999980916,37.896425999780675],[-110.22940899978902,37.89572699967155],[-110.2154760003749,37.892497999705895],[-110.2087949996382,37.89407100012307],[-110.20531499988938,37.89773399996622],[-110.20412800020893,37.90602699977106],[-110.19840700027027,37.91592499980315],[-110.19956499963841,37.92223699984281],[-110.203611,37.92708100025635],[-110.20577900039488,37.9344510002551],[-110.20486299997775,37.94241199977646],[-110.20184900038426,37.94687699982753],[-110.18919999983669,37.95196100015515],[-110.16801300029876,37.965018000114014],[-110.16453000017687,37.9699820001554],[-110.16122600015514,37.98209999984204],[-110.1454940004171,37.990704999919814],[-110.13607600009631,38.005258999776665],[-110.11356700026039,38.00821500028355],[-110.09330399973888,37.99468999989861],[-110.08445600022878,37.9950730000478],[-110.07838700013559,37.998173999839224],[-110.0752110001604,38.00215100010414],[-110.07397400025123,38.00808500015143],[-110.07722899986915,38.0183349998153],[-110.07680100024697,38.02158600031246],[-110.06478000023644,38.04227900032612],[-110.05554000019086,38.04835099975368],[-110.04751199994016,38.04866000015476],[-110.045685999852,38.05027199996348],[-110.04282200004634,38.05872499991405],[-110.04701800019575,38.070493000017535],[-110.03872600035436,38.08214200004418],[-110.03354099999291,38.08536200020534],[-110.02603999999685,38.09722799980283],[-110.01670299986692,38.10591899972426],[-110.01009999984636,38.1096850001659],[-110.00360300013097,38.10846800007457],[-109.9994439997915,38.103548000238646],[-109.99414399980229,38.100388999705395],[-109.98688300000578,38.10052000027729],[-109.97855199980633,38.10987899994348],[-109.9646729999206,38.11373199986475],[-109.96315099960606,38.118928000140016],[-109.95615000010054,38.130352000066935],[-109.94395699966255,38.13519099998375],[-109.93437699985837,38.136078000102955],[-109.92929199995434,38.140352000110745],[-109.92726599984967,38.14922299965872],[-109.92822400009958,38.15250200031831],[-109.93264000035701,38.15698899974131],[-109.93092600042188,38.15878500013313],[-109.91383800005063,38.16762200024459],[-109.90354000019607,38.178368000004824],[-109.8912649997423,38.18070399964741],[-109.88716599967728,38.18295899971843],[-109.88510500031082,38.18789199978796],[-109.88666100006222,38.18988899998804],[-109.89141700007828,38.1902580002046],[-109.90095400022474,38.18783400008511],[-109.90401999969677,38.19090799977218],[-109.90218799976086,38.19464000023321],[-109.8897850001589,38.2029549996618],[-109.88780400026006,38.20787000028126],[-109.89792899986227,38.20673599989102],[-109.90903400035401,38.21073300029501],[-109.91809000027652,38.216269000142454],[-109.92046600018558,38.22088199988608],[-109.9198829998544,38.22439100022584],[-109.91627599988398,38.22727399997613],[-109.90359000042478,38.22941799977723],[-109.89052999997347,38.228011000001295],[-109.88852200031045,38.22971800003982],[-109.89152300038349,38.23523000005777],[-109.89891100040163,38.2427839998228],[-109.9125259997984,38.23857199992306],[-109.915946999996,38.239771000063186],[-109.9182569997828,38.242770999684645],[-109.91759499980888,38.24654500035176],[-109.90599399992293,38.251651000192346],[-109.90187999978927,38.256565000327164],[-109.90354600004386,38.264708999884334],[-109.90750000034392,38.27057200024609],[-109.91306899994662,38.269736999939596],[-109.92639899983634,38.26001300007375],[-109.9308030003982,38.2599639997614],[-109.93553599994975,38.262664999925214],[-109.93600999960267,38.26611699985096],[-109.9279930001209,38.27690700010766],[-109.92823800034328,38.280541999994625],[-109.935012999893,38.28556899977819],[-109.94537799969471,38.287515000206554],[-109.94964199961619,38.29077899990707],[-109.950676999859,38.29515099994097],[-109.94637899960236,38.30919799981024],[-109.95108699993783,38.31428299988175],[-109.96095299997226,38.31705100013301],[-109.9633489999728,38.31949199966213],[-109.96499900033383,38.3318040000909],[-109.94795600016846,38.33823500032191],[-109.94562700011508,38.34492800024271],[-109.94113899988761,38.35060200004442],[-109.9412090002078,38.35364400007737],[-109.9462270001647,38.3556760002701],[-109.95268100022238,38.35495899997219],[-109.95553900018027,38.343700999943934],[-109.96331999966048,38.33960199987128],[-109.98321300028616,38.35144299974386],[-109.98678599992141,38.35702899995109],[-109.98699599998368,38.36004099968006],[-109.97935699989537,38.365258999876076],[-109.97289600016501,38.376518000276164],[-109.97261800033067,38.38445999984082],[-109.97668200023557,38.38899300004576],[-109.98126099980132,38.38946099998427],[-109.98603600008394,38.38754899973664],[-110.00253399955297,38.36915000033679],[-110.00869300005786,38.36493999985779],[-110.01307199960706,38.364066999671515],[-110.01612100025896,38.365381000262154],[-110.00940400043557,38.37241699984846],[-110.01024899980925,38.377605000227476],[-110.01935499996051,38.3827819998405],[-110.02990800008321,38.38385800033257],[-110.03266200028402,38.38598499997861],[-110.03351800042668,38.38917300016387],[-110.031456000337,38.39229200023237],[-110.02382899994426,38.39448699968148],[-110.01780000003401,38.40501599997153],[-110.00661300042484,38.41020300027318],[-110.00312600010498,38.41410300003061],[-110.00665799973235,38.422955000052674],[-110.02658800016795,38.44743200019957],[-110.03878900010353,38.446349000169384],[-110.04431800042158,38.44901099982927],[-110.04393799958166,38.45611000012243],[-110.0354969997774,38.45996100030523],[-110.03044500038364,38.457224000150696],[-110.02494799985263,38.45072100001888],[-110.01855300024452,38.44629300020662],[-110.0133910003476,38.44669100030544],[-110.01075199977451,38.449493999938475],[-110.01139399965692,38.457403000248554],[-110.00327300041808,38.47040700018534],[-110.00197700005937,38.48167799982225],[-110.01952400001491,38.492752999933074],[-110.02061000031134,38.49588899984979],[-110.02528500013653,38.499982000075725],[-111.30570099992488,38.49999800031196],[-111.30701099962899,38.67233100026854],[-111.29913800008727,38.67232900003623],[-111.29817700036263,39.016823999881794],[-111.29938400013458,39.017822000216874],[-111.29936300021816,39.032310999713154],[-111.85329700010067,39.032983999760624],[-111.8536660001716,39.03749300034805],[-111.8516740004021,39.039562000131156],[-111.85322500013064,39.040646000152655],[-111.84628300017634,39.042381999755364],[-111.84988599994881,39.04557700032942],[-112.01408299968128,39.04551800026205],[-112.01600300037904,39.314560999946465],[-112.0722179997058,39.31492300011279],[-112.07210800010095,39.32969500013044],[-112.1889220001232,39.329391999908914],[-112.18890700005457,39.37308900031267],[-112.19359600012348,39.37309000028626],[-112.19327700028124,39.48983400033991],[-112.20262600010673,39.48985799973264],[-112.20263299977944,39.504323000053645],[-112.20730000010703,39.50433399985197],[-112.20728500003842,39.511566000041434],[-112.21196099968853,39.511579000212045],[-112.2119730002824,39.52604200008421],[-112.19324200012115,39.526023000005615],[-112.19329200034987,39.540450999868185],[-112.20266600028971,39.54043400026342],[-112.20267200013748,39.5440480001327],[-112.20734600013779,39.54407999975638],[-112.20735299981047,39.54769600003493],[-112.21202900035891,39.547729999838715],[-112.21204500025243,39.55398700032117],[-112.3544670000929,39.5536839997574],[-112.32915499965235,39.59246800026775],[-112.3008699996262,39.6461699997938],[-112.25865499966069,39.6761520001506],[-112.20688800037838,39.709591999927824],[-112.20048100017637,39.71760299994743],[-112.18003100005711,39.75739800028049],[-112.11490399984953,39.75709999978047],[-112.08984300037748,39.78192800015509],[-112.0871760002153,39.78644200021525],[-112.08726499990374,39.79062599984157],[-112.08153499974426,39.79426100007976],[-112.07675600016199,39.80012599978801],[-112.08002300037379,39.80210099967967],[-112.07775600024468,39.809152000195404],[-112.07270899997549,39.81214199989154],[-112.06826199975592,39.82753100031563],[-112.06545300020183,39.82988999968728],[-112.06983400029917,39.83469299974014],[-112.07049700009797,39.83812199980118],[-112.07521499958088,39.83969299970886],[-112.0739850002427,39.847296999791325],[-112.07692199984334,39.85283599985939],[-112.0806090001797,39.85325899983713],[-112.07950500033994,39.85747100016105],[-112.08129100024509,39.86476899982937],[-112.07057900011375,39.86986500031971],[-112.06638200013944,39.875958000092446],[-112.05913100038865,39.88005199975111],[-112.06039400023707,39.88424799973107],[-112.05955599963777,39.88716999984214],[-112.05352400025279,39.89348199970701],[-112.0577709995575,39.8947049996574],[-112.06150399992465,39.89859400026172],[-112.06255199968793,39.90467999984397],[-112.07221299968295,39.91131700020903],[-112.07839200027932,39.91145699969117],[-112.081256000085,39.91314699990225],[-112.08060099978378,39.91707499967339],[-112.08343399962733,39.91846999979448],[-112.0829039998979,39.92148399979927],[-112.08513900023995,39.92304400000613],[-112.0852480000199,39.92549399996011],[-112.09210899978335,39.92761799985002],[-112.09327899974537,39.93016200029096],[-112.09886999998767,39.928109000264165],[-112.10359000001873,39.9287670000239],[-112.10430800006912,39.930804999978584],[-112.10250000042264,39.93484499997474],[-112.10625899983073,39.93930499982334],[-112.10313200025932,39.94251499997406],[-112.10342099996434,39.94699000013287],[-112.09400299964354,39.95390400007237],[-112.0957240001497,39.956773000249285],[-112.10242400025467,39.95888800006111],[-112.10400400029552,39.96531899990076],[-112.10980100040216,39.97056600020005],[-112.10986699962609,39.9737990002894],[-112.12433800006384,39.97410600031505],[-112.1327289996394,39.977470999982096],[-112.13623900042379,39.98243699973245],[-112.14206699959425,39.986707999681904],[-112.14198700012662,39.98964199988971],[-112.15086499977393,39.99345499987928],[-112.15071900018407,39.9980600000352],[-112.15493600024985,40.00052000018055],[-112.16032300027767,40.00698200004168],[-112.17040199984913,40.007823000182846],[-112.17435899962393,40.01104400002675],[-112.17980000007842,40.01165600030816],[-112.17689400043993,40.01942999998804],[-112.17751100020801,40.02969800006999],[-112.17397100018474,40.03285599990074],[-112.17485099971852,40.03543899994832],[-112.17198000024013,40.03957999988624],[-112.17761400014018,40.04735600020357],[-112.17871999962976,40.053380000172126],[-112.1837690004471,40.059963999825165],[-112.17998400020143,40.067219999791874],[-112.17314900037724,40.0662389997486],[-112.17197900041523,40.069053999926155],[-112.1759610003044,40.07771599974452],[-112.17405999987318,40.07969899994199],[-112.1745479997698,40.08183399993712],[-112.17141000032775,40.085551000316066],[-112.1579459996454,40.08910699986424],[-112.15701400023306,40.098490000313085],[-112.15104999972183,40.105290999664206],[-112.15089200043641,40.107297999716465],[-112.15488199982317,40.108745999736044],[-112.1561570002655,40.11329100014411],[-112.16081299982412,40.11423800019113],[-112.1612830001774,40.11690799990349],[-112.1641689997244,40.11874899978293],[-112.16373100005649,40.123441999825864],[-112.1729700002771,40.12754899990814],[-112.17625099983431,40.13099899965873],[-112.1730199996075,40.13532800031357],[-112.17241899973298,40.140897999734676],[-112.16776900002213,40.14666599982584],[-112.17173900021572,40.14914699977321],[-112.17395000026832,40.15449100020964],[-112.16462400000907,40.16186499975407],[-112.15868499961219,40.16338699972549],[-112.15507900036499,40.168550999738805],[-112.15579700041538,40.170381000290234],[-112.14570100022718,40.17095900012507],[-112.14438700032512,40.17348699980869],[-112.14597999988644,40.17427599997617],[-112.14671200018054,40.17834999984384],[-112.1527500003116,40.17905599983053],[-112.15336100023188,40.18184699975726],[-112.15049900007602,40.18768200013852],[-112.14687100018921,40.18948799973692],[-112.14877500009514,40.190605000232225],[-112.14862000028445,40.19567799980162],[-112.158036999882,40.197329000004785],[-112.16049900000476,40.19924500026636],[-112.1572419998387,40.20323200004875],[-112.15854099967216,40.20671900011029],[-112.14948599957452,40.212173999774464],[-112.15493899972458,40.2150029996948],[-112.15345699959303,40.21768499974979],[-112.15459399994309,40.21856099970455],[-112.15699599979142,40.21940599993574],[-112.16153199969945,40.21705899967204],[-112.16887600023496,40.21940900020757],[-112.16844100004177,40.22170800004825],[-112.17059500019298,40.225720000180466],[-112.17555899972318,40.226639999800696],[-112.17969299994829,40.23224000020932],[-112.1793260004255,40.249365000331885],[-112.18422999968124,40.25040900012973],[-112.18366800016476,40.25776900020916],[-112.19158799956215,40.263628000267786],[-112.19289800016458,40.26893899987356],[-112.18905000016971,40.27354099967622],[-112.18843900024943,40.285701999972595],[-112.18644999995468,40.28672899988012],[-112.18843800042451,40.29031899986537],[-112.18735600032603,40.29203600021318],[-112.19014599961356,40.296058999698026],[-112.18943099993622,40.29862300018713],[-112.19207999965674,40.304099999792214],[-112.19860499985951,40.306915000103544],[-112.19735200005684,40.30880400034253],[-112.19850399957718,40.31230600011243],[-112.19748099992826,40.316082000253374],[-112.1937020004287,40.3183450000855],[-112.19268200025448,40.3228910002711],[-112.19618499956954,40.32601700000445],[-112.19076800030281,40.329515000059196],[-112.17993499979762,40.33213500031716],[-112.1755329997839,40.33583700021644],[-112.18136599987555,40.34588499982422],[-112.18508300034915,40.34799600010589],[-112.18807600002627,40.35488499985609],[-112.19471900022984,40.361330000331684],[-112.19366600044368,40.36801999976761],[-112.18873399980221,40.372486999927084],[-112.19441100025826,40.37954400007242],[-112.19916899992414,40.38254499982259],[-112.20160500010765,40.387991999762185],[-112.19933999962835,40.3908190000597],[-112.20005100000607,40.39735599972848],[-112.19849400042976,40.40025400021576],[-112.19985400036256,40.40349699975109],[-112.19791199992348,40.41493200025718],[-112.19463899986388,40.42110900032859],[-112.20499000032024,40.43114100031876],[-112.20952500040335,40.43226000030605],[-112.21415800039573,40.452541000075875],[-112.21221900032971,40.45928200003393],[-112.19568599980227,40.462259000302836],[-112.19020000004025,40.4685410001856],[-112.17286200032207,40.46706499967364],[-112.17156699978828,40.47118199990171],[-112.17360200011379,40.47595499969424],[-112.17627400029883,40.476763999731055],[-112.17821400018978,40.48233500026324],[-112.17701599974038,40.485382999722674],[-112.18132800024073,40.49265099992327],[-112.18058199970292,40.49756700027618],[-112.17584499995343,40.5001420001909],[-112.18037099981574,40.50272200028697],[-112.18765000005392,40.51389900029904],[-112.18521100039567,40.51777800021028],[-112.1787420002694,40.521910000214945],[-112.17919500000593,40.53161199975197],[-112.18278899955756,40.540980000326954],[-112.17919500000593,40.54630599972683],[-112.17823400028128,40.55625100013302],[-112.18290699955833,40.56218999967306],[-112.18199199986445,40.570707999830475],[-112.18362499960872,40.57339400006684],[-112.18037699966352,40.57734599973559],[-112.18146899980772,40.58038299999568],[-112.17495700002372,40.58532000012059],[-112.17753799997217,40.596089999822745],[-112.17533699996534,40.60398100022367],[-112.17854999975047,40.60547299992599],[-112.18170900000722,40.612055000043874],[-112.18815700021712,40.61392799979622],[-112.1958990002376,40.62123300009986],[-112.19761700037071,40.62620599985081],[-112.196392999982,40.62933999971921],[-112.19033800013251,40.62801099973695],[-112.07947299965457,40.62895900008012],[-112.07671799962884,40.63111999976434],[-112.03501900004736,40.631229000176006],[-112.03138500031274,40.63855599969081],[-112.02463400015414,40.638551000312034],[-112.02455700016125,40.65452500009492],[-112.02728399969958,40.65409000005486],[-112.02531899969426,40.65486000015103],[-112.02711600036841,40.656373000334845],[-112.02709899975163,40.65911500014914],[-112.02464199965175,40.66105599981129],[-112.02474299993408,40.68207799968221],[-111.93833999960181,40.68212899971171],[-111.91740400013404,40.687008999855024],[-111.83087399958015,40.687082000134275],[-111.83407600039295,40.69670100010372],[-111.83362600013115,40.7193720000309],[-111.83576500021374,40.72012699969301],[-111.83365700009328,40.72549699979815],[-111.83362600013115,40.73199799977114],[-111.83076599962513,40.73198600010124],[-111.83032100028451,40.745492000049815],[-111.83252599959103,40.74775200033294],[-111.8386759998751,40.74775300006851],[-111.8386759998751,40.74980300013552],[-111.89108099974014,40.74977500022967],[-111.89110099983164,40.774250000193476],[-111.89682400031843,40.785372000284354],[-111.89968399992613,40.78673299983816],[-111.90369699977745,40.79443500024755],[-111.91828500039107,40.80746900032421],[-111.91876200041702,40.81307899976049],[-111.91555499958136,40.82181599984432],[-111.9056650001558,40.82182299971035],[-111.90566900035377,40.81987799967615],[-111.9009069995916,40.81988199971657],[-111.90090599976669,40.82182700031328],[-111.89115400043339,40.82182600033251],[-111.89101700016604,40.82728100009553],[-111.87235299995194,40.82741599985308],[-111.87236299999766,40.83459799988206],[-111.85338199959116,40.8346679999706],[-111.85334300013142,40.8419309998341],[-111.84852500019109,40.84175699997857],[-111.84858700011534,40.849136000176436],[-111.85338900016217,40.849243999738015],[-111.85344299969051,40.856436000185994],[-111.83428999975489,40.85612200020279],[-111.8343759999686,40.85991100005095],[-111.8391400003806,40.86003799995023],[-111.83919499973385,40.863922999764],[-111.83446899985503,40.863921999738835],[-111.83462700003878,40.871175999887924],[-111.81555399957075,40.8711400001973],[-111.81537100017096,40.88557499970884],[-111.83419299967049,40.88556099985809],[-111.83442700002225,40.87836600022389],[-111.83915799992394,40.878387000244224],[-111.8390769997331,40.88199500002283],[-111.8438650004345,40.88201700000212],[-111.84375400010643,40.88976700002613],[-111.84226299975403,40.88978700019007],[-111.84225400043151,40.89125599981347],[-111.84457199971592,40.891257999717226],[-111.84379500011428,40.89513099973059],[-111.84766499985045,40.8982850002729],[-111.84760999959887,40.900021000165104],[-111.85128100004172,40.900005999816706],[-111.85148699990606,40.903513999929835],[-111.86303300043878,40.90351700024804],[-111.86311999957908,40.90748499985917],[-111.8535249997063,40.90752300023992],[-111.85340000003283,40.914829999976455],[-111.86486899967434,40.91476500009961],[-111.86554700044006,40.92206500028635],[-111.86769599967009,40.92206100030542],[-111.86795599996108,40.92935599972696],[-111.86986300024007,40.929328000229646],[-111.86843499963686,40.93165299993413],[-111.86996399962409,40.9315059999158],[-111.8727439997642,40.94862900031945],[-111.87588200010455,40.95264599969012],[-111.88001999962933,40.95216599987779],[-111.8800039997358,40.96483199976854],[-111.87292399968925,40.96571299982419],[-111.87304500006306,40.974777000237445],[-111.87775699969818,40.9765690002797],[-111.87786700020135,40.98748399967391],[-111.88013500015538,40.98745500021937],[-111.88017799981309,40.998396000051514],[-111.88732800017985,40.99841399983696],[-111.88730100041565,41.002080999876576],[-111.8903660000628,41.0020619997664],[-111.89211699980785,41.00384000019512],[-111.89222800013596,41.016527999850915],[-111.89695900003765,41.01648000027517],[-111.89696099968745,41.01401999975916],[-111.90168999993934,41.01285099971174],[-111.90168099971851,41.01643900028505],[-111.90648600013834,41.01642100000031],[-111.9128120001495,41.01183299966504],[-111.91965600019452,41.01277100022698],[-111.92229400004439,41.009702000182145],[-111.93088800000956,41.00859899977598],[-111.9310520000411,41.00555799968059],[-111.92597999965754,41.002206000072505],[-111.92601200034292,40.99980899978349],[-111.93090899992596,40.99980899978349],[-111.92956999990955,40.99751099967915],[-111.9309320003905,40.99617600012559],[-111.9500250000517,40.994249000242704],[-111.96285699999905,40.98871299969905],[-111.96651099982515,40.991779999880016],[-111.97033399970564,40.98627199997615],[-111.9740820001414,40.98648699997736],[-111.97630999991244,40.992650999671056],[-111.98044800033551,40.994038000153715],[-111.99777400035812,40.99097899966356],[-112.00450000040236,40.98531400020895],[-112.0342549999662,40.98764300008112],[-112.04429400025299,40.98962199995035],[-112.05025200001812,40.993296999690294],[-112.05769799976258,41.00664999988681],[-112.05779200037222,41.007982999715395],[-112.05609000013263,41.00763100019412],[-112.05731600017116,41.01085399990655],[-112.06569099985319,41.02181500031394],[-112.07614299969356,41.024748999727436],[-112.08675299971767,41.03233699970834],[-112.0924019996863,41.03232800004499],[-112.09700999956436,41.03474899999407],[-112.10432599961247,41.04942899981011],[-112.11968599980484,41.0642500001798],[-112.1250800004037,41.079381000088375],[-112.12488799988475,41.084715000118315],[-112.12677099987431,41.089215999686836],[-112.45162100001627,41.08733400024096],[-112.79935900011084,40.999939000233184],[-114.04202899989457,40.999896000112805],[-114.04609899964727,40.401848000238004],[-114.05052099975248,38.49611699984123],[-114.04932499985118,38.266059999840394],[-114.05049999983608,37.95334100018089],[-114.04961299973128,37.82354099970852],[-114.04830200020227,37.809424000194824],[-114.05165399990457,37.751498000069176],[-114.05288499996597,37.55313699984919]]]}}]}